SKN,Name,Lat_DD,Lon_DD,LatDeg,LatMin,LatSec,LonDeg,LonMin,LonSec,NorthingY,EastingX,ElevFT,ElevM,Observer,MinYear,MaxYear,StationStatus,DataSources
1.1,Morse Field,18.91367961,-155.6805497,18,54,49.2,155,40,50,2094562.572,849707.131,40,12,US AIR FORCE,1939,1941,Discontinued,State
1.2,Kalae S Trk Sta,18.93866881,-155.6805489,18,56,19.2,155,40,50,2097331.243,849655.129,305,93,SPACE TECH LAB,1965,1969,Discontinued,State
2.1,Kahuku Mauka 2.10,19.105,-155.725,19,6,18,155,43,30,2115671.698,844625.086,3151,961,NCDC_Daily,2002,2006,Discontinued,NCDC_Daily
2.11,Bottom 1916 Flow,19.22310147,-155.7952647,19,13,23.2,155,47,43,2128618.649,836984.533,2770,845,HOLUALOA RANCH,1956,1957,Discontinued,State
2.12,Top Terr Boy,19.18588011,-155.8222097,19,11,9.2,155,49,20,2124443.039,834224.217,3430,1046,HOLUALOA RANCH,1956,1957,Discontinued,State
2.13,100 Acres,19.1961578,-155.8035984,19,11,46.2,155,48,13,2125617.514,836162.358,4200,1280,PUUWAAWAA RANCH,1961,1979,Discontinued,State
2.14,Kapua Mauka,19.18532491,-155.7888767,19,11,7.2,155,47,20,2124445.886,837734.035,4620,1409,HOLUALOA RANCH,1956,1957,Discontinued,State
2.15,Pa Hanalei Pen,19.2036575,-155.813876,19,12,13.2,155,48,50,2126428.538,835065.382,4000,1220,HOLUALOA RANCH,1956,1979,Discontinued,State
2.16,Castle Padd Tank,19.21365726,-155.7888761,19,12,49.2,155,47,20,2127584.755,837676.185,5050,1540,HOLUALOA RANCH,1956,1957,Discontinued,State
2.17,Okoe,19.16699076,-155.8652659,19,10,1.2,155,51,55,2122268.332,829729.832,1590,485,PUUWAAWAA RANCH,1958,1977,Discontinued,State
2.18,Kole Pen,19.13865819,-155.875544,19,8,19.2,155,52,32,2119110.235,828704.084,920,280,PUUWAAWAA RANCH,1960,1977,Discontinued,State
2.22,Furlka,19.18199125,-155.8255431,19,10,55.2,155,49,32,2124005.816,833881.195,3200,976,PUUWAAWAA RANCH,1979,1979,Discontinued,State
2.23,Bill Jack,19.18199061,-155.8505432,19,10,55.2,155,51,2,2123957.979,831249.65,2060,628,HOLUALOA RANCH,1957,1957,Discontinued,State
2.24,Kau,19.10866081,-155.7958228,19,6,31.2,155,47,45,2115939.081,837158.822,2360,720,WINFORD GARDENS,1966,1968,Discontinued,State
2.3,Hoopuloa Upper,19.21032328,-155.8522094,19,12,37.2,155,51,8,2127093.559,831017.508,2425,739,DOMKOWICZ RYS,1903,1912,Discontinued,State
2.31,South Kona,19.09699465,-155.7497122,19,5,49.2,155,44,59,2114736.224,842038.911,2650,808,MRS C CARLSON,1977,1986,Discontinued,State
2.32,South Kona 2 2.32,19.105,-155.78,19,6,18,155,46,48,2115564.123,838832.625,2564,782,NCDC_Daily,1989,Present,Current,NCDC_Daily
2.35,Honomalino 2.35,19.201,-155.843,19,12,3.6,155,50,34.8,2126078.264,832005.47,2746,837,NCDC_Daily,1999,2002,Discontinued,NCDC_Daily
2.36,Kapua 2.36,19.14,-155.824,19,8,24,155,49,26.4,2119356.814,834128.352,2472,754,NCDC_Daily,2000,Present,Current,NCDC_Daily
2.4,Hoopuloa Lower,19.19698981,-155.8688765,19,11,49.2,155,52,8,2125584.812,829290.016,1650,503,EDWARDS EH,1897,1905,Discontinued,State
2.7,Kahuku Plant,19.23587837,-155.8585982,19,14,9.2,155,51,31,2129912.442,830293.981,2400,732,ARNEMANN WHG,1909,1910,Discontinued,State
2.8,Top Coffee Papa,19.19532346,-155.855543,19,11,43.2,155,51,20,2125425.507,830696.7,2050,625,HOLUALOA RANCH,1956,1957,Discontinued,State
2.9,Kapulepu,19.18199051,-155.8555432,19,10,55.2,155,51,20,2123948.46,830723.349,1900,579,HOLUALOA RANCH,1956,1956,Discontinued,State
3,South Pt Corral,18.94700043,-155.6799932,18,56,49.2,155,40,48,2098255.447,849696.332,400,122,PARKER RANCH,1948,1981,Discontinued,"NCDC, State, State/NCDC"
3.1,Kahuku 2 Makai,19.13838146,-155.6986016,19,8,18.2,155,41,55,2119422.466,847335.5,4300,1311,KAHUKU RANCH,1949,1973,Discontinued,State
3.11,Mauka Reservoir 3.11,19.159,-155.674,19,9,32.4,155,40,26.4,2121756.116,849882.541,4990,1521,NCDC,1983,Present,Current,NCDC
3.3,Kealakoa,19.11504791,-155.6330485,19,6,54.2,155,37,59,2116968.947,854288.306,3100,945,KAHUKU RANCH,1969,1974,Discontinued,State
3.5,Glover,19.12782672,-155.7180456,19,7,40.2,155,43,5,2118214.468,845310.029,3960,1207,KAHUKU RANCH,1969,1974,Discontinued,State
3.6,Manuwai Nui,19.12310389,-155.6766578,19,7,23.2,155,40,36,2117773.609,849678.431,3760,1146,KAHUKU RANCH,1963,1974,Discontinued,State
3.8,Kahiawai Mauka,19.13227142,-155.759156,19,7,56.2,155,45,33,2118626.058,840971.798,4120,1256,SMITH R,1976,1978,Discontinued,State
4,Kamaoa,19.0042156,-155.6638817,19,0,15.2,155,39,50,2104626.761,851274.717,1070,326,KAWAIHAE RANCH,1945,1952,Discontinued,State
4.11,Kamaoa,19.04143649,-155.6277712,19,2,29.2,155,37,40,2108823.475,855001.209,1074,327,KAWAIHAE RANCH,1970,1971,Discontinued,State
4.2,Keaa Homesteads,19.04365913,-155.6588813,19,2,37.2,155,39,32,2109007.011,851718.539,1680,512,BARTELS MRS F,1901,1906,Discontinued,State
4.3,Kaalualu Bay,18.97033138,-155.6138838,18,58,13.2,155,36,50,2100973.127,856616.324,20,6,HUTCHINSON SUGAR,1956,1961,Discontinued,State
4.6,George Peck,18.99893763,-155.657493,18,59,56.2,155,39,27,2104054.769,851959.138,1022,312,KAHUKU RANCH,1969,1974,Discontinued,State
4.9,Kaalualu,18.93777778,-155.6458333,18,56,16,155,38,45,2097301.78,853317.087,15,5,HAWN RANCH,1962,1974,Discontinued,State
5,Kamaoa-P Ranch,19.02532608,-155.6672146,19,1,31.2,155,40,2,2106959.065,850879.089,1375,419,PARKER RANCH,1939,1982,Discontinued,"NCDC, State, State/NCDC"
6.1,Kau-Hayselden,19.07532634,-155.6222157,19,4,31.2,155,37,20,2112589.765,855514.215,1850,564,HAYSELDEN WH,1904,1913,Discontinued,State
6.3,Kahuku Mill Camp 6.3,19.068,-155.658,19,4,4.8,155,39,28.8,2111705.693,851759.978,2062,629,NCDC_Daily,1991,Present,Current,NCDC_Daily
7.1,Field 140,19.07032708,-155.5972166,19,4,13.2,155,35,50,2112086.819,858158.592,1450,442,HUTCHINSON SUGAR,1964,1966,Discontinued,State
9,Punaluu Kahawai,19.24698362,-155.6055497,19,14,49.1,155,36,20,2131643.898,856899.647,6200,1890,STATE DIV FTRY,1929,1933,Discontinued,State
9.1,Mauna Loa,19.24365061,-155.6105496,19,14,37.1,155,36,38,2131264.309,856380.673,6200,1890,KAHUKU RANCH,1959,1966,Discontinued,State
10.1,New Mt House Rd,19.12199154,-155.593328,19,7,19.2,155,35,36,2117819.404,858456.779,1920,585,HUTCHINSON SUGAR,1964,1971,Discontinued,State
11.2,Haao Springs,19.08782636,-155.619438,19,5,16.2,155,37,10,2113980.431,855780.092,2700,823,HUTCHINSON SUGAR,1964,1971,Discontinued,State
11.3,Field 450,19.10699234,-155.5930502,19,6,25.2,155,35,35,2116158.003,858518.437,2200,671,HUTCHINSON SUGAR,1964,1971,Discontinued,State
11.4,Field 350,19.08449338,-155.5916613,19,5,4.2,155,35,30,2113667.879,858713.303,1920,585,HUTCHINSON SUGAR,1964,1971,Discontinued,State
12.11,Field 765,19.16782193,-155.5472179,19,10,4.2,155,32,50,2122993.143,863212.701,1700,518,HUTCHINSON SUGAR,1964,1971,Discontinued,State
12.7,Field 656,19.14976747,-155.5791617,19,8,59.2,155,34,45,2120926.283,859888.475,1750,534,HUTCHINSON SUGAR,1964,1973,Discontinued,State
12.8,Field 750,19.17976517,-155.5722178,19,10,47.2,155,34,20,2124264.571,860554.333,2120,646,HUTCHINSON SUGAR,1964,1971,Discontinued,State
12.9,Field 850,19.17893212,-155.5527735,19,10,44.2,155,33,10,2124212.663,862603.37,1952,595,HUTCHINSON SUGAR,1962,1975,Discontinued,State
13.3,Field 51,19.12032479,-155.5738842,19,7,13.2,155,34,26,2117674.766,860508.24,1740,530,HUTCHINSON SUGAR,1964,1970,Discontinued,State
13.7,Naalehu Airstrip,19.07532737,-155.5758284,19,4,31.2,155,34,33,2112684.792,860401.083,1180,360,HUTCHINSON SUGAR,1964,1971,Discontinued,State
13.8,Kaala Iki Astrip,19.13004644,-155.5738842,19,7,48.2,155,34,26,2118751.982,860487.111,1750,534,HUTCHINSON SUGAR,1964,1983,Discontinued,State
14.1,Honuapo  25,19.08032814,-155.5541624,19,4,49.2,155,33,15,2113283.691,862672.739,1895,578,HUTCHINSON SUGAR,1895,1907,Discontinued,State
14.2,Naalehu Hewitt,19.06366105,-155.5805503,19,3,49.2,155,34,50,2111382.387,859928.861,1250,381,GC HEWITT,1896,1900,Discontinued,State
14.3,Naalehu (1725),19.08032681,-155.5972167,19,4,49.2,155,35,50,2113194.822,858137.051,1725,526,HEWITT GC,1898,1900,Discontinued,State
16,Moaula Tunnel,19.21837381,-155.5438844,19,13,6.1,155,32,38,2128601.709,863452.481,3000,915,HAWN AG,1923,1948,Discontinued,State
16.1,Field 009,19.19698641,-155.5472179,19,11,49.2,155,32,50,2126224.822,863148.632,2325,709,HAWN AG,1967,1971,Discontinued,State
17.1,Moaula-Willis,19.19698684,-155.5138847,19,11,49.2,155,30,50,2126294.829,866657.872,1700,518,WILLIS TC,1898,1902,Discontinued,State
20.4,Field 100,19.2303176,-155.5091621,19,13,49.1,155,30,33,2129998.26,867080.915,2675,816,HAWN AG,1969,1983,Discontinued,State
20.5,Field 303,19.24559424,-155.4983287,19,14,44.1,155,29,54,2131714.068,868187.092,2840,866,KAU PLANTATION,1979,1982,Discontinued,State
23,Kahuku,19.23222222,-155.78,19,13,56,155,46,48,2129658.808,838572.256,5894,1797,RAWS,2006,Present,Current,RAWS
24,Ohia Lodge,19.2636556,-155.8741544,19,15,49.2,155,52,27,2132960.096,828601.681,1320,402,REDFEARN MRS A,1948,1950,Discontinued,State
24.2,Kaohe-Brown,19.31198823,-155.8772104,19,18,43.2,155,52,38,2138308.629,828183.68,950,290,BROWN DM,1980,1981,Discontinued,State
24.4,Kaohe Makai 24.4,19.317,-155.883,19,19,1.2,155,52,58.8,2138852.859,827564.76,307,94,NCDC_Daily,1984,Present,Current,NCDC_Daily
25,Pahoehoe,19.34393212,-155.8749878,19,20,38.2,155,52,30,2141851.632,828353.495,1000,305,LINCOLN LP,1930,1947,Discontinued,State
25.1,Kalahiki (750),19.40948383,-155.8894343,19,24,34.1,155,53,22,2149086.072,826703.456,750,229,MCDOUGALL GW,1895,1907,Discontinued,State
25.2,Kalahiki (1500),19.38031887,-155.8638781,19,22,49.1,155,51,50,2145903.81,829448.512,1500,457,MCDOUGALL GW,1904,1907,Discontinued,State
25.3,Hookena,19.38031884,-155.8805447,19,22,49.1,155,52,50,2145872.034,827696.329,850,259,ENDO CAROLYN,1926,1929,Discontinued,State
25.4,Kalahiki (1800),19.41198392,-155.8722121,19,24,43.1,155,52,20,2149395.82,828508.684,1800,549,MCDOUGALL GW,1901,1903,Discontinued,State
25.5,Mccandless Off,19.37698576,-155.8772112,19,22,37.1,155,52,38,2145509.132,828053.467,860,262,MCCANDLESS RANCH,1956,1959,Discontinued,State
25.6,Kahauko Pen,19.37698549,-155.8938779,19,22,37.1,155,53,38,2145477.469,826301.256,230,70,MCCANDLESS RANCH,1957,1959,Discontinued,State
26.3,Waipunaula,19.49420151,-155.8930461,19,29,39.1,155,53,35,2158464.313,826154.168,2320,707,BRENNER GEO,1969,1983,Discontinued,State
27.1,Uyeda-Honaunau,19.43198288,-155.8872122,19,25,55.1,155,53,14,2151582.759,826891.954,690,210,BISHOP ESTATE,1956,1962,Discontinued,State
27.2,Honaunau Forst 1,19.4119837,-155.8572121,19,24,43.1,155,51,26,2149424.5,830085.357,2240,683,BISHOP ESTATE,1954,1962,Discontinued,State
27.3,Honaunau Forst 2,19.41698295,-155.8372123,19,25,1.1,155,50,14,2150016.829,832177.422,3450,1052,BISHOP ESTATE,1957,1962,Discontinued,State
27.5,Honaunau-Steffen,19.41753913,-155.8813788,19,25,3.1,155,52,53,2149993.761,827534.021,980,299,STEFFEN GE,1977,1983,Discontinued,State
27.6,Honaunau No. 2*,19.47,-155.89,19,28,12,155,53,24,2155789.037,826522.764,1306,398,Hydronet,1992,Present,Current,Hydronet
28.3,Kahauloa 2,19.46364797,-155.8788792,19,27,49.1,155,52,44,2155106.546,827704.041,1520,463,BISHOP ESTATE,1956,1957,Discontinued,State
28.4,Keei Makai 2,19.44531561,-155.8916567,19,26,43.1,155,53,30,2153051.325,826398.158,5801,1769,BISHOP ESTATE,1954,1962,Discontinued,State
28.6,Napoopookai,19.46836978,-155.9211013,19,28,6.1,155,55,16,2155549.559,823258.162,10,3,COULTER BRUCE,1971,1975,Discontinued,State
28.7,Kealakekua #2,19.49697886,-155.9138792,19,29,49.1,155,54,50,2158732.475,823960.005,1450,442,MEIER MRS LILAH,1976,1977,Discontinued,State
28.9,Honaunau,19.44975979,-155.8805456,19,26,59.1,155,52,50,2153564.806,827556.871,1146,349,MCLEAN-HUMPHREY,1982,1982,Discontinued,State
29.1,Kealakekua-Davis,19.50697819,-155.9172125,19,30,25.1,155,55,2,2159833.895,823589.916,1580,482,DAVIS REV SH,1891,1915,Discontinued,State
29.12,Kealakekua T.f.*,19.52,-155.92,19,31,12,155,55,12,2161271.176,823271.173,1765,538,Hydronet,1991,Present,Current,Hydronet
29.3,Konawaena,19.50864475,-155.9172126,19,30,31.1,155,55,2,2160018.515,823586.586,1580,482,BUTTLES W,1956,1964,Discontinued,State
29.4,Konawaena School,19.50864479,-155.9138793,19,30,31.1,155,54,50,2160024.821,823936.732,1670,509,KONAWAENA SCH AG,1957,1964,Discontinued,State
29.6,Onouli,19.50031189,-155.9208235,19,30,1.1,155,55,15,2159088.591,823223.859,1350,412,MITCHELL DR J,1959,1962,Discontinued,State
29.9,Malukalu,19.5142001,-155.8949909,19,30,51.1,155,53,42,2160676.079,825909.73,2560,780,GREENWELL ESTATE,1962,1981,Discontinued,State
30.1,Big Hill,19.40031632,-155.8122122,19,24,1.1,155,48,44,2148218.844,834839.394,4640,1415,MCCANDLESS RANCH,1957,1957,Discontinued,State
30.2,Palipakika,19.38031865,-155.8472114,19,22,49.1,155,50,50,2145935.729,831200.728,3100,945,MCCANDLESS RANCH,1958,1961,Discontinued,State
34,Kapapala Rch*,19.28,-155.45,19,16,48,155,26,60,2135630.169,873195.722,2095,639,Hydronet,1998,Present,Current,Hydronet
35,Wood Valley Tunn,19.27031477,-155.4955512,19,16,13.1,155,29,44,2134459.349,868424.089,3400,1037,HAWN AG,1923,1954,Discontinued,State
35.2,Wood Valley Camp,19.26864852,-155.4705514,19,16,7.1,155,28,14,2134328.065,871058.697,2150,655,HAWN AG,1949,1954,Discontinued,State
35.3,Wood Valley 2000,19.2469831,-155.480551,19,14,49.1,155,28,50,2131905.812,870055.076,2000,610,HAWN AG,1911,1919,Discontinued,State
35.4,Wood Valley Res,19.27198146,-155.4855513,19,16,19.1,155,29,8,2134665.343,869472.677,2470,753,HAWN AG,1948,1949,Discontinued,State
36.2,Field 480,19.29697994,-155.463885,19,17,49.1,155,27,50,2137481.968,871696.18,3075,938,HAWN AG,1973,1975,Discontinued,State
38.6,Naulu Forest,19.31531454,-155.1322199,19,18,55.1,155,7,56,2140260.649,906553.403,1400,427,HAW VOL NAT PARK,1965,1970,Discontinued,State
38.8,Kealakomo 38.8,19.29,-155.127,19,17,24,155,7,37.2,2137466.812,907165.538,139,42,NCDC_Daily,1995,Present,Current,NCDC_Daily
39.1,Mauna Loa Upper,19.53863295,-155.5722206,19,32,19.1,155,34,20,2164029.919,859764.467,10960,3341,NWS,1955,1975,Discontinued,State
44.1,Ohaikea (3750),19.42197578,-155.3272225,19,25,19.1,155,19,38,2151634.728,885781.779,3750,1143,USDA FRUIT FLY L,1951,1951,Discontinued,State
45,Kekekaniho,19.45363981,-155.3305566,19,27,13.1,155,19,50,2155136.608,885356.297,4700,1433,KAPAPALA RANCH,1937,1949,Discontinued,State
45.2,Mauna Loa Truck,19.46697199,-155.3475012,19,28,1.1,155,20,51,2156576.248,883543.496,5100,1555,USDA FRUIT FLY L,1952,1952,Discontinued,State
45.4,Maunaloa T 5300,19.46947176,-155.3541678,19,28,10.1,155,21,15,2156838.4,882836.822,6600,2012,UH BOTANY DEPT,1972,1974,Discontinued,State
45.5,Maunaloa T 6600,19.49058134,-155.3855564,19,29,26.1,155,23,8,2159108.122,879488.085,7500,2287,UH BOTANY DEPT,1972,1972,Discontinued,State
46,7500,19.48030335,-155.4222225,19,28,49.1,155,25,20,2157888.281,875658.251,7500,2287,BALDWIN PAUL,1948,1948,Discontinued,State
46.1,6700,19.46919317,-155.4083338,19,28,9.1,155,24,30,2156687.505,877143.792,6700,2043,BALDWIN PAUL,1948,1948,Discontinued,State
46.11,Kalanaokuaiki,19.37475671,-155.2363879,19,22,29.1,155,14,11,2146607.372,895447.868,3350,1021,BALDWIN PAUL,1948,1949,Discontinued,State
46.12,Kipuka Nene #3,19.33281667,-155.2783305,19,19,58.1,155,16,42,2141863.177,891136.211,3000,915,BALDWIN PAUL,1948,1949,Discontinued,State
46.13,Kipuka Nene #2,19.33281667,-155.2783305,19,19,58.1,155,16,42,2141863.177,891136.211,3000,915,BALDWIN PAUL,1948,1949,Discontinued,State
46.14,Kipuka Papalinam,19.31698707,-155.2519419,19,19,1.2,155,15,7,2140168.657,893950.711,2500,762,BALDWIN PAUL,1948,1948,Discontinued,State
46.15,Kipuka Keanabiho,19.31476284,-155.3072175,19,18,53.1,155,18,26,2139797.03,888139.69,2350,716,BALDWIN PAUL,1948,1948,Discontinued,State
46.2,5900,19.46363826,-155.3916673,19,27,49.1,155,23,30,2156108.616,878908.609,5900,1799,BALDWIN,1948,1949,Discontinued,State
46.3,5500,19.47363808,-155.3630566,19,28,25.1,155,21,47,2157280.326,881892.671,5500,1677,BALDWIN PAUL,1948,1949,Discontinued,State
46.4,4400,19.43169672,-155.3416672,19,25,54.1,155,20,30,2152679.743,884240.001,4400,1341,BALDWIN PAUL,1948,1949,Discontinued,State
46.5,Bird Park,19.44197457,-155.2983343,19,26,31.1,155,17,54,2153916.373,888771.732,4050,1235,BALDWIN PAUL,1948,1949,Discontinued,State
46.8,Lua Manu,19.39919969,-155.2544442,19,23,57.1,155,15,16,2149275.239,893489.664,3660,1116,BALDWIN PAUL,1948,1949,Discontinued,State
46.9,Ainahou Gate,19.35114724,-155.2258315,19,21,4.1,155,13,33,2144014.744,896615.539,3070,936,BALDWIN PAUL,1948,1949,Discontinued,State
47,Keamoku Lava Flow,19.47555556,-155.3627778,19,28,32,155,21,46,2157493.458,881917.473,5600,1707,RAWS,1988,1997,Discontinued,RAWS
48,Pali 2,19.3175,-155.2922222,19,19,3,155,17,32,2140134.152,889711.036,2780,848,RAWS,1999,Present,Current,RAWS
51,Kilauea N Rim,19.43697516,-155.2705566,19,26,13.1,155,16,14,2153425.385,891704.358,4050,1235,WENTWORTH CK,1945,1966,Discontinued,State
51.1,Keauhou,19.43864165,-155.27889,19,26,19.1,155,16,44,2153591.107,890824.135,4000,1220,WH SHIPMAN,1948,1977,Discontinued,State
51.13,Vol Golf Course,19.43864167,-155.2761122,19,26,19.1,155,16,34,2153597.433,891116.206,4000,1220,MAUNA LOA OBSV,1978,1979,Discontinued,State
51.2,Kilauea Camp,19.40531048,-155.2577778,19,24,19.1,155,15,28,2149944.926,893124.344,3765,1148,HAW VOL NAT PARK,1934,1938,Discontinued,State
51.3,Olaa 29 Miles,19.43030925,-155.25139,19,25,49.1,155,15,5,2152730.371,893735.784,3800,1159,GIFFARD WM,1917,1921,Discontinued,State
51.5,Volcano Farm Lot,19.4653072,-155.2488911,19,27,55.1,155,14,56,2156615.245,893913.871,3850,1174,GALBRAITH WR,1956,1975,Discontinued,State
51.7,Mauna Loa Truck,19.43864136,-155.3083342,19,26,19.1,155,18,30,2153524.332,887728.273,4000,1220,USDA FRUIT FLY L,1952,1953,Discontinued,State
51.8,Kipuka Ki,19.44336304,-155.3172232,19,26,36.1,155,19,2,2154027.603,886782.459,4250,1296,USDA FRUIT FLY L,1950,1972,Discontinued,State
51.9,Volcano Golf Cou,19.48086163,-155.2669465,19,28,51.1,155,16,1,2158297.889,891978.218,4200,1280,WRISTON ARTHUR,1976,1993,Discontinued,State
54.14,Devastation Area,19.3958665,-155.261944,19,23,45.1,155,15,43,2148888.662,892708.91,3660,1116,HAW VOL NAT PARK,1968,1968,Discontinued,State
54.2,Glenwood,19.5105,-155.1722,19,30,37.8,155,10,19.9,2161802.706,901864.884,2620,799,HELBUSH XL,1916,Present,Current,"Hydronet, State"
54.3,Glenwood-P Sug,19.52030552,-155.1372266,19,31,13.1,155,8,14,2162972.179,905516.414,2180,665,PUNA SUGAR,1951,1959,Discontinued,State
54.4,26 Miles,19.44003119,-155.2111136,19,26,24.1,155,12,40,2153900.788,897947.287,3450,1052,SHIPMAN WH,1951,1976,Discontinued,State
54.5,Haunani Road,19.43030932,-155.2472234,19,25,49.1,155,14,50,2152739.933,894173.914,3900,1189,HORNER EUGENE,1954,1958,Discontinued,State
54.7,Kilauea Iki #1,19.41419906,-155.2483338,19,24,51.1,155,14,54,2150951.739,894096.089,3508,1070,HAW VOL NAT PK,1961,1966,Discontinued,State
55.4,Glenwood No 2   55.4,19.52,-155.127,19,31,12,155,7,37.2,2162962.595,906592.053,1933,589,NCDC_Daily,2000,Present,Current,NCDC_Daily
56,S Glenwood,19.33031822,-155.3138836,19,19,49.1,155,18,50,2141506.102,887401.519,2130,649,SUSAN CAREY,1980,1983,Discontinued,State
57,Kupu Kupu,19.34805556,-155.1258333,19,20,53,155,7,33,2143905.063,907144.157,2331,711,RAWS,2003,2003,Discontinued,RAWS
58.2,Ainahou Stl Tk,19.34337023,-155.2261091,19,20,36.1,155,13,34,2143152.096,896605.172,2975,907,SHIPMAN WH,1961,1973,Discontinued,State
59,Makaopuhi,19.36281255,-155.1749988,19,21,46.1,155,10,30,2145425.491,901934.931,2860,872,HAW VOLCANO OBS,1961,1970,Discontinued,State
63,Kaloko-Honokohau,19.67277778,-156.0202778,19,40,22,156,1,13,2178008.374,812443.194,25,8,RAWS,2005,Present,Current,RAWS
65.1,Waiakaheula,19.50031124,-154.9355587,19,30,1.1,154,56,8,2161246.173,926767.351,750,229,GOUDIE W,1894,1898,Discontinued,State
65.2,Lower Pahoa,19.52058697,-154.9222264,19,31,14.1,154,55,20,2163527.518,928115.567,380,116,PUNA SUGAR,1955,1959,Discontinued,State
65.3,Upper Pahoa,19.458085,-154.972228,19,27,29.1,154,58,20,2156473.604,923022.004,1170,357,PUNA SUGAR,1955,1959,Discontinued,State
66.1,Lava Tree Park,19.48364556,-154.9038916,19,29,1.1,154,54,14,2159477.646,930140.978,650,198,STATE DIV PARKS,1956,1978,Discontinued,State
66.3,Kapoho,19.48170105,-154.8555587,19,28,54.1,154,51,20,2159384.156,935228.624,200,61,WINFORD GARDENS,1966,1968,Discontinued,State
67.1,Kalapana(Wilson),19.35197941,-154.9741642,19,21,7.1,154,58,27,2144705.197,923093.47,10,3,WE WILSON,1897,1900,Discontinued,State
67.11,Leilani Estate,19.45448236,-154.906945,19,27,16.1,154,54,25,2156236.514,929897.029,725,221,ROSS GIDLEY,1982,1986,Discontinued,State
67.12,Lae Apuki 67.12,19.317,-155.067,19,19,1.2,155,4,1.2,2140602.289,913413.009,70,21,NCDC_Daily,1989,1995,Discontinued,NCDC_Daily
67.2,Kaueleau,19.45809107,-154.9388901,19,27,29.1,154,56,20,2156556.857,926527.923,1000,305,HENDERSON AR,1908,1917,Discontinued,State
67.3,Kaueleau 2,19.44031411,-154.905556,19,26,25.1,154,54,20,2154669.094,930080.552,350,107,GREEN JS,1908,1927,Discontinued,"NCDC, State/NCDC"
67.4,Pokoiki,19.46031494,-154.8472247,19,27,37.1,154,50,50,2157034.036,936162.411,10,3,RYCROFT R,1891,1983,Discontinued,State
67.6,Kapaahu,19.35364168,-154.992219,19,21,13.1,154,59,32,2144845.274,921189.291,100,30,USDA FRUIT FLY L,1951,1951,Discontinued,State
67.9,Keauohana 67.9,19.41,-154.947,19,24,36,154,56,49.2,2151204.833,925800.751,631,192,NCDC_Daily,1999,Present,Current,NCDC_Daily
68.11,P Empress Hotel,19.63474693,-155.9872138,19,38,5.1,155,59,14,2173856.643,815987.22,120,37,P EMPRESS HOTEL,1967,1968,Discontinued,State
68.14,Honokohau Harbor 68.14,19.683,-155.99,19,40,58.8,155,59,24,2179196.698,815600.231,669,204,NCDC_Daily,1991,Present,Current,NCDC_Daily
68.15,Kailua Hts,19.6136377,-155.9638804,19,36,49.1,155,57,50,2171561.716,818477.911,500,152,PHAILO GILLARD,1979,1983,Discontinued,State
68.18,K100,19.61919321,-155.9461028,19,37,9.1,155,56,46,2172210.468,820333.067,1480,451,G KOIKE,1976,1989,Discontinued,State
68.19,K101,19.61863748,-155.9572138,19,37,7.1,155,57,26,2172128.051,819167.841,880,268,G KOIKE,1977,1989,Discontinued,State
68.4,Kailua Kona,19.6386355,-155.9905472,19,38,19.1,155,59,26,2174281.214,815629.745,20,6,PARKER G,1985,1987,Discontinued,State
68.5,Holualoa (1450),19.61530451,-155.9505472,19,36,55.1,155,57,2,2171771.336,819874.241,1450,442,KONA DEVELOP CO,1901,1918,Discontinued,State
68.6,Lanihau,19.66363453,-155.9638815,19,39,49.1,155,57,50,2177100.198,818379.065,1540,470,FW BARTELS,1895,1900,Discontinued,State
68.7,Lanihau Mauka 1,19.66530124,-155.9505484,19,39,55.1,155,57,2,2177309.86,819774.941,1930,588,KONA EXP STATION,1958,1979,Discontinued,State
68.8,Lanihau Mauka 2,19.66530131,-155.9405488,19,39,55.1,155,56,26,2177328.712,820824.305,2440,744,HWA,1957,1960,Discontinued,State
68.9,Lanihau Mauka 3,19.6669679,-155.9305492,19,40,1.1,155,55,50,2177532.242,821870.345,2900,884,HWA,1958,1960,Discontinued,State
69.11,Laaloa,19.5936393,-155.9522137,19,35,37.1,155,57,8,2169368.194,819742.18,800,244,MILLER CD,1893,1895,Discontinued,State
69.18,Hualalai Ranch,19.73779569,-155.9572158,19,44,16.1,155,57,26,2185328.105,818931.349,2820,860,HUALALAI RANCH,1973,1977,Discontinued,State
69.19,Hualalai R Mauka,19.73390724,-155.9416608,19,44,2.1,155,56,30,2184926.711,820570.729,3800,1159,HUALALAI RANCH,1973,1977,Discontinued,State
69.21,Lolola,19.72612933,-155.988882,19,43,34.1,155,59,20,2183976.44,815632.8,1200,366,FITZGIBBON W,1976,1982,Discontinued,State
69.22,Kalaoa,19.72529635,-155.9722154,19,43,31.1,155,58,20,2183915.292,817382.743,2000,610,FLOYD  MC COY,1975,1986,Discontinued,State
69.24,Moanuiahea 69.24,19.738,-155.945,19,44,16.8,155,56,42,2185373.787,820212.289,2820,860,NCDC,1991,Present,Current,NCDC
69.4,Kohanaiki,19.70696432,-155.9755486,19,42,25.1,155,58,32,2181878.296,817069.291,1580,482,AMERICAN FACTORS,1956,1962,Discontinued,State
69.6,Kuona Olu,19.60863781,-155.9786024,19,36,31.1,155,58,43,2170980.404,816942.319,10,3,EDNIE D,1954,1957,Discontinued,State
69.8,Lion Grass,19.62197061,-155.9555471,19,37,19.1,155,57,20,2172500.409,819336.201,1000,305,PUUWAAWAA RANCH,1958,1967,Discontinued,State
70.11,Kileo,19.72973994,-155.8263868,19,43,47.1,155,49,35,2184687.293,832671.662,4380,1335,PUUWAAWAA RANCH,1961,1974,Discontinued,State
70.12,Shangrila,19.7325179,-155.8438866,19,43,57.1,155,50,38,2184960.787,830830.082,4377,1334,PUUWAAWAA RANCH,1961,1974,Discontinued,State
70.15,Shangrila Mauka,19.72779615,-155.8511087,19,43,40.1,155,51,4,2184423.591,830082.169,4750,1448,PUUWAAWAA RANCH,1965,1974,Discontinued,State
70.5,Waiaha Stream 1,19.63197014,-155.9472142,19,37,55.1,155,56,50,2173623.78,820191.049,1540,470,BWS,1953,1957,Discontinued,State
70.6,Waiaha Stream 2,19.63363677,-155.9372146,19,38,1.1,155,56,14,2173827.245,821237.314,2060,628,USGS,1960,1985,Discontinued,State
73.11,Kahaluu Forest,19.58697317,-155.895548,19,35,13.1,155,53,44,2168736.925,825704.888,3300,1006,BISHOP ESTATE,1960,1962,Discontinued,State
73.21,Honalo 3,19.55836392,-155.8952697,19,33,30.1,155,53,43,2165568.076,825791.7,3000,915,WODEHOUSE CN,1966,1972,Discontinued,State
73.23,Field E,19.53503206,-155.9205462,19,32,6.1,155,55,14,2162935.385,823183.856,1720,524,KONA EXP STATION,1968,1970,Discontinued,State
73.24,Railroad,19.53364304,-155.9424901,19,32,1.1,155,56,33,2162740.2,820881.911,680,207,WALL RANCH,1969,1983,Discontinued,State
73.25,Pali Honohono,19.56808534,-155.8824924,19,34,5.1,155,52,57,2166669.456,827113.863,3400,1037,WALL RANCH,1970,1980,Discontinued,State
73.27,Honalo Mauka,19.54280936,-155.9249908,19,32,34.1,155,55,30,2163788.554,822701.572,1600,488,HIDEMANN ED,1971,1971,Discontinued,State
73.28,Waihou,19.53530984,-155.9008245,19,32,7.1,155,54,3,2163003.539,825254.634,2480,756,HIDEMANN ED,1964,1971,Discontinued,State
73.31,Puuloa-Alter,19.5589193,-155.9419352,19,33,32.1,155,56,31,2165541.286,820890.141,1000,305,ALTER MRS N,1973,1977,Discontinued,State
73.32,Honalo,19.53308764,-155.9291571,19,31,59.1,155,55,45,2162703.738,822283.342,1450,442,E FINEFROCK,1977,1983,Discontinued,State
73.34,Kainaliu,19.53333333,-155.9333333,19,32,0,155,56,0,2162723.093,821844.237,1364,416,SCAN,2005,Present,Current,SCAN
73.4,Keauhou Tst Ste,19.57530736,-155.9222139,19,34,31.1,155,55,20,2167393.905,822928.402,2040,622,HWA,1958,1960,Discontinued,State
73.5,Keauhou 2,19.5603083,-155.9169358,19,33,37.1,155,55,1,2165742.304,823512.585,2100,640,BISHOP ESTATE,1954,1957,Discontinued,State
74.2,Kahaluu Forest 2,19.60419327,-155.8430498,19,36,15.1,155,50,35,2170745.747,831181.786,4600,1402,BISHOP ESTATE,1960,1961,Discontinued,State
74.4,Monohaa,19.5486417,-155.8558257,19,32,55.1,155,51,21,2164566.697,829953.744,4000,1220,WALL RANCH,1969,1983,Discontinued,State
74.8,Kealakekua 4 74.8,19.508,-155.912,19,30,28.8,155,54,43.2,2159956.947,824135.43,1805,550,NCDC_Daily,2002,2006,Discontinued,NCDC_Daily
79.1,Upper Waiakea,19.57224615,-155.1955599,19,34,20.1,155,11,44,2168592.271,899257.357,6000,1829,STATE DIV FTRY,1964,1979,Discontinued,State
79.5,Kulani Farm,19.55807904,-155.3111132,19,33,29.1,155,18,40,2166755.75,887151.208,5340,1628,UH EXP STA,1975,1975,Discontinued,State
80.1,Humuula-Parker,19.70529263,-155.4722236,19,42,19.1,155,28,20,2182712.512,869887.567,6685,2038,PARKER S JR,1905,1914,Discontinued,State
81,Kulani Ditch,19.52197024,-155.2955573,19,31,19.1,155,17,44,2162788.972,888872.253,5120,1561,DEPT SOCIAL SVC,1948,1950,Discontinued,State
81.1,Kilauea For Res,19.50224841,-155.3247237,19,30,8.1,155,19,29,2160537.104,885854.121,5200,1585,UH BOTANY DEPT,1972,1974,Discontinued,State
82,Puu Oo,19.72362526,-155.385559,19,43,25.1,155,23,8,2184935.691,878940.331,6300,1921,SHIPMAN WH,1910,1975,Discontinued,"NCDC, State, State/NCDC"
82.2,Kole,19.74945733,-155.4191691,19,44,58,155,25,9,2187723.68,875352.54,860,262,DIV FISH & GAME,1976,1977,Discontinued,State
83.1,Wailuku River,19.71862652,-155.266117,19,43,7.1,155,15,58,2184653.309,891488.48,3620,1104,USGS,1967,1982,Discontinued,State
84,Saddle Rd,19.69362812,-155.2005624,19,41,37.1,155,12,2,2182035.192,898431.543,2340,713,BWS,1949,1974,Discontinued,"NCDC, State, State/NCDC"
85.2,Waiakea Uka*,19.66,-155.13,19,39,36,155,7,48,2178474.766,905924.729,997,304,Hydronet,1991,Present,Current,Hydronet
85.3,Ha's Farm 85.3,19.667,-155.1,19,40,1.2,155,5,60,2179322.738,909057.405,594,181,NCDC_Daily_Monthly,1907,1977,Discontinued,NCDC_Daily
86.4,Hilo Coan,19.722849,-155.0805644,19,43,22.3,155,4,50,2185560.988,910955.448,50,15,REV TITUS COAN,1846,1847,Discontinued,State
86.6,Hilo Countryclub,19.67807358,-155.1586186,19,40,41.1,155,9,31,2180410.071,902874.123,1520,463,WILLS REX II,1970,1978,Discontinued,State
87.2,Hilo Breakwater,19.72696086,-155.0422313,19,43,37.1,155,2,32,2186110.342,914969.004,15,5,US ENGINEERS,1911,1916,Discontinued,State
88,Waiakea,19.63863119,-155.1691731,19,38,19.1,155,10,9,2176012.913,901864.397,1920,585,PU SUGAR,1930,1951,Discontinued,State/NCDC
88.3,Piihonua-H Mill,19.71362744,-155.1305639,19,42,49.1,155,7,50,2184418.166,905730.054,1000,305,HAWAIIAN MILL,1906,1918,Discontinued,State
88.5,Kaumana 2,19.67196275,-155.1638962,19,40,19.1,155,9,50,2179720.169,902335.27,1720,524,HILO COUNTRY CLU,1932,1939,Discontinued,State
88.6,Waiakea Camp 8,19.64863111,-155.1205633,19,38,55.1,155,7,14,2177237.066,906944.469,1050,320,WAIAKEA MILL,1915,1939,Discontinued,State
88.9,Thrumms,19.704739,-155.1350082,19,42,17.1,155,8,6,2183422.222,905285.946,0,0,NORTHWOOD RP,1976,1977,Discontinued,State
89.11,Piihonua Kpua*,19.71,-155.14,19,42,36,155,8,24,2183993.484,904748.616,974,297,Hydronet,1991,Present,Current,Hydronet
89.4,Kaiwiki,19.75029229,-155.1288977,19,45,1.1,155,7,44,2188486.574,905812.114,1100,335,HILO SUGAR,1948,1967,Discontinued,State
89.5,Amauulu Camp 4,19.73362642,-155.1300086,19,44,1.1,155,7,48,2186636.444,905737.736,900,274,HILO SUGAR,1948,1958,Discontinued,State
89.6,Dairy,19.74140375,-155.1536193,19,44,29.1,155,9,13,2187442.133,903239.865,1500,457,HILO SUGAR,1952,1953,Discontinued,State
89.9,Piihonua 2,19.71362742,-155.1338972,19,42,49.1,155,8,2,2184410.184,905380.128,900,274,HILO SUGAR,1933,1939,Discontinued,State
91.11,Puna Macadamia O 91.11,19.618,-155.081,19,37,4.8,155,4,51.6,2173936.611,911177.758,790,241,NCDC_Daily,1992,Present,Current,NCDC_Daily
91.12,Hawaiian Beaches 91.12,19.533,-154.917,19,31,58.8,154,55,1.2,2164916.898,928632.162,318,97,NCDC_Daily,1992,2005,Discontinued,NCDC_Daily
91.13,Keaau Beach 91.13,19.641,-154.981,19,38,27.6,154,58,51.6,2176731.299,921622.737,1,0,NCDC_Daily,1996,2001,Discontinued,NCDC_Daily
91.14,Kurtistown 91.14,19.59,-155.083,19,35,24,155,4,58.8,2170827.782,911038.976,1001,305,NCDC_Daily,1999,2006,Discontinued,NCDC_Daily
91.2,Olaa (1650),19.53530469,-155.1205603,19,32,7.1,155,7,14,2164674.485,907230.451,1650,503,RUSSELL DR N,1893,1902,Discontinued,State
91.5,Orchid Land Est,19.55530513,-154.9905619,19,33,19.1,154,59,26,2167206.901,920841.717,430,131,HAWAII CTY DWS,1960,1993,Discontinued,"NCDC, State"
92.2,Keaau Orchard,19.6419662,-155.0105644,19,38,31.1,155,0,38,2176765.347,918514.779,90,27,KEAAU ORCHARD,1949,1978,Discontinued,State
92.4,Kukulu Kukui,19.63779937,-155.0391751,19,38,16.1,155,2,21,2176233.206,915520.36,275,84,SHIPMAN WH,1962,1976,Discontinued,State
92.5,Kiholo,19.82580556,-155.8925833,19,49,32.9,155,53,33.3,2195201.168,825531.814,932,284,USGS,2002,Present,Current,USGS
92.6,Keeau,19.67501957,-155.022509,19,40,30.1,155,1,21,2180400.397,917174.431,80,24,PUNA PAPAYA,1982,1983,Discontinued,State
92.7,Mahaiula 92.7,19.757,-155.976,19,45,25.2,155,58,33.6,2187420.233,816923.073,960,293,NCDC,1986,Present,Current,NCDC
93.12,Puuanahulu,19.83277778,-155.7697222,19,49,58,155,46,11,2196215.527,838398.283,2725,831,RAWS,2002,Present,Current,RAWS
93.2,Cape Kumukahi,19.51364496,-154.8188935,19,30,49.1,154,49,8,2163019.839,938997.924,65,20,USCG,1957,1959,Discontinued,State
93.3,Panika,19.82528884,-155.8472188,19,49,31,155,50,50,2195232.134,830288.945,2080,634,PUUWAAWAA RANCH,1957,1974,Discontinued,State
93.4,Eden Low,19.81862265,-155.8455523,19,49,7,155,50,44,2194496.865,830477.468,2150,655,PUUWAAWAA RANCH,1957,1974,Discontinued,State
93.5,Kapoho Land Str,19.50364409,-154.8605597,19,30,13.1,154,51,38,2161804.5,934643.968,290,88,BWS,1960,Present,Current,"NCDC, State"
93.7,Kukui Akau,19.83084408,-155.8527742,19,49,51,155,51,10,2195836.713,829695.022,1320,402,PUUWAAWAA RANCH,1961,1974,Discontinued,State
94,Kaupulehu Lava Flow,19.80333333,-155.9180556,19,48,12,155,55,5,2192662.682,822906.779,1221,372,RAWS,2009,Present,Current,RAWS
94.3,Mamane Paddock,19.77029258,-155.8272201,19,46,13.1,155,49,38,2189178.436,832500.085,3450,1052,PUUWAAWAA RANCH,1956,1974,Discontinued,State
94.5,Puu Waawaa,19.795,-155.8452778,19,47,42,155,50,43,2191880.302,830555.127,2326,709,RAWS,2003,Present,Current,RAWS
95.2,Puuhinei Padd,19.89694899,-155.7638863,19,53,49,155,45,50,2203337.109,838873.543,1500,457,PARKER RANCH,1914,1917,Discontinued,State
95.3,Puako (40),19.95528032,-155.8322176,19,57,19,155,49,56,2209663.29,831590.548,40,12,PARKER RANCH,1962,1967,Discontinued,State
95.6,Waikoloa,19.92416667,-155.7936111,19,55,27,155,47,37,2206292.968,835700.817,977,298,RAWS,2009,Present,Current,RAWS
95.7,Waikoloa Mauka,19.91639347,-155.8208292,19,54,59,155,49,15,2205377.555,832865.178,610,186,STUDEBAKER CH,1976,1977,Discontinued,State
95.9,Waikoloa Beach Rt 95.9,19.908,-155.86,19,54,28.8,155,51,36,2204370.481,828778.099,234,71,NCDC_Daily,1989,Present,Current,NCDC_Daily
98,Maunakea Beach,20.00722122,-155.8249955,20,0,26,155,49,30,2215432.18,832238.044,35,11,MAUNAKEA BEACH H,1967,1994,Discontinued,State
100.1,Waikii 4675,19.85861684,-155.6505568,19,51,31,155,39,2,2199322.29,850835.787,4675,1425,USDA FRUIT FLY L,1950,1950,Discontinued,State
100.2,Waikii (4800),19.85639474,-155.6461125,19,51,23,155,38,46,2199085.339,851306.616,4810,1466,CHARLES CAMPBELL,1978,1978,Discontinued,State
101,Pa Aalii,19.89778082,-155.6619444,19,53,52,155,39,43,2203638.119,849555.888,3640,1110,PARKER RANCH,1970,1977,Discontinued,State
101.1,Pta Keamuku,19.90222222,-155.6786111,19,54,8,155,40,43,2204095.649,847799.339,3366,1026,RAWS,2008,Present,Current,RAWS
102.2,Kemole House,19.89528145,-155.5572233,19,53,43,155,33,26,2203582.475,860537.846,5420,1652,PARKER RANCH,1914,1917,Discontinued,State
102.3,Puu Anuanu Padd,19.83028568,-155.5805576,19,49,49,155,34,50,2196330.322,858238.175,7500,2287,PARKER RANCH,1914,1917,Discontinued,State
102.7,Waikii (7400),19.82111958,-155.5844467,19,49,16,155,35,4,2195306.361,857850.919,7482,2281,CHARLES CAMPBELL,1978,1978,Discontinued,State
102.8,Ahumoa,19.83638889,-155.6130556,19,50,11,155,36,47,2196937.859,854816.849,6568,2002,RAWS,2009,Present,Current,RAWS
103.1,Mana,19.99694234,-155.5574989,19,59,49,155,33,27,2214847.309,860277.773,3520,1073,PARKER RANCH,1970,1976,Discontinued,State
103.2,Pakalani,19.99610827,-155.6130537,19,59,46,155,36,47,2214636.139,854460.241,3030,924,UHAES,1976,1984,Discontinued,State
107.2,Pohakuloa (5700),19.78028858,-155.5972248,19,46,49,155,35,50,2190754.848,856602.054,5700,1738,PARKER RANCH,1914,1917,Discontinued,State
107.4,PTA East,19.68277778,-155.5452778,19,40,58,155,32,43,2180059.853,862271.288,6430,1960,RAWS,1999,2004,Discontinued,RAWS
108,PTA Portable,19.74555556,-155.6272222,19,44,44,155,37,38,2186843.184,853532.266,5760,1756,RAWS,2000,Present,Current,RAWS
109,PTA Range 17,19.74583333,-155.6261111,19,44,45,155,37,34,2186876.284,853648.222,5690,1735,RAWS,2004,Present,Current,RAWS
110.1,Puunoho Paddock,19.98027671,-155.5138888,19,58,49,155,30,50,2213095.032,864884.603,4200,1280,PARKER RANCH,1914,1917,Discontinued,State
110.2,Nienie Yates,19.98860959,-155.5188886,19,59,19,155,31,8,2214007.566,864341.587,3845,1172,HAWN HOMELANDS,1976,1983,Discontinued,State
113.1,Puuhala,19.9136132,-155.4305575,19,54,49,155,25,50,2205890.944,873772.567,6500,1982,KUKAIAU RANCH,1914,1918,Discontinued,State
113.2,USGS HI,19.92666667,-155.44,19,55,36,155,26,24,2207316.584,872752.15,7103,2166,RAWS,2007,Present,Current,RAWS
114.1,Dairy Field,20.00305275,-155.4300006,20,0,11,155,25,48,2215804.368,873619.851,3160,963,KUKAIAU RANCH,1961,1970,Discontinued,State
116.1,Garden,19.94222299,-155.3733358,19,56,32,155,22,24,2209190.249,879702.154,4960,1512,KUKAIAU RANCH,1965,1973,Discontinued,State
118.1,Field 127,19.99860831,-155.3505585,19,59,55,155,21,2,2215491.378,881953.226,2180,665,HAMAKUA MILL,1958,1967,Discontinued,State
118.3,7A,20.00388571,-155.3705579,20,0,14,155,22,14,2216030.699,879845.218,2240,683,HAMAKUA MILL,1966,1984,Discontinued,State
118.4,Field 128,19.99860832,-155.3552807,19,59,55,155,21,19,2215480.594,881458.483,2280,695,HAMAKUA MILL,1968,1994,Discontinued,State
120.1,Puu Kea,19.89194785,-155.4072245,19,53,31,155,24,26,2203541.969,876269.666,8540,2604,KUKAIAU RANCH,1914,1932,Discontinued,State
121.1,Kukaiau 7850,19.89694815,-155.3638918,19,53,49,155,21,50,2204193.799,880800.583,7850,2393,UNKNOWN,1903,1905,Discontinued,State
122,Laaumaia,19.76695663,-155.3569487,19,46,1,155,21,25,2189802.408,881839.683,6580,2006,PARKER RANCH,1936,1947,Discontinued,State
123.1,Keanakolu-Parker,19.91361396,-155.3472253,19,54,49,155,20,50,2206078.795,882507.702,5500,1677,PARKER S JR,1905,1914,Discontinued,State
123.2,Kukaiau (5000),19.93027953,-155.3472253,19,55,49,155,20,50,2207925.891,882467.522,5000,1524,UNKNOWN,1902,1905,Discontinued,State
124.2,Keanakolu Camp,19.91750266,-155.3397255,19,55,3,155,20,23,2206526.907,883284.493,5280,1610,STATE DIV FTRY,1965,1983,Discontinued,State
125.12,Pua Akala,19.8,-155.3333333,19,48,0,155,20,0,2193518.244,884238.068,6394,1949,SCAN,2005,Present,Current,SCAN
126.1,Maulua 6200,19.87361694,-155.3372256,19,52,25,155,20,14,2201668.599,883652.508,6180,1884,KUKAIAU RANCH,1953,1972,Discontinued,State
127.2,Kukaiau (3400),19.98027628,-155.330559,19,58,49,155,19,50,2213505.378,884093.137,3400,1037,UNKNOWN,1895,1905,Discontinued,State
127.3,Keanakolu Trail,19.93694597,-155.2997262,19,56,13,155,17,59,2208773.837,887429.985,3800,1159,USDA FRUIT FLY L,1950,1950,Discontinued,State
127.4,Coffee Pond,19.98749801,-155.3566695,19,59,15,155,21,24,2214246.04,881339.787,2800,854,KUKAIAU RANCH,1966,1973,Discontinued,State
129,Hakalau,19.82111111,-155.3305556,19,49,16,155,19,50,2195864.397,884478.601,6400,1951,RAWS,2003,Present,Current,RAWS
130.1,Field 6,19.99527425,-155.2722269,19,59,43,155,16,20,2215302.779,890168.537,900,274,LAUPAHOEHOE SUG,1951,1961,Discontinued,State
131,Island Dairy,20,-155.2833333,20,0,0,155,16,60,2215800.692,888993.186,1160,354,SCAN,2005,Present,Current,SCAN
132.1,Kaiaakea,19.95194249,-155.1905609,19,57,7,155,11,26,2210692.256,898835.004,445,136,LAUPAHOEHOE SUG,1967,1970,Discontinued,State
132.3,Pohakupuka 132.3,19.95,-155.183,19,57,0,155,10,58.8,2210494.957,899632.41,274,84,NCDC_Daily,1993,Present,Current,NCDC_Daily
132.4,Kapehu Mauka 132.4,19.95,-155.217,19,57,0,155,13,1.2,2210414.192,896068.661,1158,353,NCDC_Daily,1993,1999,Discontinued,NCDC_Daily
132.5,Kihalani 132.5,19.97,-155.23,19,58,12,155,13,48,2212600.396,894656.212,828,252,NCDC_Daily,1998,Present,Current,NCDC_Daily
133.1,Laupahoehoe,19.98027372,-155.2305601,19,58,49,155,13,50,2213737.863,894571.882,452,138,BARNARD EW,1892,1942,Discontinued,State
133.3,Laupahoehoe P.D.*,19.98,-155.23,19,58,48,155,13,48,2213708.844,894631.26,384,117,Hydronet,1991,Present,Current,Hydronet
137.1,Puuohua Macey,19.92361223,-155.1938946,19,55,25,155,11,38,2207543.965,898556.823,1050,320,MACEY BB,1902,1905,Discontinued,State
137.2,Honohina Middle,19.93527757,-155.1638955,19,56,7,155,9,50,2208908.66,901672.243,275,84,PEPEEKEO SUGAR,1905,1912,Discontinued,State
138.2,Kahuna Falls 138.2,19.856,-155.141,19,51,21.6,155,8,27.6,2200175.535,904274.128,941,287,NCDC_Daily,1993,Present,Current,NCDC_Daily
140.5,Kauku 140.5,19.835,-155.149,19,50,6,155,8,56.4,2197828.44,903488.256,1483,452,NCDC_Daily,1994,2000,Discontinued,NCDC_Daily
141,Pepeekeo Mauka,19.84195432,-155.1222314,19,50,31,155,7,20,2198663.719,906278.51,870,265,PEPEEKEO SUGAR,1948,1962,Discontinued,State
144.2,Honomu (300),19.86361918,-155.1138982,19,51,49,155,6,50,2201085.522,907097.22,300,91,HONOMU SUGAR,1892,1899,Discontinued,State
144.3,Honomu (950),19.8636189,-155.1330641,19,51,49,155,7,59,2201039.208,905087.086,950,290,HONOMU SUGAR,1892,1898,Discontinued,State
144.4,Papaikou,19.78029123,-155.0972317,19,46,49,155,5,50,2191888.467,909058.948,350,107,ROGARS WH,1886,1889,Discontinued,State
144.7,Onomea,19.81528962,-155.1005653,19,48,55,155,6,2,2195760.194,908619.551,460,140,ONOMEA SUGAR,1950,1950,Discontinued,State
159.1,Honoipu,20.24359253,-155.8805429,20,14,36.9,155,52,50,2241509.779,825929.938,260,79,KAHUA RANCH,1942,1968,Discontinued,State
159.4,Pr Pasture #32,20.20970749,-155.8866542,20,12,34.9,155,53,12,2237743.681,825361.526,400,122,KOHALA SUGAR,1964,1968,Discontinued,State
160.1,Upolu Point Ap,20.26525609,-155.8572096,20,15,54.9,155,51,26,2243956.081,828324.112,90,27,HAWN AIRLINES,1939,1956,Discontinued,State
160.2,Station 28,20.24192648,-155.87221,20,14,30.9,155,52,20,2241341.651,826804.735,430,131,KOHALA SUGAR,1950,1957,Discontinued,State
160.3,Upolu Airport*,20.26,-155.86,20,15,36,155,51,36,2243368.21,828043.442,111,34,Hydronet,1991,Present,Current,Hydronet
162,Station 2,20.25359135,-155.8605433,20,15,12.9,155,51,38,2242657.114,828000.122,300,91,KOHALA SUGAR,1948,1952,Discontinued,State
162.1,Kokoiki,20.24025983,-155.8555438,20,14,24.9,155,51,20,2241190.037,828550.936,570,174,KAHUA RANCH,1942,1961,Discontinued,State
162.2,Station 25,20.23859325,-155.8438777,20,14,18.9,155,50,38,2241028.622,829774.342,625,191,KOHALA SUGAR,1950,1968,Discontinued,State
164.1,Puakea 13 #33,20.20165266,-155.8547112,20,12,5.9,155,51,17,2236914.379,828719.239,1160,354,KOHALA SUGAR,1966,1966,Discontinued,State
164.2,Station 34,20.20859638,-155.8505446,20,12,30.9,155,51,2,2237691.955,829140.413,1490,454,KOHALA SUGAR,1968,1971,Discontinued,State
165,Station 4,20.2535914,-155.8405441,20,15,12.9,155,50,26,2242696.95,830091.19,300,91,KOHALA SUGAR,1948,1963,Discontinued,State
168.1,Station 26,20.23026042,-155.8138794,20,13,48.9,155,48,50,2240165.515,832929.019,650,198,KOHALA SUGAR,1950,1952,Discontinued,State
171,Station 5,20.2435927,-155.8238787,20,14,36.9,155,49,26,2241622.546,831854.982,425,130,KOHALA SUGAR,1948,1952,Discontinued,State
172,Station 17,20.20692935,-155.8338788,20,12,24.9,155,50,2,2237540.48,830886.992,1450,442,KOHALA SUGAR,1923,1949,Discontinued,State
174,Station 6,20.25192483,-155.8072126,20,15,6.9,155,48,26,2242579.252,833579.884,190,58,KOHALA SUGAR,1948,1963,Discontinued,State
174.1,Kohala Parsonage,20.24692562,-155.8138791,20,14,48.9,155,48,50,2242011.922,832893.494,350,107,OSTROM REV A,1895,1900,Discontinued,State
174.3,Kapua Gulch #31,20.25248038,-155.8119346,20,15,8.9,155,48,43,2242631.277,833084.956,174,53,KOHALA SUGAR,1963,1968,Discontinued,State
176.2,Homestead Plant,20.20859568,-155.8272124,20,12,30.9,155,49,38,2237738.434,831580.699,1350,412,HC AUSTIN,1919,1929,Discontinued,State
177,Station 8,20.24025866,-155.7722141,20,14,24.9,155,46,20,2241357.719,837264.672,100,30,KOHALA SUGAR,1948,1952,Discontinued,State
178.1,Station 21,20.19192986,-155.8055471,20,11,30.9,155,48,20,2235935.492,833882.268,1850,564,KOHALA SUGAR,1946,1952,Discontinued,State
178.11,#4 WB-Kahua,20.12554592,-155.7774941,20,7,32,155,46,39,2228637.166,836959.428,3825,1166,KAHUA RANCH,1966,1967,Discontinued,State
178.2,Twin Reservoir,20.18359693,-155.7872148,20,11,0.9,155,47,14,2235049.286,835817.771,1880,573,KOHALA DITCH,1940,1968,Discontinued,State
178.4,Halawa,20.23025914,-155.7638813,20,13,48.9,155,45,50,2240266.813,838157.725,450,137,PATTON MRS WC,1904,1908,Discontinued,State
178.5,Puuhue Ranch,20.17193242,-155.8338796,20,10,19,155,50,2,2233663.097,830960.932,1854,565,WOODS SP,1902,1907,Discontinued,State
178.6,Waikanonoula,20.12526817,-155.7777719,20,7,31,155,46,40,2228605.829,836930.952,3830,1168,KAHUA RANCH,1958,1981,Discontinued,State
178.7,Kalahikiola,20.14693375,-155.8038817,20,8,49,155,48,14,2230953.534,834152.461,2760,841,KAHUA RANCH,1963,1982,Discontinued,State
178.8,Puu Aiea,20.12193553,-155.7994379,20,7,19,155,47,58,2228192.82,834670.742,3050,930,KAHUA RANCH,1962,1983,Discontinued,State
178.9,Puu Kaakihi,20.13665693,-155.8122148,20,8,12,155,48,44,2229798.182,833302.385,2520,768,KAHUA RANCH,1968,1983,Discontinued,State
181.2,Kehena,20.11860157,-155.7488837,20,7,7,155,44,56,2227926.004,839968.551,3840,1171,KOHALA DITCH,1912,1975,Discontinued,State
183,Station 19,20.19526181,-155.7472159,20,11,42.9,155,44,50,2236423.292,839976.748,940,287,KOHALA SUGAR,1948,1952,Discontinued,State
183.1,Puu Ahia,20.09193666,-155.7455507,20,5,31,155,44,44,2224978.386,840375.119,4360,1329,KAHUA RANCH,1942,1982,Discontinued,State
183.3,Station 30,20.20359461,-155.7572154,20,12,12.9,155,45,26,2237326.063,838912.693,790,241,KOHALA SUGAR,1966,1968,Discontinued,State
183.9,Keawewai Fort Fn,20.08749249,-155.7361066,20,5,15,155,44,10,2224505.314,841373.321,4710,1436,DOWALD,1969,1983,Discontinued,State
184.2,Awini Ranch,20.18026269,-155.7138836,20,10,48.9,155,42,50,2234830.121,843496.443,1100,335,AWINI RANCH,1896,1905,Discontinued,State
185,Kawainui Upper,20.08360377,-155.6772192,20,5,1,155,40,38,2224196.257,847546.262,4080,1244,HAWN IRRIG,1907,1948,Discontinued,"State, State/NCDC"
185.3,Honokane-P Ranch,20.13026775,-155.6305525,20,7,49,155,37,50,2229465.114,852327.009,750,229,PARKER RANCH,1936,1938,Discontinued,State
185.4,Upp Hamakua Dit,20.08443705,-155.6749971,20,5,4,155,40,30,2224293.228,847777.042,4020,1226,USGS,1964,1991,Discontinued,State
185.5,Waimanu,20.13443391,-155.639719,20,8,4,155,38,23,2229907.345,851358.337,15,5,USGS,1992,1993,Discontinued,USGS
185.7,Kawainui,20.08533333,-155.6811667,20,5,7.2,155,40,52.2,2224379.666,847129.201,4060,1238,USGS,2002,Present,Current,USGS
189,Waimea Plain,20.01666667,-155.6,20,0,60,155,35,60,2216941.951,855781.303,3039,927,SCAN,2005,Present,Current,SCAN
190.11,Alakahi,20.06943785,-155.6697196,20,4,10,155,40,11,2222642.274,848362.717,3570,1088,DOWALD,1961,1983,Discontinued,State
190.4,Keanuiomano Str,20.02749611,-155.6980529,20,1,39,155,41,53,2217936.053,845488.301,2410,735,USGS,1968,1991,Discontinued,State
190.5,Waikoloa Res,20.03805076,-155.6755531,20,2,17,155,40,32,2219152.267,847821.252,3310,1009,DOWALD,1969,1983,Discontinued,State
190.7,Kohakohau 8,20.02638493,-155.6869419,20,1,35,155,41,13,2217835.961,846654.302,2560,780,USGS,1976,1979,Discontinued,State
190.8,Alakahi-P Ranch,20.07332656,-155.6758305,20,4,24,155,40,33,2223060.396,847714.346,4040,1232,PARKER RANCH,1970,1977,Discontinued,State
190.9,High Pressure,20.08138167,-155.686108,20,4,53,155,41,10,2223931.514,846620.635,4250,1296,PARKER RANCH,1970,1977,Discontinued,State
191,Waimea-Kohala Ap,19.99694201,-155.6738868,19,59,49,155,40,26,2214600.723,848086.358,2665,813,HAWN AIRLINES,1953,1971,Discontinued,State
191.3,Lalamilo Reserv,20.01305219,-155.6713867,20,0,47,155,40,17,2216391.005,848312.709,2646,807,DOWALD,1968,1978,Discontinued,State
191.5,Lalamilo 24,20.005275,-155.6916643,20,0,19,155,41,30,2215487.13,846206.041,2490,759,DOWALD,1962,1983,Discontinued,State
191.6,Lalamilo 35,20.01944098,-155.6958308,20,1,10,155,41,45,2217048.126,845738.646,2380,726,DOWALD,1962,1983,Discontinued,State
192.4,Holoholuku 1,19.97360943,-155.635554,19,58,25,155,38,8,2212095.567,852153.472,3265,995,PARKER RANCH,1936,1943,Discontinued,State
192.7,Kamuela Upper*,20.03,-155.67,20,1,48,155,40,12,2218271.789,848420.532,3112,949,Hydronet,1992,Present,Current,Hydronet
192.9,Puukapu Hmstd 192.9,20.038,-155.631,20,2,16.8,155,37,51.6,2219240.127,852486.86,2945,898,NCDC_Daily,2004,2006,Discontinued,NCDC_Daily
194.1,Waikoloa Str,20.05193868,-155.6638866,20,3,7,155,39,50,2220715.479,849012.177,3580,1091,USGS,1960,1960,Discontinued,State
194.2,Kohala Mt Pipe L,20.08027061,-155.6472199,20,4,49,155,38,50,2223889.817,850694.213,3700,1128,PARKER RANCH,1914,1917,Discontinued,State
195.1,Koiawe,20.05721609,-155.634998,20,3,26,155,38,6,2221360.978,852025.274,3200,976,DOWALD,1964,1978,Discontinued,State
198,Muliwai,20.13193441,-155.6138861,20,7,55,155,36,50,2229685.228,854067.53,1290,393,STATE DIV FTRY,1931,1936,Discontinued,State
201,Puu Kapu Res 3,20.03693958,-155.5988871,20,2,13,155,35,56,2219190.778,855852.143,2820,860,HAWN IRRIG,1921,1949,Discontinued,"NCDC, State/NCDC"
201.3,Kamuela 1*,20.04,-155.61,20,2,24,155,36,36,2219506.244,854681.49,2880,878,Hydronet,1991,Present,Current,Hydronet
202.1,Field 114,20.09693675,-155.5705539,20,5,49,155,34,14,2225899.95,858682.602,1565,477,HONOKAA SUGAR,1952,1983,Discontinued,State
203.1,Kamoku,20.04360641,-155.5588876,20,2,37,155,33,32,2220015.36,860025.849,2800,854,HAWN HOMELANDS,1976,1983,Discontinued,State
203.3,Puukapu FC Dam,20.03916168,-155.5999982,20,2,21,155,35,60,2219434.641,855730.773,2839,866,DOWALD,1982,1983,Discontinued,State
204.2,Puu Kapu,19.99833055,-155.5997205,19,59,54,155,35,59,2214910.712,855851.883,3107,947,HAWN HOMELANDS,1976,1983,Discontinued,State
204.3,Puukapu 204.3,19.983,-155.6,19,58,58.8,155,35,60,2213211.334,855857.109,3211,979,NCDC_Daily,1995,1997,Discontinued,NCDC_Daily
206.1,Kukuihaele 206.1,20.119,-155.562,20,7,8.4,155,33,43.2,2228363.344,859527.574,658,201,NCDC_Daily,1994,2006,Discontinued,NCDC_Daily
208,Waikoloa Stream,20.10249152,-155.5444431,20,6,9,155,32,40,2226572.009,861403.271,975,297,HONOKAA SUGAR,1965,1970,Discontinued,State
209,Anuenue,20.09193655,-155.5311101,20,5,31,155,31,52,2225431.36,862823.39,1470,448,HONOKAA SUGAR,1965,1970,Discontinued,State
211,Reservoir 13,20.08304812,-155.5138885,20,4,59,155,30,50,2224483.994,864646.973,1515,462,HONOKAA SUGAR,1917,1960,Discontinued,State
211.2,Fld 11 Honokaa,20.07304887,-155.5038889,20,4,23,155,30,14,2223397.813,865717.17,1840,561,SCS-ARS,1972,1975,Discontinued,State
212.1,Nienie Lee,20.0419399,-155.510555,20,2,31,155,30,38,2219935.73,865091.285,2745,837,HHL,1976,1983,Discontinued,State
213.1,New Stable,20.09026947,-155.5000003,20,5,25,155,30,0,2225314.743,866084.256,1125,343,HONOKAA SUGAR,1965,1970,Discontinued,State
215.2,Honokaa,20.08027035,-155.4972225,20,4,49,155,29,50,2224212.75,866398.374,1900,579,RICHART MISS N,1897,1901,Discontinued,State
215.3,Ahualoa,20.07138223,-155.4958336,20,4,17,155,29,45,2223230.822,866564.5,1835,559,HONOKAA SUGAR,1965,1970,Discontinued,State
215.5,Honokaa*,20.07,-155.46,20,4,12,155,27,36,2223156.897,870319.895,1270,387,Hydronet,1991,Present,Current,Hydronet
216.1,Paauhau-Grieg,20.06360366,-155.4472223,20,3,49,155,26,50,2222476.482,871672.99,1200,366,GRIEG TW,1890,1901,Discontinued,State
216.2,Paauhau Mauka,20.0686032,-155.4455557,20,4,7,155,26,44,2223034.273,871835.704,1150,351,PAAUHAU SUGAR,1905,1910,Discontinued,State
216.5,Field 003,20.07471374,-155.443056,20,4,29,155,26,35,2223717.056,872083.013,920,280,PAAUHAU SUGAR,1965,1970,Discontinued,State
216.7,Field 052,20.05249432,-155.4791666,20,3,9,155,28,45,2221174.395,868353.871,2200,671,PAAUHAU SUGAR,1969,1970,Discontinued,State
216.8,Kalopa 216.8,20.057,-155.432,20,3,25.2,155,25,55.2,2221778.65,873282.703,1319,402,NCDC_Daily,2005,2006,Discontinued,NCDC_Daily
217.2,Paauhau Mauka 217.2,20.067,-155.45,20,4,1.2,155,26,60,2222846.686,871374.103,1238,377,NCDC_Daily,1994,Present,Current,NCDC_Daily
218.2,Field 328,20.06026977,-155.3872241,20,3,37,155,23,14,2222241.949,877964.045,345,105,DAVIS HAMAKUA SUGAR,1948,1967,Discontinued,State
219,Kukuihaele,20.1,-155.5166667,20,6,0,155,31,0,2226356.495,864316.816,947,289,SCAN,2005,Present,Current,SCAN
220,Pma,20.06860319,-155.4438891,20,4,7,155,26,38,2223037.993,872010.222,1160,354,PAAUHAU SUGAR,1948,1958,Discontinued,State
220.1,Kalopa-P Sugar,20.05193765,-155.4038901,20,3,7,155,24,14,2221280.799,876238.604,900,274,PAAUHAU SUGAR,1905,1913,Discontinued,State
220.2,Pohakea,20.03693908,-155.4172228,20,2,13,155,25,2,2219588.514,874877.957,1600,488,BLACOW CR,1904,1907,Discontinued,State
220.5,Field 015,20.06749174,-155.4008348,20,4,3,155,24,3,2223011.541,876521.393,300,91,PAAUHAU SUGAR,1963,1970,Discontinued,State
221.1,Field 9,20.02916121,-155.3605581,20,1,45,155,21,38,2218854.81,880831.856,1000,305,HAMAKUA MILL,1955,1967,Discontinued,State
221.2,Field 30 (1455),20.03360574,-155.3938905,20,2,1,155,23,38,2219271.681,877329.747,1455,444,HAMAKUA MILL,1955,1967,Discontinued,State
221.4,Field 30 (2340),20.00749664,-155.3883351,20,0,27,155,23,18,2216390.585,877974.167,2340,713,HAMAKUA MILL,1962,1972,Discontinued,State
221.5,Hamakua,20.016386,-155.388056,20,0,59,155,23,17,2217376.423,877982.123,2060,628,UHAES,1975,1990,Discontinued,State
222.1,Coffee Plant,20.01360698,-155.3472253,20,0,49,155,20,50,2217161.357,882266.138,1600,488,KUKAIAU RANCH,1895,1905,Discontinued,State
222.2,Kainehe,20.02693918,-155.3577805,20,1,37,155,21,28,2218614.877,881128.176,1475,450,BLACOW CR,1894,1907,Discontinued,State
222.3,Korean Camp,20.00860738,-155.3438921,20,0,31,155,20,38,2216614.864,882627.442,1750,534,HAMAKUA MILL,1920,1938,Discontinued,State
222.4,Paauilo-Notley,20.04027122,-155.3625026,20,2,25,155,21,45,2220081.723,880601.355,250,76,NOTLEY C,1892,1902,Discontinued,State
222.5,Station 39,20.00027466,-155.3272258,20,0,1,155,19,38,2215729.565,884393.762,1900,579,HAMAKUA MILL,1920,1938,Discontinued,State
222.7,Field 116,20.03166021,-155.325559,20,1,54,155,19,32,2219212.042,884491.929,440,134,HAMAKUA MILL,1955,1967,Discontinued,State
249,Makena,20.64625562,-156.4424595,20,38,46.5,156,26,32.9,2285096.712,766490.312,10,3,ULUPALAKUA RANCH,1965,1975,Discontinued,State
250.2,Ulupalakua Ranch*,20.65,-156.4,20,38,60,156,24,0,2285581.714,770910.141,1908,582,Hydronet,1991,Present,Current,Hydronet
251,Kanaio,20.63125696,-156.3591294,20,37,52.5,156,21,32.9,2283574.56,775204.719,2840,866,ULUPALAKUA RANCH,1965,1967,Discontinued,State
256.1,Puu Kao,20.66680944,-156.2188587,20,40,0.5,156,13,7.9,2287756.627,789763.318,3800,1159,HALEAKALA RANCH,1953,1975,Discontinued,State
257.3,Red Tank,20.63348,-156.1455286,20,38,0.5,156,8,43.9,2284197.455,797473.121,515,157,KAUPO RANCH,1959,1975,Discontinued,State
258.1,Kipahulu,20.65514546,-156.0555337,20,39,18.5,156,3,19.9,2286765.03,806814.392,310,95,KIPAHULU SUGAR,1898,1906,Discontinued,State
258.2,Kaupo Mokulau,20.64347946,-156.1071974,20,38,36.5,156,6,25.9,2285375.85,801450.554,285,87,JS GARNETT,1897,1905,Discontinued,State
258.3,Kaupo 500,20.6451459,-156.1071975,20,38,42.5,156,6,25.9,2285560.449,801447.255,500,152,USDA FRUIT FLY LAB,1954,1959,Discontinued,State
258.4,Kukuiula Gulch,20.65097896,-156.0755325,20,39,3.5,156,4,31.9,2286265.771,804737.453,90,27,USGS,1964,1968,Discontinued,State
258.5,Palikea,20.66792039,-156.3905171,20,40,4.5,156,23,25.9,2287582.35,771866.825,1040,317,HANA RANCH,1977,1977,Discontinued,State
260.1,Kamaole Height,20.70847282,-156.4405152,20,42,30.5,156,26,25.9,2291990.589,766584.241,128,39,CW BRAM,1947,1955,Discontinued,State
264.1,Malie,20.67708628,-156.3905172,20,40,37.5,156,23,25.9,2288597.521,771850.481,2160,659,ULUPALAKUA RANCH,1964,1975,Discontinued,State
267.1,Kula Cabin,20.68847406,-156.3355195,20,41,18.5,156,20,7.9,2289952.05,777562.385,5240,1598,BD OF A&F,1955,1962,Discontinued,State
267.4,Kaonoulu,20.73291466,-156.333853,20,43,58.5,156,20,1.9,2294877.126,777655.02,3150,960,COOKE CM III,1960,1982,Discontinued,State
277,Horseshoe Pu'u,20.73630556,-156.1071389,20,44,10.7,156,6,25.7,2295658.804,801273.065,6344,1934,HaleNet,1992,1996,Discontinued,HaleNet
282,Hamoa,20.71180528,-156.0010931,20,42,42.5,156,0,3.9,2293145.94,812374.855,105,32,HAROLD ASHWORTH,1895,1949,Discontinued,State
296.2,Olowalu,20.81013222,-156.6221752,20,48,36.5,156,37,19.8,2302959.917,747489.151,15,5,A HANEBURG,1891,1899,Discontinued,State
307.1,Puuhele,20.80179921,-156.5071788,20,48,6.5,156,30,25.8,2302217.979,759478.051,90,27,WAILUKU SUGAR,1916,1922,Discontinued,State
310.3,Res 91-Fld 906,20.81902002,-156.501901,20,49,8.5,156,30,6.8,2304133.682,759998.118,162,49,HC&S,1971,1975,Discontinued,State
311.4,Kihei,20.7634685,-156.4516256,20,45,48.5,156,27,5.9,2298063.206,765330.472,22,7,HC&S,1960,1970,Discontinued,State
312,Puunene Airport,20.82846304,-156.4588468,20,49,42.5,156,27,31.8,2305249.636,764464.822,130,40,FAA,1947,1958,Discontinued,State
313.2,Field 710,20.81790806,-156.4305147,20,49,4.5,156,25,49.9,2304127.442,767433.551,86,26,HC&S,1964,1975,Discontinued,State
314.1,Field 412,20.79985392,-156.4080159,20,47,59.5,156,24,28.9,2302165.376,769808.594,630,192,HC&S,1966,1982,Discontinued,State
317.1,Field 408 Masi,20.81179728,-156.3871833,20,48,42.5,156,23,13.9,2303523.205,771956.817,780,238,HSPA,1963,1975,Discontinued,State
317.2,Field 413,20.8129083,-156.3891276,20,48,46.5,156,23,20.9,2303642.976,771752.344,777,237,HC&S,1962,1982,Discontinued,State
318.1,Field 150,20.77013394,-156.3621849,20,46,12.5,156,21,43.9,2298951.052,774635.635,1540,470,MAUI PINE,1933,1935,Discontinued,State
320,Gage 22,20.82012971,-156.3288523,20,49,12.5,156,19,43.9,2304545.707,778016.213,1850,564,LIBBY,1948,1961,Discontinued,State
320.1,Field 47,20.82679594,-156.3555177,20,49,36.5,156,21,19.9,2305238.236,775227.233,1100,335,LIBBY,1934,1937,Discontinued,State
320.2,Gage 27,20.81679659,-156.3188527,20,49,0.5,156,19,7.9,2304193.826,779063.699,2040,622,LIBBY,1949,1961,Discontinued,State
321.1,Field 60,20.81346371,-156.3588511,20,48,48.5,156,21,31.9,2303755.876,774904.333,1210,369,MAUI PINE,1933,1945,Discontinued,State
321.2,Field 58,20.80679748,-156.3371855,20,48,24.5,156,20,13.9,2303054.657,777172.817,1860,567,MAUI PINE,1933,1936,Discontinued,State
321.3,Omaopio,20.80513101,-156.3505182,20,48,18.5,156,21,1.9,2302847.198,775787.301,1550,473,HAWN PINE,1935,1935,Discontinued,State
321.4,Field 400,20.82068538,-156.3685728,20,49,14.5,156,22,6.9,2304539.171,773878.847,990,302,HC&S,1962,1982,Discontinued,State
322.1,Field 100,20.79179883,-156.3638513,20,47,30.5,156,21,49.9,2301347.781,774422.847,1280,390,MAUI PINE,1933,1939,Discontinued,State
323.1,Field W,20.79679822,-156.3255194,20,47,48.5,156,19,31.9,2301967.246,778406.179,2300,701,MAUI PINE,1933,1945,Discontinued,State
324,Erehwon Mauka,20.75346829,-156.3071874,20,45,12.5,156,18,25.9,2297199.714,780395.612,3750,1143,HALEAKALA RANCH,1948,1963,Discontinued,State
324.1,Kula,20.74346934,-156.3371862,20,44,36.5,156,20,13.9,2296040.436,777288.456,2700,823,FG CORREA,1901,1907,Discontinued,State
324.2,Kula,20.7534683,-156.308854,20,45,12.5,156,18,31.9,2297196.822,780221.977,3750,1143,USDA FRUIT FLY LAB,1949,1956,Discontinued,State
324.3,Kula,20.74013616,-156.317187,20,44,24.5,156,19,1.9,2295705.703,779378.316,3650,1113,USDA FRUIT FLY LAB,1949,1949,Discontinued,State
324.4,Kula Korte,20.75485708,-156.3091317,20,45,17.5,156,18,32.9,2297350.164,780190.482,3740,1140,K KORTE,1957,1973,Discontinued,State
324.6,Kula Agricultural Experiment,20.75788889,-156.3200278,20,45,28.4,156,19,12.1,2297667.101,779049.715,3165,965,HaleNet,1989,Present,Current,HaleNet
324.7,Kula Branch Stn*,20.76,-156.32,20,45,36,156,19,12,2297900.978,779048.731,3050,930,Hydronet,1991,Present,Current,Hydronet
326,Nolle Smith,20.76013442,-156.3105205,20,45,36.5,156,18,37.9,2297932.281,780036.06,3440,1049,MRS C NOLLESMITH,1948,1949,Discontinued,State
327.1,Kula Camp,20.80513088,-156.3238528,20,48,18.5,156,19,25.9,2302893.06,778564.443,2200,671,MAUI PINE,1927,1932,Discontinued,State
327.2,Tompkin-Kulakai,20.79568717,-156.3207974,20,47,44.5,156,19,14.9,2301852.349,778900.041,2360,720,TOMPKIN G W,1973,1980,Discontinued,State
328.2,Haleakala,20.75513454,-156.2771886,20,45,18.5,156,16,37.9,2297436.655,783517.963,5500,1677,USDA FRUIT FLY LAB,1952,1953,Discontinued,State
329.2,Olinda-Lindsay,20.80679707,-156.2791322,20,48,24.5,156,16,44.9,2303155.59,783218.979,3580,1091,JAMES LINDSAY,1976,1983,Discontinued,State
329.3,Olinda-Boyum,20.8134633,-156.2874651,20,48,48.5,156,17,14.9,2303879.337,782338.679,3282,1001,SEVATH BOYUM,1958,1983,Discontinued,State
330.2,Kula Lodge,20.77679969,-156.3071871,20,46,36.5,156,18,25.9,2299783.944,780352.55,3210,979,FL JAMES,1958,1959,Discontinued,State
331.2,Mountain Paddock,20.77846577,-156.2588557,20,46,42.5,156,15,31.9,2300053.243,785384.134,5500,1677,UNKNOWN,1931,1937,Discontinued,State
334,Olinda 2,20.80513035,-156.2571887,20,48,18.5,156,15,25.9,2303009.712,785507.56,4210,1284,MAUI COUNTY DWS,1948,1974,Discontinued,State
334.1,Olinda 3,20.82818424,-156.2719099,20,49,41.5,156,16,18.9,2305537.251,783931.069,2920,890,MAUI COUNTY DWS,1968,1973,Discontinued,State
335,Intake,20.79179798,-156.2338568,20,47,30.5,156,14,1.9,2301574.449,787962.999,5250,1601,HALEAKALA RANCH,1938,1955,Discontinued,State
335.1,Haleakala Ranch,20.79679758,-156.2388565,20,47,48.5,156,14,19.9,2302119.316,787432.731,4960,1512,HALEAKALA RANCH,1934,1940,Discontinued,State
336.1,Opana,20.81179642,-156.2421893,20,48,42.5,156,14,31.9,2303774.748,787057.163,4175,1273,EMI,1938,1942,Discontinued,State
338.1,Honomanu Gulch,20.75680091,-156.2255246,20,45,24.5,156,13,31.9,2297712.815,788897.547,7550,2302,EMI,1939,1943,Discontinued,State
338.2,Waikamoi,20.76846654,-156.230524,20,46,6.5,156,13,49.9,2298996.045,788354.51,6725,2050,BD OF A&F,1938,1964,Discontinued,State
338.3,Haleakala Ranch,20.71347155,-156.2505236,20,42,48.5,156,15,1.9,2292868.884,786374.57,9750,2973,USN,1935,1944,Discontinued,State
338.4,Satelite H'akala,20.70680551,-156.2555234,20,42,24.5,156,15,19.9,2292121.678,785866.027,10025,3056,SMITHSONIAN INST 1,1957,1975,Discontinued,State
338.5,Kole Kole,20.70680551,-156.2555234,20,42,24.5,156,15,19.9,2292121.678,785866.027,10020,3055,REBER GROTE      1,1952,1958,Discontinued,State
338.7,Haleakala,20.73513619,-156.2371909,20,44,6.5,156,14,13.9,2295292.256,787723.082,9200,2805,USDA FRUIT FLY LAB,1950,1951,Discontinued,State
339.4,Haleakala National Park Hq,20.75980556,-156.2481667,20,45,35.3,156,14,53.4,2298005.276,786532.853,6954,2120,HaleNet,1989,Present,Current,HaleNet
340,Waikamoi,20.78346532,-156.2271907,20,47,0.5,156,13,37.9,2300663.384,788673.231,5760,1756,HALEAKALA RANCH,1933,1954,Discontinued,State
341.1,Waikamoi Run1,20.77513264,-156.2305239,20,46,30.5,156,13,49.9,2299734.431,788341.853,6350,1936,BD OF A&F,1949,1957,Discontinued,State
341.2,Waikamoi Run2,20.76346699,-156.227191,20,45,48.5,156,13,37.9,2298448.218,788711.252,7080,2159,BD OF A&F,1949,1957,Discontinued,State
341.3,Waikamoi Run3,20.77346608,-156.2405233,20,46,24.5,156,14,25.9,2299531.99,787303.321,6520,1988,BD OF A&F,1951,1957,Discontinued,State
341.4,Waikamoi Run4,20.77846569,-156.2405232,20,46,42.5,156,14,25.9,2300085.78,787293.863,6290,1918,BD OF A&F,1951,1957,Discontinued,State
341.6,Puu Nianiau,20.77513261,-156.2405233,20,46,30.5,156,14,25.9,2299716.586,787300.165,6400,1951,UNKNOWN,1931,1937,Discontinued,State
341.7,Waikamoi,20.77358333,-156.2221944,20,46,24.9,156,13,19.9,2299577.729,789212.537,6347,1935,HaleNet,2001,2003,Discontinued,HaleNet
342,Puohakamoa,20.8034637,-156.2205239,20,48,12.5,156,13,13.9,2302890.518,789329.533,4300,1311,MAUI COUNTY WATER,1912,1975,Discontinued,State
343.1,Middle Branch,20.82512849,-156.2110795,20,49,30.5,156,12,39.9,2305307.297,790271.69,2900,884,USGS,1965,1969,Discontinued,State
344.2,Fld 413 Masi,20.82123992,-156.209413,20,49,16.5,156,12,33.9,2304879.569,790452.707,777,237,HSPA,1962,1963,Discontinued,State
345,East Honomanu,20.81179616,-156.1971916,20,48,42.5,156,11,49.9,2303855.585,791743.709,3200,976,EMI,1959,1960,Discontinued,State
346.1,Keanae Valley,20.81846196,-156.1805255,20,49,6.5,156,10,49.9,2304624.248,793466.609,1960,598,EMI,1938,1943,Discontinued,State
348,Wailua Iki 6,20.7934639,-156.1505278,20,47,36.5,156,9,1.9,2301910.107,796639.822,2630,802,EMI,1971,1997,Discontinued,State
348.1,Wailua Iki 7,20.79179739,-156.1505279,20,47,30.5,156,9,1.9,2301725.502,796643.074,2660,811,EMI,1949,1960,Discontinued,State
348.2,Wailua Iki 5,20.8051292,-156.1421946,20,48,18.5,156,8,31.9,2303217.678,797484.972,2000,610,EMI,1949,1983,Discontinued,State
348.3,Wailua Iki 8,20.81179506,-156.1388612,20,48,42.5,156,8,19.9,2303962.244,797819.071,1650,503,EMI,1960,1983,Discontinued,State
348.5,West Wailuaiki,20.81769444,-156.1410278,20,49,3.7,156,8,27.7,2304611.736,797581.809,1343,409,USGS,2002,Present,Current,USGS
350.1,Nahiku,20.81179439,-156.0938637,20,48,42.5,156,5,37.9,2304046.051,802505.912,740,226,NAHIKU RUBBER,1900,1916,Discontinued,State
350.2,Nahiku Mauka,20.79346351,-156.0971973,20,47,36.5,156,5,49.9,2302009.148,802195.257,1600,488,WF POGUE,1902,1907,Discontinued,State
350.3,Nahiku,20.8234593,-156.0905301,20,49,24.5,156,5,25.9,2305344.53,802829.797,120,37,RH WOERALL,1898,1901,Discontinued,State
352,Puu Paki 352,20.771,-156.046,20,46,15.6,156,2,45.6,2299617.478,807574.225,1932,589,NCDC_Daily,1971,Present,Current,NCDC_Daily
352.2,Mokulehua,20.79346279,-156.0555327,20,47,36.5,156,3,19.9,2302087.761,806535.593,660,201,BD OF A&F,1937,1951,Discontinued,State
353,Hana Airport*,20.79,-156.02,20,47,24,156,1,12,2301772.144,810244.333,62,19,Hydronet,1991,Present,Current,Hydronet
354.2,Hana Plantation,20.73846802,-155.9888716,20,44,18.5,155,59,19.9,2296123.413,813593.778,200,61,KS GJERDRUM,1894,1897,Discontinued,State
354.3,Hana Iuka,20.73846852,-156.0172028,20,44,18.5,156,1,1.9,2296068.73,810641.205,1800,549,KS GJERDRUM,1894,1897,Discontinued,State
361.1,Lahainaluna*,20.89,-156.66,20,53,24,156,39,36,2311746.85,743421.964,555,169,Hydronet,1991,Present,Current,Hydronet
386.2,Wailuku Alex,20.88345861,-156.5021781,20,53,0.5,156,30,7.8,2311269.802,759858.452,250,76,WP ALEXANDER,1879,1883,Discontinued,State
386.4,Happy Valley,20.89290221,-156.5057891,20,53,34.4,156,30,20.8,2312309.841,759466.363,300,91,WILLIAM COPE,1968,1969,Discontinued,State
386.5,Field 37,20.90290154,-156.5118999,20,54,10.4,156,30,42.8,2313407.397,758813.207,440,134,WAILUKU SUGAR,1968,1983,Discontinued,State
386.6,Wailuku AHOS*,20.88,-156.51,20,52,48,156,30,36,2310874.122,759050.26,482,147,Hydronet,1991,Present,Current,Hydronet
390.2,Wailuku-Everett,20.85512809,-156.5105114,20,51,18.5,156,30,37.8,2308118.744,759039.691,250,76,EVERETT TW,1887,1894,Discontinued,State
390.4,Waikapu Country Club*,20.83,-156.51,20,49,48,156,30,36,2305336.649,759135.988,479,146,Hydronet,1993,Present,Current,Hydronet
392,Wailuku,20.89179104,-156.4971783,20,53,30.4,156,29,49.8,2312200.724,760364.468,200,61,WAILUKU BOYS SCHOOL,1901,1969,Discontinued,State
396.1,Puunene Mill,20.86651534,-156.4524578,20,51,59.5,156,27,8.8,2309474.556,765063.341,80,24,HC&S,1964,1982,Discontinued,State
397.2,Field 710,20.8731814,-156.4382916,20,52,23.5,156,26,17.8,2310236.285,766526.256,89,27,HC&S,1964,1981,Discontinued,State
398.1,Kahului Nursery,20.89012444,-156.4455134,20,53,24.4,156,26,43.8,2312100.826,765744.667,20,6,BD OF A-F,1953,1964,Discontinued,State
400.1,Cent'l Pow Plt,20.8867914,-156.4471801,20,53,12.4,156,26,49.8,2311728.92,765577.062,20,6,HC&S,1931,1937,Discontinued,State
400.2,Field 607,20.89540151,-156.4088482,20,53,43.4,156,24,31.9,2312746.441,769551.475,85,26,HC&S,1960,1986,Discontinued,State
404.2,Upper Village 3,20.88345817,-156.4171812,20,53,0.4,156,25,1.9,2311409.671,768705.447,115,35,HC&S,1949,1960,Discontinued,State
406.2,Maui Pine,20.91151013,-156.3760714,20,54,41.4,156,22,33.9,2314586.023,772933.774,80,24,HC&S,1983,1989,Discontinued,State
412,Gage 24,20.83512865,-156.3666282,20,50,6.5,156,21,59.9,2306142.195,774055.187,850,259,LIBBY,1947,1957,Discontinued,State
413.1,Paia Bell House,20.89678988,-156.3688496,20,53,48.4,156,22,7.9,2312967.932,773712.095,280,85,HC&S,1955,1966,Discontinued,State
420,Gage 25,20.83290652,-156.3471846,20,49,58.5,156,20,49.9,2305929.315,776083.824,1210,369,LIBBY,1946,1963,Discontinued,State
421.2,Field 205,20.90345543,-156.3305175,20,54,12.4,156,19,49.9,2313772.095,777689.56,660,201,MAUI PINE,1941,1945,Discontinued,State
423.1,Field 227,20.87345873,-156.347184,20,52,24.5,156,20,49.9,2310420.881,776009.803,860,262,MAUI PINE,1950,1957,Discontinued,State
425.1,Grove Ranch,20.87179216,-156.3271848,20,52,18.5,156,19,37.9,2310270.789,778094.802,1220,372,MAUI AG,1925,1931,Discontinued,State
425.2,Kaluanui,20.8701256,-156.3205184,20,52,12.5,156,19,13.9,2310097.755,778791.869,1320,402,HARRY BALDWIN,1909,1916,Discontinued,State
425.4,Komoko,20.86845905,-156.3071857,20,52,6.5,156,18,25.9,2309936.362,780182.954,1470,448,ISLAND PINE,1926,1929,Discontinued,State
426.1,Gage 19,20.83346203,-156.345518,20,50,0.5,156,20,43.9,2305993.704,776256.349,1250,381,LIBBY,1931,1940,Discontinued,State
426.2,Field 46 (1625),20.83290648,-156.3338519,20,49,58.5,156,20,1.9,2305952.245,777472.136,1625,495,MAUI LAND&PINE,1933,1937,Discontinued,State
426.3,Gage 20,20.84679427,-156.3405179,20,50,48.5,156,20,25.9,2307478.981,776752.596,1325,404,LIBBY,1933,1937,Discontinued,State
426.4,Makawao,20.8329065,-156.3388516,20,49,58.5,156,20,19.9,2305943.634,776951.524,1580,482,LIBBY,1984,1984,Discontinued,State
426.5,Pukalani Terrace,20.83151773,-156.3424626,20,49,53.5,156,20,32.9,2305783.602,776578.056,1425,434,J TABONIAR,1966,1968,Discontinued,State
426.6,Pukalani*,20.84,-156.33,20,50,24,156,19,48,2306744.579,777860.197,1627,496,Hydronet,1992,Present,Current,Hydronet
430.1,Lilikoi,20.88290217,-156.3171851,20,52,58.4,156,19,1.9,2311518.707,779115.248,1225,373,ISLAND PINE,1923,1935,Discontinued,State
431,Gage 23,20.84957178,-156.3271852,20,50,58.5,156,19,37.9,2307809.627,778135.675,1490,454,LIBBY,1945,1963,Discontinued,State
431.1,Field 220,20.85679343,-156.335518,20,51,24.5,156,20,7.9,2308595.11,777254.834,1290,393,MAUI PINE,1950,1957,Discontinued,State
432.2,Makawao,20.86345948,-156.3138522,20,51,48.5,156,18,49.9,2309370.984,779498.188,1500,457,FL CLARK,1874,1877,Discontinued,State
432.3,Makawao,20.84679419,-156.3138524,20,50,48.5,156,18,49.9,2307525.098,779528.998,1800,549,WH ROGERS,1879,1886,Discontinued,State
433.2,Maluhia,20.84179456,-156.3088527,20,50,30.5,156,18,31.9,2306980.026,780058.832,1860,567,MRS A BALDWIN,1949,1959,Discontinued,State
434.2,Waiale,20.82846225,-156.3038531,20,49,42.5,156,18,13.9,2305512.016,780604.147,2270,692,UH EXP STATION,1941,1948,Discontinued,State
435,Opana Gulch,20.88345747,-156.2705201,20,53,0.4,156,16,13.9,2311662.06,783971.881,1330,405,EMI,1937,1961,Discontinued,State
435.2,Kaupakuloa Ft 10,20.85679304,-156.2705206,20,51,24.5,156,16,13.9,2308708.562,784021.992,2120,646,EMI,1950,1958,Discontinued,State
436.1,Halehaku Gulch,20.84623815,-156.2527439,20,50,46.5,156,15,9.9,2307570.952,785892.818,2650,808,USGS,1965,1971,Discontinued,State
441,Hoolawa,20.90845446,-156.2455208,20,54,30.4,156,14,43.9,2314475.343,786526.763,640,195,EMI,1961,1980,Discontinued,State
443.1,Hoolawa Gulch,20.85512617,-156.2438552,20,51,18.5,156,14,37.9,2308571.283,786801.485,2250,686,EMI,1937,1941,Discontinued,State
443.2,Waikamoi Pump,20.82679515,-156.22219,20,49,36.5,156,13,19.9,2305471.911,789111.438,3180,970,MAUI COUNTY WATER,1949,1973,Discontinued,State
444,Waipio,20.90012183,-156.2305216,20,54,0.4,156,13,49.9,2313579.228,788103.853,725,221,EMI,1938,1938,Discontinued,State
445,Kailua Mauka,20.87679049,-156.2171892,20,52,36.4,156,13,1.9,2311018.837,789536.406,1230,375,USGS,1937,1961,Discontinued,State
446.1,Kailua,20.89012219,-156.2138558,20,53,24.4,156,12,49.9,2312501.598,789857.815,720,220,HAWN PINE,1924,1928,Discontinued,State
450.1,Keanae Taro Pch,20.85845602,-156.1471927,20,51,30.4,156,8,49.9,2309115.67,796859.681,25,8,EMI,1939,1939,Discontinued,State
450.11,Piinaau,20.84651366,-156.1488597,20,50,47.4,156,8,55.9,2307789.69,796709.56,340,104,DLNR-FORESTRY,1968,1969,Discontinued,State
450.3,Puohakamoa Gulch,20.85012577,-156.1921908,20,51,0.5,156,11,31.9,2308110.445,792190.504,1610,491,EMI,1930,1933,Discontinued,State
450.4,Oopuola Gulch 1,20.86345804,-156.2038567,20,51,48.4,156,12,13.9,2309566.1,790950.102,1375,419,EMI,1930,1936,Discontinued,State
450.5,Alo Gulch,20.83679402,-156.2038573,20,50,12.5,156,12,13.9,2306612.528,791001.384,2200,671,EMI,1937,1943,Discontinued,State
450.6,Oopuola Gulch 2,20.85679216,-156.20719,20,51,24.5,156,12,25.9,2308821.689,790615.879,1800,549,EMI,1930,1936,Discontinued,State
450.7,Oopuola Gulch 3,20.85179275,-156.2105233,20,51,6.5,156,12,37.9,2308261.882,790278.42,2000,610,EMI,1937,1943,Discontinued,State
450.8,Puohakamoa Gch 2,20.84345997,-156.1971908,20,50,36.5,156,11,49.9,2307362.992,791682.738,1930,588,EMI,1930,1933,Discontinued,State
451,Honomanu-USGS,20.8329051,-156.1855249,20,49,58.5,156,11,7.9,2306215.023,792917.965,1790,546,USGS-EMI,1964,1982,Discontinued,State
453.1,Kaanapali Ap,20.92929148,-156.6930057,20,55,45.4,156,41,34.8,2316048.25,739924.533,8,2,AMFAC,1968,1986,Discontinued,State
457.1,Puukolii 457.1,20.926,-156.661,20,55,33.6,156,39,39.6,2315732.002,743259.781,420,128,NCDC,1986,Present,Current,NCDC
458.1,Field 31C,20.9670647,-156.666616,20,58,1.4,156,39,59.8,2320271.028,742609.22,350,107,PIONEER MILL,1964,1981,Discontinued,State
462.2,Field 33,20.96178692,-156.6538387,20,57,42.4,156,39,13.8,2319705.989,743946.838,680,207,PIONEER MILL,1950,1968,Discontinued,State
462.3,Field 34 Makai,20.97511979,-156.666616,20,58,30.4,156,39,59.8,2321163.058,742596.211,275,84,PIONEER MILL,1967,1980,Discontinued,State
465.1,Mahinahina Camp*,20.96,-156.66,20,57,36,156,39,36,2319498.721,743308.83,732,223,Hydronet,1991,Present,Current,Hydronet
466,Mahinahina,20.94678808,-156.6555055,20,56,48.4,156,39,19.8,2318042.453,743797.777,715,218,PIONEER MILL,1914,Present,Current,"NCDC, State, State/NCDC"
467.01,Horner Reservoir 467.01,20.922,-156.648,20,55,19.2,156,38,52.8,2315308.823,744618.868,1266,386,NCDC_Daily,2001,2004,Discontinued,NCDC_Daily
470.1,Napili Kai Bhclb,20.96234279,-156.6666161,20,57,44.4,156,39,59.8,2319748.119,742616.833,26,8,J C MILLAR,1971,1976,Discontinued,State
472.1,Honokowai Gulch,20.9301228,-156.6305069,20,55,48.4,156,37,49.8,2316235.16,746425.712,1500,457,PIONEER MILL,1911,1917,Discontinued,State
472.2,Honokowai Power,20.94678797,-156.6471725,20,56,48.4,156,38,49.8,2318055.152,744664.669,1200,366,PIONEER MILL,1911,1918,Discontinued,State
477.1,Honokohau Ridge,20.95845371,-156.6005074,20,57,30.4,156,36,1.8,2319419.092,749500.003,2300,701,PIONEER MILL,1913,1931,Discontinued,State
481.1,Puu Kukui Upp 1,20.89512516,-156.5971751,20,53,42.5,156,35,49.8,2312410.983,749951.763,4450,1357,PIONEER MILL,1923,1939,Discontinued,State
481.2,Puu Kukui Upp 2,20.90512438,-156.5888419,20,54,18.4,156,35,19.8,2313531.349,750802.366,5000,1524,PIONEER MILL,1911,1923,Discontinued,State
481.4,Mount Eke,20.91345705,-156.5805086,20,54,48.4,156,34,49.8,2314467.208,751655.645,4500,1372,HONOLUA RANCH,1913,1918,Discontinued,State
482.1,Kahakuloa,20.9787294,-156.5513422,20,58,43.4,156,33,4.8,2321742.031,754580.162,1000,305,LIBBY,1922,1932,Discontinued,State
482.2,Maluhia,20.95373111,-156.5332876,20,57,13.4,156,31,59.8,2319002.35,756500.79,1100,335,BOY SCOUTS OF AMER,1966,1967,Discontinued,State
485.2,Hamakuapoko,20.88012468,-156.3305179,20,52,48.4,156,19,49.9,2311187.943,777732.485,800,244,WW GOODALE,1884,1897,Discontinued,State
486.3,Haiku Old Camp,20.91178758,-156.3221844,20,54,42.4,156,19,19.9,2314709.433,778541.469,540,165,BD OF A&F,1955,1963,Discontinued,State
486.4,Haiku Kuiaha,20.9151205,-156.3155179,20,54,54.4,156,18,55.9,2315090.194,779229.108,525,160,BOB MCGRATH,1973,1974,Discontinued,State
486.5,Field 108,20.92622969,-156.3427391,20,55,34.4,156,20,33.9,2316273.481,776375.745,220,67,HC!S,1951,1952,Discontinued,State
487.2,Field 218,20.93345036,-156.3271839,20,56,0.4,156,19,37.9,2317100.17,777981.146,200,61,MAUI LAND&PINE,1967,2004,Discontinued,State
488,Haiku Nursery,20.92289706,-156.3205176,20,55,22.4,156,19,13.9,2315942.844,778694.381,450,137,BD OF A&F,1937,1953,Discontinued,State
488.1,Haiku 825,20.90012256,-156.3221846,20,54,0.4,156,19,19.9,2313417.389,778563.012,825,252,ISLAND PINE,1923,1939,Discontinued,State
488.2,Field 6-Rd,20.90178911,-156.2860748,20,54,6.4,156,17,9.9,2313665.118,782318.352,900,274,ISLAND PINE,1929,1935,Discontinued,State
488.4,Kaupakalua,20.89678976,-156.2916301,20,53,48.4,156,17,29.9,2313101.6,781749.478,1050,320,EAST MAUI IRRIG,1920,1938,Discontinued,State
488.6,Peahi,20.90734396,-156.2696865,20,54,26.4,156,16,10.9,2314309.341,784013.655,830,253,BERNARD KIPLINGER,1976,1978,Discontinued,State
489,Haiku*,20.93,-156.32,20,55,48,156,19,12,2316730.485,778735.093,326,99,Hydronet,1991,Present,Current,Hydronet
490.2,Pauwela,20.93011772,-156.3205175,20,55,48.4,156,19,13.9,2316742.623,778681.023,360,110,ISLAND PINE,1926,1934,Discontinued,State
490.3,Field 31,20.89179021,-156.3121851,20,53,30.4,156,18,43.9,2312511.872,779619.248,1050,320,HC&S,1948,1950,Discontinued,State
490.6,Kuiaha Expt Sta,20.89845621,-156.3013521,20,53,54.4,156,18,4.9,2313269.138,780734.441,920,280,UH HAW AGR EXPT STA,1976,1977,Discontinued,State
490.7,Kuiaha 490.7,20.889,-156.298,20,53,20.4,156,17,52.8,2312227.602,781100.975,1117,341,NCDC_Daily,1993,Present,Current,NCDC_Daily
491.1,Field 7-06,20.92345276,-156.293852,20,55,24.4,156,17,37.9,2316051.006,781468.385,520,159,ISLAND PINE,1926,1930,Discontinued,State
492,Kapalaalaea,20.92011983,-156.2555202,20,55,12.4,156,15,19.9,2315749.643,785463.895,400,122,HALEAKALA RANCH,1936,Present,Current,State
492.1,Field 30,20.9184536,-156.2638533,20,55,6.4,156,15,49.9,2315550.258,784599.791,600,183,HC&S,1948,1950,Discontinued,State
492.2,Halehaku 492.2,20.91,-156.282,20,54,36,156,16,55.2,2314581.775,782727.068,694,212,NCDC_Daily,1991,2006,Discontinued,NCDC_Daily
492.4,Field 4-06,20.91345422,-156.2971853,20,54,48.4,156,17,49.9,2314937.675,781140.16,650,198,ISLAND PINE,1935,1935,Discontinued,State
492.5,Halehaku,20.91456529,-156.2830191,20,54,52.4,156,16,58.9,2315085.653,782612.436,770,235,PHIL SCOTT,1966,1971,Discontinued,State
492.6,Kaupakulua Res,20.9117878,-156.2921855,20,54,42.4,156,17,31.9,2314761.872,781663.634,640,195,EMI,1971,1972,Discontinued,State
495.1,Honokohau Gulch,20.98011875,-156.5955072,20,58,48.4,156,35,43.8,2321826.199,749984.099,760,232,PIONEER MILL,1907,1913,Discontinued,State
499.12,Kealialalo,20.54361111,-156.6408333,20,32,37,156,38,27,2273416.953,745975.698,825,252,RAWS,2001,Present,Current,RAWS
499.6,Kahoolawe 499.6,20.554,-156.562,20,33,14.4,156,33,43.2,2274688.325,754181.668,1242,379,NCDC_Daily,1989,Present,Current,NCDC_Daily
501,Gage 31,21.12515465,-157.2638512,21,7,30.6,157,15,49.9,2336983.703,680305.608,275,84,LIBBY,1948,1954,Discontinued,State
502,Gage 30,21.14182081,-157.2591282,21,8,30.6,157,15,32.9,2338834.223,680776.003,250,76,LIBBY,1947,1954,Discontinued,State
503.1,Gage 21,21.11793202,-157.2407958,21,7,4.6,157,14,26.9,2336210.4,682709.406,645,197,LIBBY,1927,1940,Discontinued,State
504,Gage 32,21.10515467,-157.2471853,21,6,18.6,157,14,49.9,2334788.452,682061.236,440,134,LIBBY,1947,1954,Discontinued,State
505.1,Gage 20,21.13515358,-157.2327396,21,8,6.6,157,13,57.9,2338126.343,683525.11,580,177,LIBBY,1927,1940,Discontinued,State
505.2,Gage 28,21.14015323,-157.2255172,21,8,24.6,157,13,31.9,2338688.238,684269.13,700,213,LIBBY,1935,1940,Discontinued,State
511.2,Gage 1,21.12182009,-157.2071845,21,7,18.6,157,12,25.9,2336679.874,686196.233,1060,323,LIBBY,1923,1940,Discontinued,State
513.3,Gage 2,21.14820798,-157.2013505,21,8,53.5,157,12,4.9,2339608.26,686769.202,750,229,LIBBY,1923,1940,Discontinued,State
521.1,F329,21.14404001,-157.1132964,21,8,38.5,157,6,47.9,2339252.941,695920.502,390,119,DEL MONTE,1968,1975,Discontinued,State
524.1,Fld 82,21.16348296,-157.0913512,21,9,48.5,157,5,28.9,2341432.917,698174.088,545,166,PACIFIC PINEAPPLE,1949,1955,Discontinued,State
525,Green Flat,21.13570597,-157.0927412,21,8,8.5,157,5,33.9,2338355.702,698066.677,300,91,CPC,1948,1966,Discontinued,State
525.1,Field 328,21.14209476,-157.0810743,21,8,31.5,157,4,51.9,2339077.671,699270.061,448,137,CPC,1966,1978,Discontinued,State
526.1,Field 315A,21.13709486,-157.0663525,21,8,13.5,157,3,58.9,2338542.625,700806.012,450,137,CPC,1949,1954,Discontinued,State
527.2,Shop,21.162094,-157.043019,21,9,43.5,157,2,34.9,2341340.286,703195.729,860,262,PACIFIC PINEAPPLE,1950,1954,Discontinued,State
527.3,Fld 4A,21.16820416,-157.0507954,21,10,5.5,157,3,2.9,2342006.876,702379.751,810,247,PACIFIC PINEAPPLE,1953,1955,Discontinued,State
527.4,Fld 146,21.158761,-157.07024,21,9,31.5,157,4,12.9,2340936.62,700373.027,605,184,PACIFIC PINEAPPLE,1949,1955,Discontinued,State
528.1,Block 2,21.15181659,-157.078296,21,9,6.5,157,4,41.9,2340157.572,699545.624,500,152,CPC,1956,1968,Discontinued,State
531.1,Kualapuu Res,21.15042745,-157.0480181,21,9,1.5,157,2,52.9,2340042.139,702692.406,800,244,DOWALD,1970,1983,Discontinued,State
534.1,Field 310,21.14848301,-157.0207955,21,8,54.5,157,1,14.9,2339861.858,705522.698,600,183,DEL MONTE,1966,1983,Discontinued,State
536.1,Kanoa,21.068487,-156.958854,21,4,6.6,156,57,31.9,2331085.652,712070.455,40,12,MOLOKAI RANCH,1950,1957,Discontinued,State
536.2,Manawainui,21.11126225,-157.0816319,21,6,40.5,157,4,53.9,2335663.176,699253.354,20,6,MOLOKAI RANCH,1957,1961,Discontinued,State
536.3,Oliwai,21.10848466,-157.0688543,21,6,30.5,157,4,7.9,2335371.707,700584.621,75,23,MOLOKAI RANCH,1950,1964,Discontinued,State
537,Poholua,21.14126109,-156.9702405,21,8,28.5,156,58,12.9,2339128.51,710784.221,2150,655,MOLOKAI RANCH,1933,1947,Discontinued,State
537.1,Kakalehale,21.13292807,-156.9963512,21,7,58.5,156,59,46.9,2338171.39,708083.517,1230,375,MOLOKAI RANCH,1957,1983,Discontinued,State
537.2,Makakupaia,21.1068165,-156.9438523,21,6,24.5,156,56,37.9,2335349.815,713574.773,2400,732,MOLOKAI RANCH,1957,1964,Discontinued,State
537.4,New Reservoir,21.13848307,-156.956352,21,8,18.5,156,57,22.9,2338839.413,712230.912,2750,838,MOLOKAI RANCH,1976,1989,Discontinued,State
538,Molokai 1,21.115,-156.9475,21,6,54,156,56,51,2336251.055,713184.064,2733,833,RAWS,2003,Present,Current,RAWS
539,Waikolu Valley,21.14194444,-156.9222222,21,8,31,156,55,20,2339268.693,715771.392,500,152,RAWS,1993,1999,Discontinued,RAWS
540.1,Waikolu,21.14209259,-156.9188535,21,8,31.5,156,55,7.9,2339289.68,716121.122,900,274,USGS,1999,2003,Discontinued,USGS
541,Kawela,21.10848192,-156.9021865,21,6,30.5,156,54,7.9,2335590.766,717901.65,3650,1113,MOLOKAI RANCH,1946,1979,Discontinued,State
542.11,Kamalo*,21.06,-156.87,21,3,36,156,52,12,2330266.775,721317.857,29,9,Hydronet,1992,Present,Current,Hydronet
542.2,Halawa,21.16346229,-156.7471828,21,9,48.5,156,44,49.9,2341899.527,733921.624,200,61,DK KALAAU,1930,1934,Discontinued,State
542.3,Mapulehu Mauka,21.06847805,-156.8238555,21,4,6.5,156,49,25.9,2331270.376,726101.388,650,198,CC CONRADT,1907,1912,Discontinued,State
542.4,Kamalo,21.05681809,-156.8638521,21,3,24.5,156,51,49.9,2329922.992,721961.598,60,18,FH FOSTER,1923,1928,Discontinued,State
542.5,Puu Kahea,21.13347429,-156.7788563,21,8,0.5,156,46,43.9,2338532.358,730678.035,2340,713,PUUOHOKU RANCH,1933,1934,Discontinued,State
542.6,Kamalo Mauka,21.05570736,-156.8721855,21,3,20.5,156,52,19.9,2329788.414,721097.04,60,18,WT CARSTEN,1965,1970,Discontinued,State
543,Pelekunu Ridge,21.1320925,-156.8766321,21,7,55.5,156,52,35.9,2338240.43,720521.979,700,213,USGS,1939,1993,Discontinued,State
543.1,Puuhoikaweea,21.13055556,-156.875,21,7,50,156,52,30,2338072.51,720693.815,840,256,RAWS,1995,1997,Discontinued,RAWS
545,Mapulehu Mauka,21.07264145,-156.8030215,21,4,21.5,156,48,10.9,2331761.129,728260.47,110,34,HSPA,1969,1972,Discontinued,State
545.1,Pukoo Kai,21.07180733,-156.7960768,21,4,18.5,156,47,45.9,2331678.735,728983.55,0,0,DAVIS MARIAM,1970,1976,Discontinued,State
546,Puu Alii West,21.13,-156.9169444,21,7,48,156,55,1,2337953.28,716337.003,3321,1013,RAWS,1993,1997,Discontinued,RAWS
550.2,Kipuhi Sheraton,21.19265034,-157.2430152,21,11,33.5,157,14,34.9,2344480.178,682387.269,140,43,SHERATON HOTEL,1979,1983,Discontinued,State
551.4,Moomomi Makai,21.19320421,-157.1607946,21,11,35.5,157,9,38.9,2344638.388,690923.76,20,6,MOLOKAI RANCH,1959,1974,Discontinued,State
554.1,Fld 18,21.17959383,-157.1255178,21,10,46.5,157,7,31.9,2343174.388,694604.551,350,107,PACIFIC PINEAPPLE,1950,1955,Discontinued,State
555.1,Fld 126 E,21.1695946,-157.118018,21,10,10.5,157,7,4.9,2342076.506,695396.512,380,116,PACIFIC PINEAPPLE,1954,1955,Discontinued,State
556.2,Gage 43,21.18042683,-157.1138512,21,10,49.5,157,6,49.9,2343280.987,695814.979,400,122,LIBBY,1960,1975,Discontinued,State
556.3,Fld 126,21.17653825,-157.1107956,21,10,35.5,157,6,38.9,2342854.223,696137.419,485,148,PACIFIC PINEAPPLE,1949,1955,Discontinued,State
556.4,Fld 99,21.18153722,-157.0913511,21,10,53.5,157,5,28.9,2343431.897,698150.038,550,168,PACIFIC PINEAPPLE,1954,1954,Discontinued,State
556.5,Fld 102,21.1823706,-157.09524,21,10,56.5,157,5,42.9,2343519.312,697745.085,510,155,PACIFIC PINEAPPLE,1949,1954,Discontinued,State
557.1,Block 7,21.17237153,-157.0935733,21,10,20.5,157,5,36.9,2342414.289,697931.476,550,168,CPC,1956,1968,Discontinued,State
557.2,Fld 74,21.16959347,-157.0771844,21,10,10.5,157,4,37.9,2342127.249,699637.228,580,177,PACIFIC PINEAPPLE,1954,1955,Discontinued,State
558.3,Block 10,21.17403712,-157.0566286,21,10,26.5,157,3,23.9,2342645.281,701766.02,600,183,CPC,1964,1978,Discontinued,State
559.1,Mimo,21.17487018,-157.0241283,21,10,29.5,157,1,26.9,2342779.234,705140.126,1230,375,MOLOKAI RANCH,1950,1958,Discontinued,State
559.2,Field 452,21.17181513,-157.0055174,21,10,18.5,157,0,19.9,2342465.164,707077.191,1450,442,CPC,1949,1956,Discontinued,State
559.4,Meyer Lake,21.16348251,-156.9805182,21,9,48.5,156,58,49.9,2341575.385,709685.276,2020,616,USGS,1930,1930,Discontinued,State
559.5,Kalae Lake,21.164872,-156.976352,21,9,53.5,156,58,34.9,2341734.753,710116.029,2112,644,MOLOKAI RANCH,1960,1967,Discontinued,State
559.6,Kepali,21.16264921,-156.9805182,21,9,45.5,156,58,49.9,2341483.117,709686.451,2050,625,MOLOKAI RANCH,1960,1975,Discontinued,State
562.1,Field 455,21.17459243,-157.0221839,21,10,28.5,157,1,19.9,2342750.998,705342.442,1200,366,CPC,1929,1967,Discontinued,State
671,Laboratory,20.82350353,-156.9188649,20,49,24.6,156,55,7.9,2304013.193,716578.972,1600,488,HAWAIIAN PINE,1948,1966,Discontinued,State
672.1,Lanai City*,20.83,-156.92,20,49,48,156,55,12,2304730.991,716451.517,1634,498,Hydronet,1991,Present,Current,Hydronet
679,Lanai 1,20.87333333,-157.0063889,20,52,24,157,0,23,2309415.183,707399.373,1270,387,RAWS,2003,Present,Current,RAWS
681.1,562,20.77323021,-156.8910815,20,46,23.6,156,53,27.9,2298484.212,719544.09,1200,366,DOLE,1960,1975,Discontinued,State
684.1,Waiopaa,20.80878588,-156.880808,20,48,31.6,156,52,50.9,2302435.194,720562.244,2125,648,DOLE,1914,1919,Discontinued,State
685.1,563,20.797961,-156.879142,20,47,52.7,156,52,44.9,2301238.866,720751.463,2000,610,DOLE,1960,1975,Discontinued,State
687,R-10,20.82545105,-156.8899768,20,49,31.6,156,53,23.9,2304267.955,719583.482,2750,838,PRI,1962,1965,Discontinued,State
689,R-12,20.82100837,-156.8769209,20,49,15.6,156,52,36.9,2303793.886,720949.118,2700,823,DOLE,1962,1975,Discontinued,State
697,R-13,20.85933758,-156.899426,20,51,33.6,156,53,57.9,2308007.24,718550.835,1500,457,DOLE,1962,1975,Discontinued,State
698,R-14,20.8435048,-156.9008125,20,50,36.6,156,54,2.9,2306252.245,718429.403,1750,534,DOLE,1962,1976,Discontinued,State
700.1,Field 9,21.33017204,-158.0305884,21,19,48.6,158,1,50.1,2358998.761,600530.12,25,8,EWA PLANTATION,1966,1972,Discontinued,State
701.1,Fort De Russy 701.1,21.283,-157.833,21,16,58.8,157,49,58.8,2353916.095,621061.044,3,1,NCDC_Daily,1958,1958,Discontinued,NCDC_Daily
702.1,Ewa MCAS,21.32517399,-158.0472555,21,19,30.6,158,2,50.1,2358434.987,598804.932,40,12,USMC,1941,1949,Discontinued,State
702.3,Ewa Beach,21.3135043,-157.9922552,21,18,48.6,157,59,32.1,2357178.768,604517.455,5,2,MB HARADA,1948,1948,Discontinued,State
702.4,Halehoku,21.32461584,-158.0091996,21,19,28.6,158,0,33.1,2358397.553,602752.216,20,6,MIKE MORROW,1966,1976,Discontinued,State
702.6,Ewa Beach,21.311554,-158.006421,21,18,41.6,158,0,23.1,2356953.563,603049.512,5,2,H CHING,1979,1988,Discontinued,State
704.1,Farrington High,21.33016799,-157.8722561,21,19,48.6,157,52,20.1,2359107.637,616950.992,50,15,FARRINGTON HS,1955,1960,Discontinued,State
704.11,Press Bldg,21.30239152,-157.8561458,21,18,8.6,157,51,22.1,2356045.02,618644.166,5,2,STAR BULLETIN,1969,1975,Discontinued,State
704.12,Alewa Mauka,21.3429446,-157.846145,21,20,34.6,157,50,46.1,2360541.543,619648.708,1000,305,J CHANG,1970,1988,Discontinued,State
704.2,Bishop Museum Pk,21.33127901,-157.8703117,21,19,52.6,157,52,13.1,2359232.064,617151.77,5,2,DAHLGREN JA,1953,1961,Discontinued,State
704.9,Alewa Hts,21.33016769,-157.857812,21,19,48.6,157,51,28.1,2359118.399,618449.042,240,73,R CHUN,1968,1974,Discontinued,State
705.1,Craigside,21.32211236,-157.849479,21,19,19.6,157,50,58.1,2358233.017,619319.802,160,49,DAVIS GC,1948,1957,Discontinued,State
705.11,Foster Gardens,21.31627955,-157.8583678,21,18,58.6,157,51,30.1,2357580.658,618402.538,10,3,HONO BOTANICAL GARDN,1973,1981,Discontinued,State
705.12,Aloha Tower*,21.3,-157.86,21,18,0,157,51,36,2355777.4,618246.271,125,38,Hydronet,1991,Present,Current,Hydronet
705.3,Us Exp Station,21.32127903,-157.8472568,21,19,16.6,157,50,50.1,2358142.457,619550.963,5,2,US EXP STATION,1902,1910,Discontinued,State
705.5,Honolulu,21.29683603,-157.8472575,21,17,48.6,157,50,50.1,2355436.778,619570.675,15,5,F BROWN,1890,1901,Discontinued,State
705.6,Honolulu-Smith,21.29655801,-157.837813,21,17,47.6,157,50,16.1,2355413.193,620550.652,10,3,SMITH CAPT D,1873,1877,Discontinued,State
705.7,Hono Pauoa Vall,21.31350185,-157.8530902,21,18,48.6,157,51,11.1,2357277.16,618952.187,50,15,BISHOP REV SE,1890,1902,Discontinued,State
705.8,Hono Miller&Ber,21.30628018,-157.8572569,21,18,22.6,157,51,26.1,2356474.631,618525.788,50,15,MCKIBBIN DR R,1877,1894,Discontinued,State
705.9,Hono Nuuanu&Ber,21.31155767,-157.8594789,21,18,41.6,157,51,34.1,2357057.144,618291.073,20,6,ROOKE DR,1837,1838,Discontinued,State
706,Pacific Heights,21.32655639,-157.83809,21,19,35.6,157,50,17.1,2358733.612,620497.439,680,207,BWS,1926,1951,Discontinued,State
706.1,Punchbowl,21.31350172,-157.847257,21,18,48.6,157,50,50.1,2357281.559,619557.24,140,43,H BESS,1948,1948,Discontinued,State
706.2,Hono College Hil,21.3135014,-157.8305903,21,18,48.6,157,49,50.1,2357294.259,621286.011,175,53,SE BISHOP,1903,1908,Discontinued,State
706.4,Makiki Reservoir,21.31433481,-157.837257,21,18,51.6,157,50,14.1,2357381.396,620593.819,150,46,LITTLE JM,1892,1904,Discontinued,State
707.1,Oahu College,21.30377967,-157.8305905,21,18,13.6,157,49,50.1,2356218.123,621293.973,80,24,LYONS AB,1889,1895,Discontinued,State
707.4,Maryknoll School 707.4,21.301,-157.833,21,18,3.6,157,49,58.8,2355908.579,621046.305,49,15,NCDC_Daily,1997,1997,Discontinued,NCDC_Daily
708,Tantalus,21.32516743,-157.8289234,21,19,30.6,157,49,44.1,2358586.903,621449.315,1050,320,BWS,1948,1955,Discontinued,State
709.2,Pensacola Exp S,21.31044619,-157.8400349,21,18,37.6,157,50,24.1,2356948.828,620308.848,110,34,UH EXP STA,1938,1942,Discontinued,State
710.2,Puu Makani,21.31683429,-157.8161458,21,19,0.6,157,48,58.1,2357674.376,622781.516,1000,305,JAMES CASE,1976,1983,Discontinued,State
711,Dole-Pri,21.29711306,-157.8183684,21,17,49.6,157,49,6.1,2355489.62,622567.34,75,23,PRI,1937,1967,Discontinued,State
711.2,Fort Derussy,21.28017,-157.833369,21,16,48.6,157,50,0.1,2353602.55,621025.076,10,3,CAPITAL INVESTMENT,1958,1958,Discontinued,State
711.6,Kanewai Fld,21.29322222,-157.8127222,21,17,35.6,157,48,45.8,2355063.326,623156.308,38,12,USGS,1999,Present,Current,USGS
711.7,H-1,21.28944444,-157.8155556,21,17,22,157,48,56,2354642.938,622865.508,20,6,USGS,2005,Present,Current,USGS
712,Manoa-Keller,21.3068348,-157.8175349,21,18,24.6,157,49,3.1,2356566.408,622645.736,180,55,KELLER DR A,1919,1975,Discontinued,State
712.2,Oahu Avenue,21.31572312,-157.8111459,21,18,56.6,157,48,40.1,2357555.28,623301.056,230,70,KORTE A,1946,1960,Discontinued,State
712.3,Manoa Road,21.31016795,-157.8167015,21,18,36.6,157,49,0.1,2356936.017,622729.417,300,91,SHERRETZ L,1957,1958,Discontinued,State
712.4,Puuhonua,21.31183452,-157.8155903,21,18,42.6,157,48,56.1,2357121.363,622843.294,320,98,MORDY WA,1948,1949,Discontinued,State
712.5,Liloa Rise,21.31683416,-157.8103126,21,19,0.6,157,48,37.1,2357678.918,623386.561,190,58,UNKNOWN,1939,1943,Discontinued,State
713.1,Manini Way,21.28850196,-157.7922579,21,17,18.6,157,47,32.1,2354556.933,625283.301,425,130,MCBRIDE OC,1937,1942,Discontinued,State
713.4,Waialaenui R Upp,21.29683462,-157.7772577,21,17,48.6,157,46,38.1,2355491.304,626832.349,1040,317,DAVIES MRS JS,1976,1983,Discontinued,State
714.2,Kaliula,21.32016749,-157.815868,21,19,12.6,157,48,57.1,2358043.56,622807.558,1180,360,WR CASTLE,1902,1926,Discontinued,State
714.4,Kukui Malu,21.32544489,-157.814479,21,19,31.6,157,48,52.1,2358628.822,622947.232,1350,412,MYRON KERNER,1968,1975,Discontinued,State
715.1,Waialae Kahala,21.27350261,-157.7872584,21,16,24.6,157,47,14.1,2352900.561,625814.731,40,12,EJ ANDERSON,1954,1955,Discontinued,State
715.3,Kaimuki-Dorr,21.28350242,-157.802258,21,17,0.6,157,48,8.1,2353995.604,624250.044,140,43,DORR R,1968,1972,Discontinued,State
715.4,Leahi Hospital,21.27322517,-157.8019806,21,16,23.6,157,48,7.1,2352858.189,624287.457,210,64,TURBAN E,1971,1971,Discontinued,State
716.1,Woodlawn,21.31350082,-157.8022572,21,18,48.6,157,48,8.1,2357316.264,624224.909,250,76,MRS W CARTER,1948,1962,Discontinued,State
716.11,Woodlawn-Woolsey,21.30711232,-157.8047573,21,18,25.6,157,48,17.1,2356607.123,623970.943,380,116,DR F LAEMMLEN,1971,1972,Discontinued,State
716.13,St Louis Hts Upp,21.30572338,-157.7980907,21,18,20.6,157,47,53.1,2356458.632,624663.652,1090,332,UH ENGRG DEPT (FOR),1972,1973,Discontinued,State
716.14,St Louis Hts Mid,21.29933495,-157.8047575,21,17,57.6,157,48,17.1,2355746.21,623977.448,625,191,UH ENGRG DEP FOR,1972,1973,Discontinued,State
716.18,Pukele Stream,21.30683423,-157.7880907,21,18,24.6,157,47,17.1,2356589.538,625700.034,345,105,USGS,2004,2005,Discontinued,USGS
716.2,Manoa,21.32516687,-157.8039236,21,19,30.6,157,48,14.1,2358606.322,624042.256,300,91,CS DESKY,1898,1918,Discontinued,State
716.3,Manoa Upper,21.32405572,-157.7994791,21,19,26.6,157,47,58.1,2358486.83,624504.171,340,104,USGS,1915,1922,Discontinued,State
716.4,Manoa Valley,21.30211275,-157.8144795,21,18,7.6,157,48,52.1,2356046.085,622966.607,100,30,KIDWELL J,1891,1896,Discontinued,State
716.5,Manoa Waena,21.31655635,-157.8086459,21,18,59.6,157,48,31.1,2357649.472,623559.672,220,67,BISHOP ESTATE,1922,1931,Discontinued,State
716.6,Rhodes Gardens,21.3240558,-157.8028125,21,19,26.6,157,48,10.1,2358484.208,624158.432,300,91,RHODES HJ,1902,1910,Discontinued,State
716.7,Waahila,21.3101675,-157.7944795,21,18,36.6,157,47,40.1,2356953.433,625034.489,1220,372,BWS,1926,1940,Discontinued,State
716.8,Woodlawn-BWS,21.32322218,-157.7889237,21,19,23.6,157,47,20.1,2358402.941,625599.685,1450,442,BWS,1939,1941,Discontinued,State
717.1,Kapiolani Park,21.26655931,-157.8139251,21,15,59.6,157,48,50.1,2352110.963,623053.695,10,3,MCCALLUM H,1890,1904,Discontinued,State
717.3,Diamond Head 1,21.26350355,-157.7989252,21,15,48.6,157,47,56.1,2351784.47,624612.655,200,61,HAWAII NAT GUARD,1957,1957,Discontinued,State
717.4,Diamond Head 2,21.26017065,-157.8055918,21,15,36.6,157,48,20.1,2351410.293,623923.704,10,3,HAWAII NAT GUARD,1957,1957,Discontinued,State
717.7,Waikiki Kalakaua,21.26044879,-157.8192028,21,15,37.6,157,49,9.1,2351430.464,622511.139,0,0,TOM LOFFMAN,1970,1970,Discontinued,State
718.1,Olympus,21.33516556,-157.7772568,21,20,6.6,157,46,38.1,2359734.369,626799.521,2500,762,BWS,1939,1946,Discontinued,State
720.1,New Collins,21.2960015,-157.7867021,21,17,45.6,157,47,12.1,2355391.516,625853.303,945,288,OWENS RR,1948,1956,Discontinued,State
720.2,Waiamao,21.29961229,-157.7805909,21,17,58.6,157,46,50.1,2355796.102,626484.187,600,183,BITLING CC,1910,1913,Discontinued,State
720.3,Maunalua Hts,21.29544593,-157.7847577,21,17,43.6,157,47,5.1,2355331.57,626055.488,960,293,DUSENDSCHON RC,1969,1970,Discontinued,State
720.5,Halehoola,21.29683455,-157.773091,21,17,48.6,157,46,23.1,2355494.653,627264.6,900,274,T SCHROEDER,1978,1981,Discontinued,State
721,Wilnelmina Rise,21.29766804,-157.7853133,21,17,51.6,157,47,7.1,2355577.103,625995.956,1100,335,BWS,1927,Present,Current,"NCDC, State/NCDC"
721.1,Palolo Valley,21.29683497,-157.7972577,21,17,48.6,157,47,50.1,2355475.39,624757.565,190,58,J GULICK,1948,1950,Discontinued,State
721.2,Aha Maka,21.30766722,-157.7736463,21,18,27.6,157,46,25.1,2356693.333,627197.668,1245,380,MARTIN VITOUSEK,1971,1975,Discontinued,State
721.3,Kalaepohaku,21.29294641,-157.8050355,21,17,34.6,157,48,18.1,2355038.816,623953.966,360,110,SADLER JC,1973,Present,Current,State
721.4,Palolo Fire Stn*,21.3,-157.79,21,18,0,157,47,24,2355831.502,625507.784,195,59,Hydronet,1991,Present,Current,Hydronet
722,Kahala,21.26183672,-157.7855918,21,15,42.6,157,47,8.1,2351610.538,625997.579,10,3,LB LEOPOLD,1948,1949,Discontinued,State
722.1,Thorne,21.26405879,-157.7861474,21,15,50.6,157,47,10.1,2351856.066,625938.038,10,3,PRI THORNE MD,1948,1949,Discontinued,State
722.2,Kahala-Arnold,21.27016929,-157.777814,21,16,12.6,157,46,40.1,2352539.135,626797.497,5,2,ARNOLD DR HL JR,1949,1970,Discontinued,State
722.3,Pahoa Place,21.27016935,-157.7805917,21,16,12.6,157,46,50.1,2352536.914,626509.288,10,3,C LEOPOLD,1948,1949,Discontinued,State
722.4,Kahala,21.26766951,-157.7794806,21,16,3.6,157,46,46.1,2352261.085,626626.712,0,0,TALIAFERRO WJ,1967,1970,Discontinued,State
723.1,Wailupe Mauka,21.29683406,-157.7555912,21,17,48.6,157,45,20.1,2355508.821,629080.027,200,61,HIND CLARKE DAIRY,1926,1937,Discontinued,State
723.11,Hind Uka,21.29683406,-157.7555912,21,17,48.6,157,45,20.1,2355508.821,629080.027,200,61,RAY BARRETT,1978,1980,Discontinued,State
723.12,Aina Haina,21.28905673,-157.7580913,21,17,20.6,157,45,29.1,2354645.859,628827.444,200,61,SHARON DUMAS,1976,1979,Discontinued,State
723.3,Aina Haina,21.28183465,-157.7505915,21,16,54.6,157,45,2.1,2353852.546,629611.845,30,9,RAMAGE MRS C,1951,1962,Discontinued,State
723.6,Wailupe Val Scho,21.29266754,-157.7539247,21,17,33.6,157,45,14.1,2355048.969,629256.553,180,55,WAILUPE VALLEY SCH,1966,1983,Discontinued,State
723.7,Aina Haina Lower,21.28183471,-157.7528138,21,16,54.6,157,45,10.1,2353850.729,629381.279,15,5,R M WARNER,1964,1978,Discontinued,State
723.8,Niu Valley*,21.29,-157.73,21,17,24,157,43,48,2354773.474,631740.96,65,20,Hydronet,1991,Present,Current,Hydronet
723.9,Aina Haina,21.28266803,-157.7539249,21,16,57.6,157,45,14.1,2353942.064,629265.274,10,3,ADAMS CW,1974,1999,Discontinued,State
724.1,Hahaione Valley,21.29349992,-157.7105917,21,17,36.6,157,42,38.1,2355177.238,633751.326,25,8,KAMEHAMEHA SCHOOLS,1928,1935,Discontinued,State
724.11,Kii Place,21.29572203,-157.7100362,21,17,44.6,157,42,36.1,2355423.691,633806.944,40,12,L WILLIAMSON,1971,1973,Discontinued,State
724.13,Kalama Valley,21.29683234,-157.680592,21,17,48.6,157,40,50.1,2355571.866,636860.535,75,23,HARGER GRADEN,1976,1977,Discontinued,State
724.14,Sea Life Park,21.31349715,-157.6639247,21,18,48.6,157,39,50.1,2357431.2,638574.012,40,12,HAW OCEANIC INST,1976,1977,Discontinued,State
724.15,Kaumakani St,21.27572283,-157.7025365,21,16,32.6,157,42,9.1,2353216.21,634603.183,62,19,DUANE BARTHOLOMEW,1976,1982,Discontinued,State
724.2,Lunalilo Home,21.28183355,-157.6972587,21,16,54.6,157,41,50.1,2353897.162,635145.206,35,11,LUNALILO HOME,1956,1971,Discontinued,State
724.3,Maunalua,21.28516673,-157.6972586,21,17,6.6,157,41,50.1,2354266.137,635142.171,10,3,BISHOP ESTATE,1923,1928,Discontinued,State
724.5,Koko Head-Pri,21.29655494,-157.6928141,21,17,47.6,157,41,34.1,2355530.601,635592.843,15,5,PRI,1941,1945,Discontinued,State
724.6,Kaalakei,21.2885003,-157.7183695,21,17,18.6,157,43,6.1,2354617.219,632948.924,10,3,M ZAPATA,1965,1972,Discontinued,State
724.7,Kamehame,21.31933087,-157.6805913,21,19,9.6,157,40,50.1,2358062.421,636839.763,1200,366,NWS,1965,1973,Discontinued,State
725.1,Palehua,21.39684348,-158.100865,21,23,48.6,158,6,3.1,2366335.228,593199.631,2460,750,STATE DIV FTRY,1921,1931,Discontinued,State
725.2,Hakuloa,21.39017687,-158.0939207,21,23,24.6,158,5,38.1,2365601.451,593923.742,2210,674,VON HOLT HV,1948,1983,Discontinued,State
725.4,Mauna Kapu,21.37962218,-158.1014208,21,22,46.6,158,6,5.1,2364428.709,593152.919,2180,665,AFC HAW PMRF,1965,1967,Discontinued,State
725.6,Puu Manawahua,21.39545453,-158.0944761,21,23,43.6,158,5,40.1,2366185.294,593862.798,2080,634,NCDC,1977,2005,Discontinued,"NCDC, State/NCDC"
726.1,Paradise Cove 726.1,21.34,-158.11,21,20,24,158,6,36,2360037.975,592288.302,89,27,NCDC_Daily,1999,2003,Discontinued,NCDC_Daily
728.1,Palehua,21.37295353,-158.1153094,21,22,22.6,158,6,55.1,2363682.405,591717.2,2370,723,HAWAII NAT GUARD,1969,1969,Discontinued,State
728.2,Palehua,21.385,-158.1041667,21,23,6,158,6,15,2365022.343,592864.849,1440,439,RAWS,2009,Present,Current,RAWS
729,Field 85-86,21.41183666,-158.0755862,21,24,42.6,158,4,32.1,2368010.018,595810.292,1040,317,CPC,1944,1959,Discontinued,State
729.1,Field 86,21.41016894,-158.0639196,21,24,36.6,158,3,50.1,2367832.588,597020.65,720,220,CPC,1944,1959,Discontinued,State
729.2,Field 85,21.41572454,-158.0708639,21,24,56.6,158,4,15.1,2368443.254,596297.215,880,268,CPC,1959,1961,Discontinued,State
730.1,Makakilo,21.34267337,-158.0861432,21,20,33.6,158,5,10.1,2360348.057,594760.561,300,91,ADAMS NEAL,1976,1981,Discontinued,State
731.1,Palehua Corral 731.1,21.369,-158.077,21,22,8.4,158,4,37.2,2363267.632,595691.611,647,197,NCDC_Daily,2006,2006,Discontinued,NCDC_Daily
733.1,Field 120,21.3793379,-158.0741979,21,22,45.6,158,4,27.1,2364413.624,595975.397,960,293,OAHU SUGAR PLANTS,1966,1982,Discontinued,State
734,Gage 3,21.39183548,-158.0505866,21,23,30.6,158,3,2.1,2365811.573,598414.921,450,137,LIBBY,1939,1956,Discontinued,State
734.1,Gage 9,21.40016884,-158.0539198,21,24,0.6,158,3,14.1,2366731.9,598063.826,560,171,LIBBY,1922,1929,Discontinued,State
734.2,Gage 10,21.39183583,-158.05392,21,23,30.6,158,3,14.1,2365809.527,598069.362,480,146,LIBBY,1922,1929,Discontinued,State
734.3,Gage 11-Libby,21.36628145,-158.0666981,21,21,58.6,158,4,0.1,2362973.025,596761.512,420,128,LIBBY,1923,1929,Discontinued,State
734.4,Field 130,21.39183705,-158.0655866,21,23,30.6,158,3,56.1,2365802.422,596859.937,650,198,OAHU SUGAR,1966,1982,Discontinued,State
738.1,Field 57,21.40350207,-158.0555864,21,24,12.6,158,3,20.1,2367099.813,597888.847,605,184,OAHU SUGAR,1948,1960,Discontinued,State
738.3,Field 160,21.41016998,-158.0739197,21,24,36.6,158,4,26.1,2367826.554,595984.115,970,296,OAHU SUGAR,1966,1968,Discontinued,State
738.4,Field 155,21.40544668,-158.0589197,21,24,19.6,158,3,32.1,2367312.985,597542.036,600,183,OAHU SUGAR PLANTS,1966,1995,Discontinued,State
740.2,Field 26,21.38516848,-158.0372535,21,23,6.6,158,2,14.1,2365082.021,599801.63,285,87,OAHU SUGAR,1948,1963,Discontinued,State
740.4,Kunia,21.38850159,-158.0305868,21,23,18.6,158,1,50.1,2365455.211,600490.495,2850,869,HSPA,1963,1983,Discontinued,State
740.5,Kunia Substation*,21.39,-158.04,21,23,24,158,2,24,2365615.076,599513.631,279,85,Hydronet,1991,Present,Current,Hydronet
745,Pump 4,21.39350103,-158.0172534,21,23,36.6,158,1,2.1,2366017.187,601869.288,45,14,OAHU SUGAR,1948,1965,Discontinued,State
745.1,Field 15,21.39627874,-158.0205866,21,23,46.6,158,1,14.1,2366322.493,601521.834,250,76,OAHU SUGAR,1948,1963,Discontinued,State
746.1,Field 300,21.37350232,-158.0005874,21,22,24.6,158,0,2.1,2363814.428,603611.057,10,3,OAHU SUGAR,1966,1968,Discontinued,State
752.2,Field 420,21.395167,-157.9869758,21,23,42.6,157,59,13.1,2366221.536,605006.844,110,34,OAHU SUGAR,1948,1968,Discontinued,State
754.1,Pearl City Ter,21.40877714,-157.9669759,21,24,31.6,157,58,1.1,2367741.566,607070.222,250,76,JAMES MUNENO,1966,1970,Discontinued,State
754.2,Manana,21.4129435,-157.9639203,21,24,46.6,157,57,50.1,2368204.835,607383.907,240,73,LEE CLARENCE,1970,1972,Discontinued,State
756.1,Waimano Mauka,21.40183311,-157.9666982,21,24,6.6,157,58,0.1,2366973.112,607104.066,145,44,HSPA,1951,1952,Discontinued,State
757,Hickam Field,21.33517268,-157.9555891,21,20,6.6,157,57,20.1,2359602.011,608304.657,40,12,US AIR FORCE,1931,1949,Discontinued,State
760,Field 80,21.3851678,-157.9439213,21,23,6.6,157,56,38.1,2365144.11,609477.543,75,23,OAHU SUGAR,1948,1966,Discontinued,State
760.2,Pearl Country Cl,21.38822273,-157.9405877,21,23,17.6,157,56,26.1,2365484.592,609820.867,120,37,BNOAA-NWS,1977,1983,Discontinued,State
761.1,Field 615,21.41294299,-157.9408648,21,24,46.6,157,56,27.1,2368220.733,609773.681,680,207,OAHU SUGAR,1966,1970,Discontinued,State
764.2,Field 85,21.38849928,-157.9222544,21,23,18.6,157,55,20.1,2365528.133,611721.289,415,127,OAHU SUGAR,1949,1960,Discontinued,State
764.5,Aiea (Mackenzie),21.40405394,-157.9069763,21,24,14.6,157,54,25.1,2367260.866,613293.204,800,244,COLIN MACKENZIE,1969,1983,Discontinued,State
765,Field 87,21.36683485,-157.9291994,21,22,0.6,157,55,45.1,2363125.131,611017.633,60,18,OAHU SUGAR,1944,1964,Discontinued,State
765.1,Aloha Stadium,21.37114005,-157.9294771,21,22,16.1,157,55,46.1,2363601.485,610985.594,40,12,COLEMAN HUGH,1976,1981,Discontinued,State
765.2,Aliamanu Crater,21.35905623,-157.9089218,21,21,32.6,157,54,32.1,2362278.551,613126.118,30,9,CORP OF ENGINEER,1979,1983,Discontinued,State
766.1,Halawa Heights,21.38211064,-157.9139213,21,22,55.6,157,54,50.1,2364826.908,612590.08,400,122,NAKAMURA DAVID,1967,1969,Discontinued,State
767,Field 89,21.37516649,-157.9105881,21,22,30.6,157,54,38.1,2364060.635,612940.98,140,43,OAHU SUGAR,1948,1964,Discontinued,State
768.3,Tripler,21.36516649,-157.8822552,21,21,54.6,157,52,56.1,2362974.329,615886.437,675,206,USDA FRUIT FLY L,1950,1951,Discontinued,State
771.1,Halawa-Uka,21.39683206,-157.8972544,21,23,48.6,157,53,50.1,2366468.501,614306.597,480,146,HONOLULU PLANT,1902,1907,Discontinued,State
771.11,N Halawa Valley,21.40488889,-157.8504444,21,24,17.6,157,51,1.6,2367395.149,619152.693,1100,335,USGS,1998,Present,Current,USGS
771.4,Halawa 2,21.39516492,-157.8739213,21,23,42.6,157,52,26.1,2366301.126,616726.772,1250,381,HSPA,1936,1938,Discontinued,State
771.5,Halawa 2A,21.40183042,-157.8439212,21,24,6.6,157,50,38.1,2367061.559,619831.39,2020,616,HSPA,1936,1938,Discontinued,State
771.6,Aiea Hts,21.39349894,-157.9119766,21,23,36.6,157,54,43.1,2366088.903,612782.967,700,213,SCOTT JACK,1949,1983,Discontinued,State
771.9,N Halawa,21.382,-157.9033333,21,22,55.2,157,54,12,2364822.286,613687.886,690,210,USGS,1995,Present,Current,USGS
772.2,Moanalua,21.38322065,-157.8578105,21,22,59.6,157,51,28.1,2364991.027,618406.558,580,177,USGS,1972,1975,Discontinued,State
772.4,Moanalua,21.39571938,-157.8369769,21,23,44.6,157,50,13.1,2366390.415,620556.273,1100,335,USGS,1968,1975,Discontinued,State
772.6,Moanalua,21.38822016,-157.8486437,21,23,17.6,157,50,55.1,2365551.381,619352.884,1150,351,USGS,1992,2000,Discontinued,USGS
772.7,Moanalua,21.38433171,-157.8580882,21,23,3.6,157,51,29.1,2365113.806,618376.873,480,146,USGS,1968,1975,Discontinued,State
773.1,Kalihi Ug Shaft,21.34350079,-157.8736446,21,20,36.6,157,52,25.1,2360582.454,616796.428,155,47,BWS,1949,1983,Discontinued,State
773.7,Kalihi,21.35044447,-157.8558668,21,21,1.6,157,51,21.1,2361364.372,618634.473,400,122,AILEEN PERLSTEIN,1973,1983,Discontinued,State
774,Kalihi USGS,21.36294355,-157.8444778,21,21,46.6,157,50,40.1,2362756.576,619805.347,500,152,BWS,1939,1957,Discontinued,State
774.6,Oahu Country Cb,21.34016683,-157.8405895,21,20,24.6,157,50,26.1,2360238.294,620227.107,410,125,OAHU COUNTRY CLUB,1953,1966,Discontinued,State
774.7,Country Club,21.34683332,-157.8472559,21,20,48.6,157,50,50.1,2360971.156,619530.349,450,137,UNKNOWN,1929,1936,Discontinued,State
774.8,Nuuanu,21.33683364,-157.838923,21,20,12.6,157,50,20.1,2359870.604,620402.656,360,110,LB OSBORNE,1948,1949,Discontinued,State
775.1,Nuuanu Valley,21.34683332,-157.8472559,21,20,48.6,157,50,50.1,2360971.156,619530.349,500,152,JK WILDER,1879,1888,Discontinued,State
775.3,Dowsett,21.33766686,-157.8361452,21,20,15.6,157,50,10.1,2359964.963,620690.059,380,116,G FRIZELLE,1967,1983,Discontinued,State
776,Kalihi Tunnel 2,21.36794293,-157.8336445,21,22,4.6,157,50,1.1,2363318.272,620924.56,650,198,BWS,1939,1957,Discontinued,State
776.2,Kalihi Valley 4,21.35572164,-157.8428114,21,21,20.6,157,50,34.1,2361958.423,619984.019,900,274,USGS,1968,1975,Discontinued,State
780,Tantalus Peak,21.33211117,-157.8153122,21,19,55.6,157,48,55.1,2359366.093,622855.264,2000,610,BWS,1939,1957,Discontinued,State
780.1,Tantalus Peak,21.33016681,-157.8139234,21,19,48.6,157,48,50.1,2359151.947,623000.922,1300,396,WM GIFFARD,1907,1916,Discontinued,State
780.11,Tantalus-Simms,21.32988922,-157.8205899,21,19,47.6,157,49,14.1,2359116.027,622309.737,1740,530,SIMMS CAL,1969,1975,Discontinued,State
780.2,Tantalus,21.33016681,-157.8139234,21,19,48.6,157,48,50.1,2359151.947,623000.922,1665,508,PR ISENBERG,1906,1916,Discontinued,State
780.4,Nuuanu Valley,21.34655468,-157.813923,21,20,47.6,157,48,50.1,2360965.998,622987.297,555,169,UNKNOWN,1879,1884,Discontinued,State
780.6,Nuuanu,21.34183306,-157.8255896,21,20,30.6,157,49,32.1,2360434.268,621781.332,600,183,BWS JM FOX,1954,1956,Discontinued,State
781.1,Halekou,21.38516315,-157.798922,21,23,6.6,157,47,56.1,2365251.581,624510.312,400,122,ASHFORD MRS CR,1958,1973,Discontinued,State
781.11,Luluku,21.3918298,-157.8094772,21,23,30.6,157,48,34.1,2365981.219,623410.392,220,67,USGS,1992,1998,Discontinued,USGS
781.2,Kaneohe-Gowing,21.40932852,-157.795588,21,24,33.6,157,47,44.1,2367929.237,624835.452,50,15,GOWING DP,1951,1965,Discontinued,State
781.3,Kaneohe,21.40016233,-157.7972549,21,24,0.6,157,47,50.1,2366913.251,624670.436,110,34,RK SILER,1957,1963,Discontinued,State
781.4,Kamooalii Str,21.41016194,-157.8005879,21,24,36.6,157,48,2.1,2368017.524,624316.459,60,18,USGS,1959,1979,Discontinued,State
781.8,Kaneohe-Wylie,21.40460651,-157.794477,21,24,16.6,157,47,40.1,2367407.413,624954.632,76,23,WYLIE GORDON,1990,1991,Discontinued,State
781.9,Rb Kamooalii,21.38627407,-157.7928109,21,23,10.6,157,47,34.1,2365379.411,625142.946,195,59,USGS,1993,1998,Discontinued,USGS
782.1,Halfway House,21.34766603,-157.825034,21,20,51.6,157,49,30.1,2361080.375,621834.131,680,207,LAA W,1890,1897,Discontinued,State
782.2,Luakaha,21.34905459,-157.8161452,21,20,56.6,157,48,58.1,2361240.99,622754.766,800,244,T TWIGG-SMITH,1977,1977,Discontinued,State
782.3,Nuuanu Upper*,21.35,-157.82,21,21,0,157,49,12,2361342.639,622354.232,815,248,Hydronet,1991,Present,Current,Hydronet
785.1,Manoa Val Mauka,21.32905543,-157.8005901,21,19,44.6,157,48,2.1,2359039.395,624384.725,270,82,S KREPKY,1971,1973,Discontinued,State
785.4,Manoa Lyon Arbo*,21.33,-157.8,21,19,48,157,48,0,2359144.421,624445.131,498,152,Hydronet,1991,Present,Current,Hydronet
786,Nuuanu Pali,21.36655292,-157.7936448,21,21,59.6,157,47,37.1,2363195.698,625073.246,1150,351,BWS,1939,1958,Discontinued,State
786.1,Nuuanu Pali,21.36571962,-157.7928116,21,21,56.6,157,47,34.1,2363104.118,625160.349,1135,346,USGS,1910,1921,Discontinued,State
789,Konahuanui,21.35294252,-157.788923,21,21,10.6,157,47,20.1,2361692.849,625574.45,3105,947,BWS,1939,1946,Discontinued,State
790.11,Olomana Fire Stn*,21.38,-157.75,21,22,48,157,45,0,2364719.6,629586.964,148,45,Hydronet,1991,Present,Current,Hydronet
790.2,Kailua,21.3834958,-157.750589,21,23,0.6,157,45,2.1,2365106.089,629522.818,140,43,HAES,1938,1942,Discontinued,State
790.4,Kahaluu Fld 83,21.37849607,-157.7555891,21,22,42.6,157,45,20.1,2364548.52,629008.795,0,0,LIBBY,1924,1925,Discontinued,State
790.8,Lanikai,21.39016142,-157.7192,21,23,24.6,157,43,9.1,2365870.166,632771.204,20,6,JUSTUS MULLER,1976,1981,Discontinued,State
791,Kailua Camp,21.38849556,-157.7472556,21,23,18.6,157,44,50.1,2365662.302,629864.009,35,11,WAIMANALO PLANTATION,1924,1942,Discontinued,State
791.1,Kailua Hill,21.38682896,-157.7472556,21,23,12.6,157,44,50.1,2365477.813,629865.48,90,27,B NUTTER,1949,1957,Discontinued,State
791.11,Aikahi Park,21.42821582,-157.7491991,21,25,41.6,157,44,57.1,2370057.632,629627.473,0,0,WORTHLEY L JR,1967,1976,Discontinued,State
791.12,Kaneohe Yacthclb,21.41849431,-157.7655882,21,25,6.6,157,45,56.1,2368968.026,627937.254,20,6,BROADBENT N,1969,1972,Discontinued,State
791.13,Kailua Beach,21.40016146,-157.7355887,21,24,0.6,157,44,8.1,2366963.383,631063.189,0,0,OSBOURE,1970,1983,Discontinued,State
791.2,Kailua-Parry,21.41516102,-157.7478107,21,24,54.6,157,44,52.1,2368613.643,629782.914,15,5,PARRY HD,1957,1959,Discontinued,State
791.4,Kalama,21.40349479,-157.7422553,21,24,12.6,157,44,32.1,2367326.823,630369.121,10,3,G COSTAR JR,1948,1949,Discontinued,State
791.5,Kailua,21.39682844,-157.7422555,21,23,48.6,157,44,32.1,2366588.874,630375.012,10,3,MC CARSON,1952,1954,Discontinued,State
791.6,Kaimake Loop,21.41016128,-157.7519773,21,24,36.6,157,45,7.1,2368056.743,629355.419,15,5,BL JOHNSON,1963,1982,Discontinued,State
791.9,Kaneohe Bay Dr,21.42182746,-157.7633659,21,25,18.6,157,45,48.1,2369338.811,628164.695,20,6,MRS FA SCHAEFER,1965,1968,Discontinued,State
792.1,Waimanalo Mauka,21.33516466,-157.7389237,21,20,6.6,157,44,20.1,2359765.627,630775.165,190,58,MRS E BEVERIDGE,1951,1952,Discontinued,State
793,Lagoon Pump,21.35682987,-157.7239231,21,21,24.6,157,43,26.1,2362176.447,632311.489,40,12,WAIMANALO PLANTATION,1930,1934,Discontinued,State
794.1,Bellows Field,21.35182971,-157.71059,21,21,6.6,157,42,38.1,2361634.214,633698.655,15,5,US AIR FORCE,1942,1945,Discontinued,State
794.2,Waimanalo,21.34683007,-157.7139235,21,20,48.6,157,42,50.1,2361077.935,633357.486,25,8,JS GURNEY,1879,1882,Discontinued,State
795,Coral Hill,21.33016428,-157.7055909,21,19,48.6,157,42,20.1,2359240.148,634236.797,80,24,WAIMANALO PLANTATION,1929,1934,Discontinued,State
796.2,Makaha-Sears,21.46711219,-158.2172509,21,28,1.6,158,13,2.1,2374048.387,581096.253,10,3,ALVIN SEARS,1975,1980,Discontinued,State
798.2,Waianae Lihue,21.4485016,-158.1878068,21,26,54.6,158,11,16.1,2372003.978,584157.622,15,5,A PRATT,1970,1986,Discontinued,State
799,Schofield South Range,21.48,-158.1072222,21,28,48,158,6,26,2375535.931,592488.211,1489,454,RAWS,2008,Present,Current,RAWS
800.1,Makaha Reserv,21.472113,-158.199474,21,28,19.6,158,11,58.1,2374611.224,582935.275,160,49,CAPITAL INVESTMENT,1958,1969,Discontinued,State
800.2,Makaha Pump,21.47850034,-158.1903061,21,28,42.6,158,11,25.1,2375323.107,583881.467,400,122,CAPITAL INVESTMENT,1969,1983,Discontinued,State
802.1,Puhawai,21.46683886,-158.1289175,21,28,0.6,158,7,44.1,2374066.476,590248.644,450,137,USGS,1930,1944,Discontinued,State
802.2,Kolekole Pass Q,21.47711766,-158.1136397,21,28,37.6,158,6,49.1,2375213.108,591825.152,1580,482,USGS,1963,1969,Discontinued,State
802.3,Range 1-2,21.4851713,-158.1094729,21,29,6.6,158,6,34.1,2376107.007,592251.776,1350,412,USGS,1963,1967,Discontinued,State
802.4,Puea Mauka Ditch,21.46683468,-158.1591952,21,28,0.6,158,9,33.1,2374048.861,587111.552,350,107,USGS,1960,1967,Discontinued,State
803.1,Lualualei Watunn,21.47794876,-158.1322506,21,28,40.6,158,7,56.1,2375294.294,589896.48,1500,457,US VY,1975,1975,Discontinued,NCDC
803.2,Waianae Valley,21.48055556,-158.1552778,21,28,50,158,9,19,2375569.78,587509.238,957,292,RAWS,2003,Present,Current,RAWS
804.4,Nanakuli,21.39767007,-158.1641969,21,23,51.6,158,9,51.1,2366390.456,586634.133,10,3,HAROLD ROBERTS,1967,1968,Discontinued,State
806.1,Field 1,21.46349819,-158.0455852,21,27,48.6,158,2,44.1,2373747.038,598885.118,790,241,CPC,1939,1945,Discontinued,State
807.1,Pri Kunia,21.4185006,-158.0539194,21,25,6.6,158,3,14.1,2368761.029,598051.635,690,210,PRI,1937,1946,Discontinued,State
807.2,Field 170,21.42266777,-158.0639193,21,25,21.6,158,3,50.1,2369216.072,597012.427,760,232,OAHU SUGAR,1966,1969,Discontinued,State
809.1,Field 56,21.41350058,-158.0489195,21,24,48.6,158,2,56.1,2368210.713,598573.214,610,186,OAHU SUGAR,1948,1957,Discontinued,State
809.3,Field 275,21.43988952,-158.0583634,21,26,23.6,158,3,30.1,2371125.785,597576.812,850,259,OAHU SUGAR,1969,1983,Discontinued,State
810.1,Wheeler AAF 810.1,21.483,-158.033,21,28,58.8,158,1,58.8,2375913.706,600175.799,830,253,NCDC_Daily,1939,Present,Current,NCDC_Daily
812.2,Van 6A,21.43822123,-158.0458634,21,26,17.6,158,2,45.1,2370948.956,598873.333,600,183,HAWAIIAN PINE,1925,1936,Discontinued,State
813.1,Field 60,21.44016543,-158.0355857,21,26,24.6,158,2,8.1,2371170.678,599937.119,650,198,OAHU SUGAR,1949,1964,Discontinued,State
813.3,Field 260,21.45016516,-158.0444743,21,27,0.6,158,2,40.1,2372271.906,599009.228,610,186,OAHU SUGAR,1969,1983,Discontinued,State
814,Pri Wahiawa,21.495163,-158.0355845,21,29,42.6,158,2,8.1,2377258.384,599899.739,880,268,PRI,1937,1954,Discontinued,State
814.4,Wheeler AFB*,21.49,-158.03,21,29,24,158,1,48,2376690.465,600481.799,820,250,Hydronet,1991,Present,Current,Hydronet
815.1,Miilani Golf,21.44849826,-158.0272522,21,26,54.6,158,1,38.1,2372098.379,600795.011,690,210,MIILANI GOLF COURSE,1976,1978,Discontinued,State
817.1,Field 4107,21.4434984,-158.0072526,21,26,36.6,158,0,26.1,2371557.94,602871.004,600,183,HAWAIIAN PINE,1953,1972,Discontinued,State
818.1,Field 220,21.41683324,-158.0289196,21,25,0.6,158,1,44.1,2368592.302,600643.934,525,160,OAHU SUGAR,1966,1984,Discontinued,State
820,Gage 1-Libby,21.4601643,-158.0155854,21,27,36.6,158,0,56.1,2373397.253,601995.883,680,207,LIBBY,1939,1948,Discontinued,State
820.2,Pr1 Wahiawa,21.46349751,-158.0189187,21,27,48.6,158,1,8.1,2373764.041,601648.181,700,213,PR1,1953,1976,Discontinued,State
820.3,Wahiawa (760),21.47321922,-158.0105852,21,28,23.6,158,0,38.1,2374845.581,602504.862,760,232,PRI,1954,1966,Discontinued,State
820.4,Gage 13-Libby,21.45516416,-157.9822526,21,27,18.6,157,58,56.1,2372865.86,605453.378,730,223,LIBBY,1923,1929,Discontinued,State
820.5,Waipio A Field 5,21.46516395,-157.9986411,21,27,54.6,157,59,55.1,2373961.803,603748.085,765,233,LIBBY,1937,1944,Discontinued,State
820.6,Mililani*,21.46,-158,21,27,36,158,0,0,2373389.299,603610.933,744,227,Hydronet,1991,Present,Current,Hydronet
821.1,Pine Spur-Pri,21.48488535,-158.0039185,21,29,5.6,158,0,14.1,2376141.302,603187.372,940,287,PRI,1954,1963,Discontinued,State
821.2,Lelehua Golf Crs,21.48571905,-158.0333626,21,29,8.6,158,2,0.1,2376214.447,600136.374,880,268,LELEHUA GOLF CRS,1977,1983,Discontinued,State
821.3,Kaukonahua,21.48880556,-157.9960556,21,29,19.7,157,59,45.8,2376580.444,603999.192,860,262,USGS,2005,Present,Current,USGS
822,Gage 5,21.42850053,-158.0572525,21,25,42.6,158,3,26.1,2369865.835,597699.517,770,235,LIBBY,1922,1948,Discontinued,State
822.1,Field 90,21.42683437,-158.0622525,21,25,36.6,158,3,44.1,2369678.302,597182.422,790,241,CPC,1959,1968,Discontinued,State
822.2,Field 95,21.42683567,-158.0755858,21,25,36.6,158,4,32.1,2369670.242,595800.551,1150,351,CPC,1959,1968,Discontinued,State
824.1,Field 525,21.42599899,-157.9889199,21,25,33.6,157,59,20.1,2369633.057,604783.322,546,166,OAHU SUGAR,1966,1982,Discontinued,State
824.2,Waipio Heights*,21.42,-158.01,21,25,12,158,0,36,2368955.087,602602.714,410,125,Hydronet,1991,Present,Current,Hydronet
825.2,Waipio Fld 137,21.43516523,-157.9889197,21,26,6.6,157,59,20.1,2370647.678,604776.8,540,165,LIBBY,1929,1940,Discontinued,State
825.3,Field 540,21.44183132,-157.9772529,21,26,30.6,157,58,38.1,2371393.401,605981.094,600,183,OAHU SUGAR,1969,1974,Discontinued,State
825.4,Field 4106,21.43849854,-157.9939196,21,26,18.6,157,59,38.1,2371013.312,604256.261,670,204,DOLE,1965,1972,Discontinued,State
826.1,Fld 4132 (Dole),21.44905356,-157.9925304,21,26,56.6,157,59,33.1,2372182.584,604392.718,700,213,SCS-ARS,1972,1975,Discontinued,State
828,Schofield East,21.49944444,-157.9933333,21,29,58,157,59,36,2377759.894,604273.636,1250,381,RAWS,2000,Present,Current,RAWS
830,Field 92,21.45183106,-157.9855859,21,27,6.6,157,59,8.1,2372494.673,605110.362,740,226,CPC,1939,1968,Discontinued,State
830.1,Field 530,21.43183175,-157.9772531,21,25,54.6,157,58,38.1,2370286.534,605988.295,560,171,OAHU SUGAR,1949,1969,Discontinued,State
830.2,Gage 12-Libby,21.45877546,-158.0139189,21,27,31.6,158,0,50.1,2373244.607,602169.531,700,213,LIBBY,1923,1929,Discontinued,State
830.6,Gage 4 Mink,21.46682946,-157.9339192,21,28,0.6,157,56,2.1,2374190.443,610453.044,1560,476,USGS,1957,1957,Discontinued,State
831,Field 3c,21.42016569,-157.9805866,21,25,12.6,157,58,50.1,2368992.953,605651.208,370,113,OAHU SUGAR,1948,1966,Discontinued,State
831.2,Field 4113 Makai,21.4246099,-157.9791977,21,25,28.6,157,58,45.1,2369485.824,605791.962,390,119,HAWAIIAN PINE,1955,1961,Discontinued,State
832.1,Waiawa Ditch,21.46349681,-157.9639192,21,27,48.6,157,57,50.1,2373800.674,607347.032,1240,378,A LISTER,1907,1909,Discontinued,State
832.3,Kipapa (750),21.47183004,-157.9805855,21,28,18.6,157,58,50.1,2374711.758,605614.116,750,229,OAHU SUGAR,1925,1937,Discontinued,State
832.7,Gate House #1,21.46016367,-157.9672526,21,27,36.6,157,58,2.1,2373429.44,607004.069,1010,308,KOA RIDGE FARMS,1960,1976,Discontinued,State
832.8,Main House,21.46433004,-157.9600303,21,27,51.6,157,57,36.1,2373895.578,607749.376,1140,348,KOA RIDGE FARM,1960,1978,Discontinued,State
834,Gage 7,21.42016518,-157.9589202,21,25,12.6,157,57,32.1,2369007.645,607896.877,460,140,LIBBY,1947,1948,Discontinued,State
834.12,P Palisades,21.43377508,-157.9297533,21,26,1.6,157,55,47.1,2370534.504,610909.692,1040,317,BURGAN BOB,1971,1975,Discontinued,State
834.13,Waiawa Cf*,21.44,-157.97,21,26,24,157,58,12,2371195.611,606734.06,773,236,Hydronet,1992,Present,Current,Hydronet
834.3,Waimano 1,21.4251643,-157.9289202,21,25,30.6,157,55,44.1,2369581.944,611002.544,1050,320,BWS,1950,1974,Discontinued,State
834.4,Waimano 2,21.43349684,-157.9005867,21,26,0.6,157,54,2.1,2370524.622,613932.713,1200,366,BWS,1950,1954,Discontinued,State
834.6,Gage 15,21.43016448,-157.9472533,21,25,48.6,157,56,50.1,2370122.559,609098.698,480,146,LIBBY,1926,1929,Discontinued,State
834.8,Field 545,21.44488639,-157.9611418,21,26,41.6,157,57,40.1,2371742.554,607648.482,800,244,OAHU SUGAR,1966,1983,Discontinued,State
834.9,Field 550,21.45099744,-157.9700305,21,27,3.6,157,58,12.1,2372412.917,606722.897,800,244,OAHU SUGAR,1966,1969,Discontinued,State
835,Field 71,21.41488766,-157.9555869,21,24,53.6,157,57,20.1,2368425.763,608246.256,430,131,OAHU SUGAR,1948,1967,Discontinued,State
835.1,Momilani,21.41016574,-157.9566981,21,24,36.6,157,57,24.1,2367902.32,608134.553,325,99,KAINUMA C,1972,1977,Discontinued,State
836.1,Waipio 1,21.46849598,-157.9289192,21,28,6.6,157,55,44.1,2374378.452,610969.859,1500,457,HSPA,1928,1947,Discontinued,State
837.2,Kaalaea,21.46627176,-157.8539196,21,27,58.6,157,51,14.1,2374187.278,618742.771,120,37,HASHIMOTO K,1968,1969,Discontinued,State
837.3,Kahaluu Mauka,21.45071629,-157.8222538,21,27,2.6,157,49,20.1,2372489.704,622036.879,20,6,HLYANE RICHARD,1967,1968,Discontinued,State
837.4,Heeia Fishpond,21.43377225,-157.8097541,21,26,1.6,157,48,35.1,2370623.854,623346.468,20,6,L L (BUD) HENRY,1977,1983,Discontinued,State
838.2,Haiku Plantation,21.4232174,-157.8169763,21,25,23.6,157,49,1.1,2369449.811,622606.76,110,34,GRANT STEMMERMANN,1968,1983,Discontinued,State
838.6,Holokuku,21.41738426,-157.8141987,21,25,2.6,157,48,51.1,2368806.281,622899.537,280,85,COOK MRS P,1969,1975,Discontinued,State
838.7,Haw Loa College,21.37794094,-157.7822557,21,22,40.6,157,46,56.1,2364465.411,626244.418,290,88,BOB WOOD,1970,1983,Discontinued,State
839.1,Ahuimanu,21.43349536,-157.8389205,21,26,0.6,157,50,20.1,2370570.534,620323.84,350,107,HR MACFARLANE,1891,1914,Discontinued,State
839.11,Waihee Ridge,21.44405106,-157.8666977,21,26,38.6,157,52,0.1,2371717.926,617436.532,574,175,USGS,1962,1988,Discontinued,State
839.13,Kalahaku,21.44571718,-157.8469757,21,26,44.6,157,50,49.1,2371917.268,619479.035,200,61,N GREENER,1971,1980,Discontinued,State
839.14,Club View,21.43127326,-157.8397538,21,25,52.6,157,50,23.1,2370323.919,620239.296,290,88,BORSUKIEWICZ D,1993,2000,Discontinued,State
839.3,Haiku,21.40627416,-157.8294766,21,24,22.6,157,49,46.1,2367564.554,621325.106,440,134,US NAVY,1952,1998,Discontinued,"State, USGS"
839.6,Kahaluu Field 18,21.45904935,-157.8325312,21,27,32.6,157,49,57.1,2373404.165,620964.96,20,6,LIBBY,1923,1925,Discontinued,State
839.9,Waihee Stream,21.44599541,-157.8666976,21,26,45.6,157,52,0.1,2371933.155,617434.985,520,159,USGS,1962,1988,Discontinued,State
841.11,PFR-6,21.54488715,-158.1950263,21,32,41.6,158,11,42.1,2382668.773,583354.588,2050,625,USGS,1962,1963,Discontinued,State
841.12,PFR-4,21.54599998,-158.1864143,21,32,45.6,158,11,11.1,2382796.576,584245.757,1610,491,USGS,1962,1963,Discontinued,State
841.13,PFR-3,21.55433597,-158.1783567,21,33,15.6,158,10,42.1,2383723.646,585075.292,1060,323,USGS,1962,1963,Discontinued,State
841.14,PFR-2,21.56017053,-158.1722446,21,33,36.6,158,10,20.1,2384372.812,585704.76,360,110,USGS,1962,1963,Discontinued,State
841.15,PFR-1,21.5685045,-158.1752991,21,34,6.6,158,10,31.1,2385293.611,585383.605,80,24,USGS,1962,1965,Discontinued,State
841.4,KP-5,21.57238571,-158.2669687,21,34,20.6,158,16,1.1,2385675.777,575890.368,880,268,USGS,1963,1964,Discontinued,State
841.5,KP-4,21.5643345,-158.2464082,21,33,51.6,158,14,47.1,2384794.766,578023.385,1200,366,USGS,1963,1964,Discontinued,State
841.6,KP-3,21.56155613,-158.2391876,21,33,41.6,158,14,21.1,2384490.867,578772.505,1300,396,USGS,1963,1964,Discontinued,State
841.7,KP-2,21.55405464,-158.2383571,21,33,14.6,158,14,18.1,2383660.967,578862.552,400,122,USGS,1963,1963,Discontinued,State
841.8,KP-1,21.54655329,-158.2391931,21,32,47.6,158,14,21.1,2382830.242,578780.037,45,14,USGS,1963,1965,Discontinued,State
841.9,Bowman Cottage,21.57822372,-158.2316838,21,34,41.6,158,13,54.1,2386339.572,579540.367,60,18,USGS,1963,1965,Discontinued,State
842.2,PFR-5,21.53238928,-158.1808591,21,31,56.6,158,10,51.1,2381293.044,584828.928,2190,668,USGS,1962,1963,Discontinued,State
842.3,PFR-7,21.5312785,-158.1778035,21,31,52.6,158,10,40.1,2381171.757,585146.024,2050,625,USGS,1965,1965,Discontinued,State
842.4,KR-3,21.53127972,-158.1636362,21,31,52.6,158,9,49.1,2381179.687,586613.254,1725,526,USGS,1963,1963,Discontinued,State
842.5,KR-4,21.52488988,-158.1689147,21,31,29.6,158,10,8.1,2380469.487,586070.353,2190,668,USGS,1962,1963,Discontinued,State
842.6,KR-5,21.51683387,-158.1644708,21,31,0.6,158,9,52.1,2379580.238,586535.375,2700,823,USGS,1962,1963,Discontinued,State
843.1,KR-1,21.55878144,-158.1505782,21,33,31.6,158,9,2.1,2384231.122,587949.029,240,73,USGS,1962,1963,Discontinued,State
843.2,KR-2,21.54183677,-158.1600238,21,32,30.6,158,9,36.1,2382350.24,586981.082,920,280,USGS,1962,1963,Discontinued,State
843.3,Dillingham Fld,21.57822697,-158.197241,21,34,41.6,158,11,50.1,2386357.913,583106.243,5,2,HAWAII NAT GUARD,1968,1969,Discontinued,State
843.5,Mokuleia,21.58100067,-158.1486336,21,34,51.6,158,8,55.1,2386691.649,588136.948,10,3,GW TEWKSBURY,1970,1975,Discontinued,State
843.7,Dillingham,21.57194444,-158.1986111,21,34,19,158,11,55,2385661.78,582967.972,102,31,RAWS,2004,Present,Current,RAWS
844.2,KR-7,21.50822256,-158.1480826,21,30,29.6,158,8,53.1,2378636.233,588237.982,3965,1209,USGS,1962,1963,Discontinued,State
844.3,KR-6,21.51100038,-158.1561379,21,30,39.6,158,9,22.1,2378939.178,587401.943,3200,976,USGS,1962,1963,Discontinued,State
844.4,KR-8,21.50711144,-158.1419717,21,30,25.6,158,8,31.1,2378516.708,588871.633,3960,1207,USGS,1963,1963,Discontinued,State
855.1,Waialua Ranch,21.54016191,-158.1022497,21,32,24.6,158,6,8.1,2382198.166,592965.112,160,49,HAWAIIAN PINE,1945,1949,Discontinued,State
855.2,Waialua,21.53849494,-158.0889166,21,32,18.6,158,5,20.1,2382021.652,594346.962,680,207,HAES,1938,1959,Discontinued,State
855.3,Poamoho Exp Farm*,21.54,-158.09,21,32,24,158,5,24,2382187.593,594233.792,722,220,Hydronet,1991,Present,Current,Hydronet
856.1,Burma Road,21.55377143,-158.0514167,21,33,13.6,158,3,5.1,2383735.763,598220.226,0,0,DOLE CORP,1965,1983,Discontinued,State
856.2,Helemano 856.2,21.567,-158.048,21,34,1.2,158,2,52.8,2385202.207,598565.088,819,250,NCDC_Daily,2006,2006,Discontinued,NCDC_Daily
857.2,Field 5  McCart,21.51460847,-158.086417,21,30,52.6,158,5,11.1,2379379.172,594621.294,960,293,USGS,1963,1965,Discontinued,State
857.4,Schofield Firebreak,21.50861111,-158.1147222,21,30,31,158,6,53,2378698.449,591693.265,1138,347,RAWS,2001,Present,Current,RAWS
858,Schofield Barracks,21.495,-158.0819444,21,29,42,158,4,55,2377211.43,595097.308,980,299,RAWS,1999,Present,Current,RAWS
860.1,Brodie 4 Fld 83,21.54682748,-158.0639166,21,32,48.6,158,3,50.1,2382959.31,596930.463,800,244,HAWAIIAN PINE,1927,1936,Discontinued,State
860.2,Brodie 4 Fld 75A,21.54682731,-158.0472503,21,32,48.6,158,2,50.1,2382969.74,598656.357,800,244,HAWAIIAN PINE,1930,1936,Discontinued,State
860.3,Brodie 2 Fld 84,21.5384944,-158.0455837,21,32,18.6,158,2,44.1,2382048.416,598834.586,960,293,HAWAIIAN PINE,1927,1936,Discontinued,State
860.4,Field 4447-48,21.54210567,-158.0747499,21,32,31.6,158,4,29.1,2382429.958,595811.714,820,250,PRI THORNE,1949,1949,Discontinued,State
865.1,Helemano,21.51682852,-158.027251,21,31,0.6,158,1,38.1,2379661.912,600748.104,890,271,HAES,1950,1952,Discontinued,State
865.2,Dm Field 204,21.50988437,-158.0214178,21,30,35.6,158,1,17.1,2378897.029,601357.109,960,293,DEL MONTE,1970,1980,Discontinued,State
867.1,Pri Opaeula,21.56849235,-158.0089167,21,34,6.6,158,0,32.1,2385392.625,602610.808,1285,392,PRI,1939,1949,Discontinued,State
867.2,Opaeula 26,21.56849241,-158.01475,21,34,6.6,158,0,53.1,2385388.802,602006.819,275,84,WAIALUA AG,1965,1993,Discontinued,State
867.3,Helemano 23 #3,21.56099276,-158.0091946,21,33,39.6,158,0,33.1,2384562.295,602587.311,1320,402,WAIALUA AG,1961,1971,Discontinued,State
867.4,Helemano 23 #4,21.55904833,-158.0005837,21,33,32.6,158,0,2.1,2384352.753,603480.323,1390,424,WAIALUA AG,1962,1985,Discontinued,State
867.6,Helemano 23 #2,21.56182617,-158.0219723,21,33,42.6,158,1,19.1,2384646.192,601263.642,1200,366,WAIALUA AG,1964,1971,Discontinued,State
867.7,Fld 4707 (Dole),21.56515952,-158.0350277,21,33,54.6,158,2,6.1,2385006.742,599909.526,1020,311,SCS-ARS,1972,1975,Discontinued,State
868,Opaeula 26 Bot,21.57738113,-158.0350273,21,34,38.6,158,2,6.1,2386359.574,599901.189,900,274,WAIALUA AG,1965,1970,Discontinued,State
869,Kawailoa Training Area,21.58722222,-158.0130556,21,35,14,158,0,47,2387463.16,602169.125,1274,388,RAWS,2004,2006,Discontinued,RAWS
874,Wahiawa Office,21.50016268,-158.0239179,21,30,0.6,158,1,26.1,2377819.304,601104.863,920,280,HAWAIIAN PINE,1943,1964,Discontinued,State
874.4,Pri-Eames,21.50849544,-158.0072514,21,30,30.6,158,0,26.1,2378752.543,602825.485,1130,345,PRI I KERN,1955,1966,Discontinued,State
874.5,Kemoo-Pri,21.5051625,-158.0328067,21,30,18.6,158,1,58.1,2378367.015,600180.651,920,280,PRI,1937,1949,Discontinued,State
875.2,Helemano Fld 24B,21.53516069,-157.9955844,21,32,6.6,157,59,44.1,2381711.899,604015.019,1320,402,HAWAIIAN PINE,1927,1930,Discontinued,State
875.3,Helemano Fld,21.54682688,-158.0139173,21,32,48.6,158,0,50.1,2382991.144,602108.205,1100,335,HAWAIIAN PINE,1931,1936,Discontinued,State
877.1,Wahiawa-Navy,21.51682834,-158.0050291,21,31,0.6,158,0,18.1,2379676.39,603049.806,1170,357,US NAVY,1944,1959,Discontinued,State
877.3,Kaukonahua Fld,21.51349512,-157.9972515,21,30,48.6,157,59,50.1,2379312.581,603857.766,1200,366,HAWAIIAN PINE,1927,1933,Discontinued,State
877.4,Helemano,21.51349512,-157.9972515,21,30,48.6,157,59,50.1,2379312.581,603857.766,1300,396,PRI,1948,1948,Discontinued,State
877.5,Helemano Mauka,21.54349361,-157.9989175,21,32,36.6,157,59,56.1,2382632.07,603663.907,1310,399,PRI,1948,1959,Discontinued,State
877.6,Pri Helemano,21.54349366,-158.005584,21,32,36.6,158,0,20.1,2382627.661,602973.528,1220,372,PRI,1965,1967,Discontinued,State
880.2,Kawai Iki Intake 880.2,21.567,-157.983,21,34,1.2,157,58,58.8,2385244.721,605295.35,1263,385,NCDC_Daily,1954,1973,Discontinued,NCDC_Daily
881.3,Opaeula 1,21.55377063,-157.9622506,21,33,13.6,157,57,44.1,2383794.479,607453.563,1850,564,HSPA,1928,1941,Discontinued,State
882,Wahiawa Mauka,21.5134947,-157.9455849,21,30,48.6,157,56,44.1,2379347.771,609209.47,1210,369,WAIALUA AG,1906,1953,Discontinued,"NCDC, State, State/NCDC"
882.1,N Fork,21.5134947,-157.9455849,21,30,48.6,157,56,44.1,2379347.771,609209.47,1150,351,USGS,1933,1936,Discontinued,State
882.2,Wahiawa Wci,21.53016066,-157.9472512,21,31,48.6,157,56,50.1,2381191.418,609024.434,1200,366,USGS,1914,1921,Discontinued,State
882.3,Poamoho #3,21.5315495,-157.950029,21,31,53.6,157,57,0.1,2381343.215,608735.703,1884,574,USGS,1967,1988,Discontinued,State
883.1,Marsh,21.53182696,-157.9222512,21,31,54.6,157,55,20.1,2381393.536,611612.425,2580,787,HSPA,1931,1947,Discontinued,State
883.11,Opaeula 2,21.55849224,-157.9239173,21,33,30.6,157,55,26.1,2384344.039,611419.507,2800,854,HSPA,1939,1944,Discontinued,State
883.12,Poamoho No. 1,21.53386111,-157.9213889,21,32,1.9,157,55,17,2381619.322,611700.177,2480,756,USGS,1967,Present,Current,"State, USGS, USGS/State"
883.2,Kaipapau,21.5818243,-157.9422499,21,34,54.6,157,56,32.1,2386913.769,609503.626,2500,762,HSPA,1931,1944,Discontinued,State
883.4,Upper Marsh,21.5301603,-157.9194734,21,31,48.6,157,55,10.1,2381211.036,611901.398,2440,744,WAIALUA AG,1949,1957,Discontinued,State
883.5,Lower Marsh,21.53293799,-157.9208623,21,31,58.6,157,55,15.1,2381517.515,611755.423,2520,768,WAIALUA AG,1950,1957,Discontinued,State
883.8,Kahana,21.55515688,-157.8789176,21,33,18.6,157,52,44.1,2384007.664,616081.938,10,3,Z IGUSHI,1916,1923,Discontinued,State
883.9,Opaeula,21.54515957,-157.9189176,21,32,42.6,157,55,8.1,2382871.768,611947.46,2750,838,HSPA,1928,1938,Discontinued,State
884.1,Punaluu Valley,21.5584917,-157.9039174,21,33,30.6,157,54,14.1,2384358.406,613490.516,300,91,USGS,1915,1918,Discontinued,State
884.2,Punaluu Str #2,21.55876931,-157.8989174,21,33,31.6,157,53,56.1,2384392.784,614008.056,212,65,USGS,1967,1969,Discontinued,State
884.3,Punaluu #1,21.53599288,-157.9014178,21,32,9.6,157,54,5.1,2381869.724,613766.893,750,229,USGS,1967,1988,Discontinued,State
884.4,Punaluu,21.55644444,-157.899,21,33,23.2,157,53,56.4,2384135.372,614001.32,240,73,USGS,2003,Present,Current,USGS
885.1,Kaaawa Mauka,21.52515802,-157.8572517,21,31,30.6,157,51,26.1,2380703.196,618349.861,160,49,KUALOA RANCH,1948,1960,Discontinued,State
885.3,Waianae Uka 2,21.5068276,-157.9072517,21,30,24.6,157,54,26.1,2378637.049,613185.283,2350,716,HSPA,1928,1946,Discontinued,State
885.4,Waianae Uka 3,21.50682748,-157.9022517,21,30,24.6,157,54,8.1,2378640.666,613703.223,2100,640,HSPA,1933,1941,Discontinued,State
885.5,Kaaawa-HSPA,21.52821311,-157.8553073,21,31,41.6,157,51,19.1,2381042.857,618548.775,75,23,HSPA,1967,1974,Discontinued,State
885.6,Kualoa Ranch 885.6,21.525,-157.85,21,31,30,157,50,60,2380691.218,619101.093,817,249,NCDC_Daily,1996,Present,Current,NCDC_Daily
885.7,Oahu Forest Nwr,21.49944444,-157.9002778,21,29,58,157,54,1,2377824.842,613913.446,2293,699,RAWS,2006,Present,Current,RAWS
886.1,Hakipuu,21.5084922,-157.8555853,21,30,30.6,157,51,20.1,2378859.624,618535.977,45,14,KUALOA RANCH,1948,1960,Discontinued,State
886.5,Kualoa 886.5,21.517,-157.85,21,31,1.2,157,50,60,2379805.65,619107.614,404,123,NCDC_Daily,1926,1941,Discontinued,NCDC_Daily
886.6,Waikane System,21.49682633,-157.8622521,21,29,48.6,157,51,44.1,2377563.222,617854.778,75,23,USGS,1994,Present,Current,USGS
886.7,Waiahole Stream,21.47182752,-157.8705858,21,28,18.6,157,52,14.1,2374789.721,617011.421,240,73,USGS,1960,1968,Discontinued,State
888.1,Opaeula,21.5834924,-158.0739154,21,35,0.6,158,4,26.1,2387011.599,595870.918,430,131,WAIALUA AG,1960,1970,Discontinued,State
889,Anahulu River,21.586548,-158.0822487,21,35,11.6,158,4,56.1,2387344.719,595006.183,205,63,USGS,1967,1971,Discontinued,State
892.1,Kawailoa Kai,21.62987897,-158.0719699,21,37,47.6,158,4,19.1,2392147.391,596041.707,15,5,R R ROBERTS,1976,2000,Discontinued,State
894.3,Kawailoa 20 Mau,21.59182467,-158.0239159,21,35,30.6,158,1,26.1,2387965.528,601041.585,1130,345,WAIALUA AG,1960,1981,Discontinued,State
896,Pupukea Farm,21.64515601,-158.0422477,21,38,42.6,158,2,32.1,2393857.105,599107.436,670,204,HSPA,1932,1948,Discontinued,State
896.4,Pupukea Hts,21.64126692,-158.0294701,21,38,28.6,158,1,46.1,2393434.819,600432.434,900,274,WHEELER JACK,1968,1983,Discontinued,State
896.6,Sunset Beach,21.67626349,-158.0389133,21,40,34.5,158,2,20.1,2397302.612,599431.179,0,0,V VALATINE,1969,1974,Discontinued,State
896.7,Kanalani-Pupukea,21.64293373,-158.0364145,21,38,34.6,158,2,11.1,2393614.849,599712.619,750,229,R T MCDONALD,1974,1983,Discontinued,State
897.1,Kamananui Stream,21.62043425,-158.0150263,21,37,13.6,158,0,54.1,2391138.196,601941.83,590,180,USGS,1963,2003,Discontinued,"State, USGS"
897.11,Kamananui,21.62238889,-158.0143056,21,37,20.6,158,0,51.5,2391355.034,602015.054,720,220,USGS,2003,Present,Current,USGS
897.2,Waimea 25 #1,21.61071319,-158.0403042,21,36,38.6,158,2,25.1,2390045.789,599332.101,791,241,WAIALUA AG,1963,1971,Discontinued,State
897.3,Waimea 25 #2,21.60626852,-158.0266932,21,36,22.6,158,1,36.1,2389562.552,600744.067,990,302,WAIALUA AG,1963,1976,Discontinued,State
897.4,Waimea #3,21.61349052,-158.0289153,21,36,48.6,158,1,44.1,2390360.535,600509.058,950,290,WAIALUA AG,1963,1971,Discontinued,State
897.5,Kawailoa 22 #1,21.60043549,-158.0291933,21,36,1.6,158,1,45.1,2388915.263,600489.3,1000,305,WAIALUA AG,1961,1963,Discontinued,State
897.6,Kawailoa 22 #2,21.60154674,-158.0375266,21,36,5.6,158,2,15.1,2389032.911,599625.89,820,250,WAIALUA AG,1961,1963,Discontinued,State
897.7,Kawailoa 22 #3,21.60599119,-158.043082,21,36,21.6,158,2,35.1,2389521.33,599047.784,760,232,WAIALUA AG,1962,1976,Discontinued,State
897.8,Kawailoa 21,21.59904639,-158.0164158,21,35,56.6,158,0,59.1,2388769.805,601812.98,1160,354,WAIALUA AG,1960,1971,Discontinued,State
898.1,Anahulu,21.59182388,-157.9705828,21,35,30.6,157,58,14.1,2388001.004,606562.909,1940,591,HSPA,1935,1942,Discontinued,State
898.2,Waimea,21.61015665,-158.0022488,21,36,36.6,158,0,8.1,2390008.969,603271.659,1250,381,HSPA,1928,1935,Discontinued,State
898.3,Kaiwikoele Str,21.61210144,-158.0203043,21,36,43.6,158,1,13.1,2390212.364,601401.344,730,223,USGS,1968,1971,Discontinued,State
899.2,Pineapple Field,21.6601538,-157.9639144,21,39,36.6,157,57,50.1,2395569.312,607202.848,370,113,KAHUKU PLANT,1947,1957,Discontinued,State
899.3,Malaekahana Str,21.63459959,-157.9622483,21,38,4.6,157,57,44.1,2392741.752,607394.153,580,177,USGS,1968,1970,Discontinued,State
899.4,Laie Dry Land,21.65126564,-157.9483591,21,39,4.6,157,56,54.1,2394596.262,608819.137,400,122,KAHUKU PLANT,1961,1969,Discontinued,State
901.1,Malaekahana,21.66320708,-157.9339145,21,39,47.5,157,56,2.1,2395928.318,610304.847,5,2,DR JL ARNOLD,1976,1983,Discontinued,State
905.1,Kapaka Makai,21.60182117,-157.898083,21,36,6.6,157,53,53.1,2389159.038,614060.744,10,3,SWIFT GH,1967,1972,Discontinued,State
906.2,Kawela 2,21.68348609,-158.0072468,21,41,0.5,158,0,26.1,2398122.746,602702.42,490,149,KAHUKU PLANT,1928,1945,Discontinued,State
906.3,Kawela Mauka,21.66459852,-158.000303,21,39,52.6,158,0,1.1,2396036.622,603434.298,1050,320,HAWAII NAT GUARD,1965,1969,Discontinued,State
906.4,Field R,21.68515238,-157.9880803,21,41,6.5,157,59,17.1,2398320.013,604684.18,375,114,KAHUKU PLANTATION,1963,1969,Discontinued,State
907.1,Camp Kahuku,21.67015338,-157.9805806,21,40,12.6,157,58,50.1,2396664.789,605471.005,570,174,KAHUKU PLANTATION,1948,1951,Discontinued,State
907.3,Kahuku*,21.69,-157.98,21,41,24,157,58,48,2398862.097,605516.63,15,5,Hydronet,1991,Present,Current,Hydronet
909,Kahuku Training Area,21.67916667,-157.9894444,21,40,45,157,59,22,2397656.509,604547.37,596,182,RAWS,2000,Present,Current,RAWS
911.1,Kii,21.68833333,-157.9525,21,41,18,157,57,9,2398696.577,608362.916,5,2,RAWS,2003,Present,Current,RAWS
913,Field P,21.66987534,-157.9666918,21,40,11.6,157,58,0.1,2396643.519,606908.284,275,84,KAHUKU PLANTATION,1963,1969,Discontinued,State
914,Kahuku Upland Rain Gage,21.66682032,-157.985303,21,40,0.6,157,59,7.1,2396292.636,604984.792,584,178,USGS,1996,1997,Discontinued,USGS
926,Port Allen,21.89381249,-159.6010997,21,53,37.7,159,36,4,2421195.022,437907.068,30,9,FAA,1939,1950,Discontinued,State
928,Kalaheo Fld K-1,21.91353183,-159.5305388,21,54,48.7,159,31,49.9,2423350.877,445203.632,750,229,KAUAI PINE,1943,1964,Discontinued,State
928.2,Kukuiolono,21.90853209,-159.5372061,21,54,30.7,159,32,13.9,2422799.859,444513.053,750,229,MCBRYDE SUGAR,1951,1966,Discontinued,State
931.1,Lawai Beach,21.88853029,-159.5022065,21,53,18.7,159,30,7.9,2420573.67,448120.924,5,2,WD MCBRYDE,1904,1913,Discontinued,State
931.2,Lawai (Govt Rd),21.90186472,-159.5155392,21,54,6.7,159,30,55.9,2422054.19,446748.551,410,125,WD MCBRYDE,1902,1910,Discontinued,State
936.1,Field K-43,21.90686474,-159.4769277,21,54,24.7,159,28,36.9,2422594.744,450738.627,250,76,GROVE FARM,1950,1973,Discontinued,State
936.2,Koloa Field O,21.90853153,-159.4722054,21,54,30.7,159,28,19.9,2422777.729,451226.964,275,84,MCBRYDE SUGAR,1951,1963,Discontinued,State
936.3,Koloa (200),21.89686407,-159.4638729,21,53,48.7,159,27,49.9,2421483.666,452083.722,200,61,KOLOA MILL,1882,1886,Discontinued,State
936.4,Omao*,21.91,-159.48,21,54,36,159,28,48,2422942.767,450422.371,328,100,Hydronet,1994,Present,Current,Hydronet
945.1,Pali Trail,21.97603297,-159.6672114,21,58,33.7,159,40,2,2430324.24,431117.181,850,259,KEKAHA SUGAR,1911,1918,Discontinued,State
946,Waimea Hts,21.96638889,-159.6638889,21,57,59,159,39,50,2429255.236,431455.578,524,160,RAWS,2009,Present,Current,RAWS
966.4,Hanapepe*,21.94,-159.59,21,56,24,159,35,24,2426303.033,439073.335,363,111,Hydronet,1993,Present,Current,Hydronet
983.1,Kalaheo,21.93991953,-159.5202593,21,56,23.7,159,31,12.9,2426268.053,446275.269,1080,329,H FOSTER,1976,1977,Discontinued,State
985.1,Mcbryde Resi,21.9335313,-159.5322044,21,56,0.7,159,31,55.9,2425565.182,445039.275,825,252,WD MCBRYDE,1901,1913,Discontinued,State
990.4,Olokele Mauka,22.05351589,-159.515535,22,3,12.7,159,30,55.9,2438840.294,446805.512,2100,640,HAWAIIAN SUGAR,1911,1941,Discontinued,"NCDC, State, State/NCDC"
996,Kamooloa,21.9685298,-159.4749806,21,58,6.7,159,28,29.9,2429419.697,450960.884,720,220,MCBRYDE SUGAR,1907,1949,Discontinued,"NCDC, State, State/NCDC"
996.1,Koloa Ditch,21.97019634,-159.4722028,21,58,12.7,159,28,19.9,2429603.277,451248.25,700,213,LIHUE PLANTATION,1950,1957,Discontinued,State
1000,Mcbryde F609 K-4,21.95797526,-159.4672033,21,57,28.7,159,28,1.9,2428248.964,451760.297,540,165,MCBRYDE,1948,1983,Discontinued,State
1000.1,Knudsen,21.95408667,-159.4699812,21,57,14.7,159,28,11.9,2427819.421,451472.149,625,191,PRI,1938,1943,Discontinued,State
1007.5,Kipu Kai Gap,21.92408471,-159.3897071,21,55,26.7,159,23,22.9,2424475.345,459752.504,270,82,KIPU KAI RANCH,1959,1982,Discontinued,State
1014,Field L3a,21.98408135,-159.3819272,21,59,2.7,159,22,54.9,2431114.181,460572.542,320,98,LIHUE PLANTATION,1981,1983,Discontinued,State
1015.2,Field 11 Lihue,21.98685837,-159.3805382,21,59,12.7,159,22,49.9,2431421.206,460716.698,275,84,LIHUE PLANTATION,1947,1957,Discontinued,State
1015.3,Field L4,21.9846368,-159.3822049,21,59,4.7,159,22,55.9,2431175.734,460544.027,240,73,LIHUE PLANTATION,1960,1983,Discontinued,State
1019,Lihue Wso*,21.98,-159.34,21,58,48,159,20,24,2430652.22,464899.845,103,31,Hydronet,1991,Present,Current,Hydronet
1020.2,Field 36 Lihue,21.98684436,-159.3388729,21,59,12.6,159,20,19.9,2431409.545,465017.88,75,23,LIHUE PLANTATION,1947,1968,Discontinued,State
1025,Field 246-2,22.04853414,-159.7672094,22,2,54.7,159,46,2,2438398.001,420833.262,10,3,KEKAHA SUGAR,1946,1965,Discontinued,State
1029,Mana,22.02944444,-159.7622222,22,1,46,159,45,44,2436282.315,421337.354,86,26,RAWS,2009,Present,Current,RAWS
1032,Field A,22.02686904,-159.7572101,22,1,36.7,159,45,26,2435994.662,421853.22,35,11,KEKAHA SUGAR,1946,1965,Discontinued,State
1036,Puu Opae,22.04083333,-159.6958333,22,2,27,159,41,45,2437510.276,428194.803,2142,653,RAWS,2009,Present,Current,RAWS
1040.1,Pokii Ridge,22.00853231,-159.685544,22,0,30.7,159,41,8,2433930.007,429240.581,1650,503,KEKAHA SUGAR,1936,1939,Discontinued,State
1040.2,Field 60,22.00408933,-159.7063779,22,0,14.7,159,42,23,2433447.993,427087.83,850,259,KEKAHA SUGAR,1965,1966,Discontinued,State
1042,Waialae,22.087,-159.5664167,22,5,13.2,159,33,59.1,2442565.292,441569.031,4000,1220,USGS,2001,Present,Current,USGS
1044,Keanakua 1044,22.067,-159.55,22,4,1.2,159,33,0,2440345.273,443254.612,4256,1298,NCDC_Daily,1949,1953,Discontinued,NCDC_Daily
1052.1,Iliiliula Cutoff,22.02462963,-159.4655351,22,1,28.7,159,27,55.9,2435626.313,451954.993,1050,320,LIHUE PLANTATION,1927,1931,Discontinued,State
1053,Hanalei Tunnel,22.09404114,-159.4658122,22,5,38.5,159,27,56.9,2443309.521,451949.855,1220,372,LIHUE PLANTATION,1931,1980,Discontinued,NCDC
1054.1,Lihue Ditch,22.025257,-159.430849,22,1,30.9,159,25,51.1,2435685.254,455534.978,550,168,LIHUE PLANTATION,1951,1957,Discontinued,State
1054.3,Fld Lihue 8,22.0135174,-159.4055366,22,0,48.7,159,24,19.9,2434378.668,458143.885,450,137,HAW'N CANNERIES,1951,1962,Discontinued,State
1054.4,Fld Lihue 9,22.01518351,-159.4072032,22,0,54.7,159,24,25.9,2434563.544,457972.361,500,152,HAW'N CANNERIES,1951,1955,Discontinued,State
1055,N Wailua River,22.06405247,-159.4372016,22,3,50.6,159,26,13.9,2439981.345,454891.659,650,198,LIHUE PLANTATION,1949,1980,Discontinued,NCDC
1055.2,Hanahanapuni,22.05377826,-159.4255353,22,3,13.6,159,25,31.9,2438840.699,456092.175,910,277,USGS,1911,1983,Discontinued,State
1055.4,Field H-45,22.03711942,-159.4205357,22,2,13.6,159,25,13.9,2436995.323,456602.974,555,169,LIHUE PLANTATION,1965,1968,Discontinued,State
1059,Lihue Variety Stn*,22.02,-159.39,22,1,12,159,23,24,2435092.042,459749.293,384,117,Hydronet,1995,Present,Current,Hydronet
1060,Wailua Uh Exp Stn*,22.07,-159.4,22,4,12,159,24,0,2440629.136,458731.714,519,158,Hydronet,1991,Present,Current,Hydronet
1061.1,Ekw 6,22.06182575,-159.4122021,22,3,42.6,159,24,43.9,2439727.69,457470.353,475,145,LIHUE PLANTATION,1950,1959,Discontinued,State
1061.2,Field 224,22.0612693,-159.4072023,22,3,40.6,159,24,25.9,2439664.712,457986.058,475,145,HAWN FRUIT PACKER,1955,1971,Discontinued,State
1063,Field 619,22.07179856,-159.3605366,22,4,18.5,159,21,37.9,2440818.063,462803.693,300,91,HAWN FRUIT PACKERS,1948,1973,Discontinued,State
1064.1,H 14,22.01240441,-159.3819262,22,0,44.7,159,22,54.9,2434249.197,460580.473,330,101,LIHUE PLANTATION,1965,1984,Discontinued,State
1064.2,Field H-27,22.01712648,-159.3958145,22,1,1.7,159,23,44.9,2434775.52,459148.365,405,123,LIHUE PLANTATION,1963,1986,Discontinued,State
1064.3,H 23 Camp 9,22.01795491,-159.3694264,22,1,4.6,159,22,9.9,2434860.399,461872.106,315,96,LIHUE PLANTATION,1984,1995,Discontinued,State
1068,Lt Br Opaekaa St,22.07561111,-159.3958889,22,4,32.2,159,23,45.2,2441249.117,459157.476,470,143,USGS,1960,Present,Current,"State, USGS"
1069,Puu Lua,22.08916667,-159.6791667,22,5,21,159,40,45,2442852.668,429938.565,3350,1021,RAWS,2009,Present,Current,RAWS
1072.1,Puu Lua,22.09019557,-159.6722057,22,5,24.7,159,40,19.9,2442963.375,430657.174,3500,1067,USGS,1919,1919,Discontinued,State
1074,Makaha Ridge,22.13055556,-159.7152778,22,7,50,159,42,55,2447451.205,426234.81,1788,545,RAWS,2002,Present,Current,RAWS
1077,Kalalau,22.16015942,-159.6338687,22,9,36.6,159,38,1.9,2450690.901,434644.3,960,293,USGS,1936,1955,Discontinued,State
1077.1,Lehuamakanoi,22.14544521,-159.6205353,22,8,43.6,159,37,13.9,2449056.468,436012.441,3930,1198,USGS,1919,1936,Discontinued,State
1085,Mohihi-Koaie Divide,22.11425,-159.5866667,22,6,51.3,159,35,12,2445589.54,439491.631,4000,1220,USGS,2001,Present,Current,USGS
1092.2,Fld W-6,22.12674141,-159.360536,22,7,36.3,159,21,37.9,2446899.627,462818.152,450,137,HAWN FRUIT PACKERS,1955,1960,Discontinued,State
1092.4,Field M1a,22.13700848,-159.3624803,22,8,13.2,159,21,44.9,2448036.559,462620.344,760,232,LIHUE PLANTATION,1966,1967,Discontinued,State
1094,E Kaua W 3 (370),22.09844692,-159.3735915,22,5,54.4,159,22,24.9,2443770.981,461464.046,370,113,LIHUE PLANTATION,1932,1948,Discontinued,State
1095.1,Newlun's House,22.10677081,-159.3722025,22,6,24.4,159,22,19.9,2444691.994,461609.574,650,198,USGS,1914,1918,Discontinued,State
1097.1,Field 617,22.08734482,-159.3705361,22,5,14.4,159,22,13.9,2442541.332,461776.224,450,137,HAWN FRUIT PACKER,1950,1973,Discontinued,State
1100.1,Kapahi (Mckee),22.09843088,-159.3472033,22,5,54.4,159,20,49.9,2443762.764,464186.009,305,93,MCKEE SUGAR,1900,1916,Discontinued,State
1101,Field Lihue 2,22.12310991,-159.3272036,22,7,23.2,159,19,37.9,2446489.889,466254.865,400,122,HAWN CANNERIES,1937,1949,Discontinued,State
1102.2,Field 207-A,22.12809836,-159.320537,22,7,41.2,159,19,13.9,2447040.591,466943.573,350,107,HAWN FRUIT PACKER,1956,1973,Discontinued,State
1107.1,Kapaa,22.08840889,-159.3072046,22,5,18.3,159,18,25.9,2442644.582,468309.665,50,15,State,1883,1886,Discontinued,State
1111.3,HC-8,22.16832672,-159.3222034,22,10,6,159,19,19.9,2451493.801,466781.159,160,49,HAWN FRUIT PACKERS,1961,1963,Discontinued,State
1111.4,Anahola No. 2,22.1374,-159.3119,22,8,14.6,159,18,42.8,2448068.328,467836.41,240,73,HAWN FRUIT PACKERS,1964,Present,Current,"Hydronet, State"
1113.1,Field HC208,22.10672074,-159.3055377,22,6,24.2,159,18,19.9,2444671.147,468485.684,100,30,HAWN FRUIT PACKERS,1955,1973,Discontinued,State
1115.1,Ph Wainiha*,22.2,-159.56,22,12,0,159,33,36,2455071.011,442277.069,115,35,Hydronet,1991,Present,Current,Hydronet
1117.1,Hanalei-Deverill,22.20006472,-159.5022006,22,12,0.2,159,30,7.9,2455057.307,448234.978,10,3,EGK DEVERILL,1892,1909,Discontinued,State
1117.4,Fld P-24,22.21002604,-159.452201,22,12,36.1,159,27,7.9,2456143.719,453392.126,275,84,HAWN CANNERIES,1958,1962,Discontinued,State
1117.7,Shop,22.21364628,-159.4788675,22,12,49.1,159,28,43.9,2456552.891,450644.86,220,67,EAGLE CTY DEV CORP,1971,1973,Discontinued,State
1118.1,Kulaiki,22.22473699,-159.4691453,22,13,29.1,159,28,8.9,2457777.405,451650.709,200,61,PRINCEVILLE HANALEI,1970,1981,Discontinued,State
1118.2,Puu Pua,22.22142279,-159.4972007,22,13,17.1,159,29,49.9,2457419.773,448758.114,120,37,PRINCEVILLE HANALEI,1970,1981,Discontinued,State
1118.3,Ocean 7,22.22613387,-159.4888675,22,13,34.1,159,29,19.9,2457938.456,449618.638,130,40,PRINCEVILLE HANALEI,1971,1981,Discontinued,State
1118.4,Wood 9,22.21891848,-159.481923,22,13,8.1,159,28,54.9,2457137.478,450331.791,220,67,PRINCEVILLE HANALEI,1971,1981,Discontinued,State
1118.5,Lake 2,22.2200242,-159.4741452,22,13,12.1,159,28,26.9,2457257.343,451133.787,250,76,PRINCEVILLE HANALEI,1971,1975,Discontinued,State
1118.6,Lake 6,22.22390641,-159.471923,22,13,26.1,159,28,18.9,2457686.356,451364.153,210,64,PRINCEVILLE HANALEI,1973,1981,Discontinued,State
1131.4,Mauka Field 31,22.19587896,-159.4527565,22,11,45.2,159,27,9.9,2454577.932,453330.194,440,134,PRINCEVILLE RANC,1963,1981,Discontinued,State
1131.7,Hanalei,22.17958333,-159.4663889,22,10,46.5,159,27,59,2452778.408,451919.409,60,18,USGS,2001,Present,Current,USGS
1132,Kilauea Fld 3 #1,22.20779162,-159.4255346,22,12,28,159,25,31.9,2455888.43,456139.947,325,99,KILAUEA SUGAR,1936,1951,Discontinued,State
1132.1,Kilauea Fld 3,22.20168903,-159.4255345,22,12,6.1,159,25,31.9,2455212.929,456138.061,325,99,KILAUEA SUGAR,1919,1969,Discontinued,"NCDC, State, State/NCDC"
1146,Moloaa Dairy,22.18333333,-159.3375,22,11,0,159,20,15,2453158.305,465207.775,280,85,RAWS,2002,Present,Current,RAWS
1147,Fld 960-Moloaa,22.17444115,-159.3360919,22,10,28,159,20,9.9,2452173.709,465350.755,260,79,LIHUE PLANTATION,1963,1974,Discontinued,State
